hide;lat;lon;status;closed;name;addr;town;posttown;county;postcode;prev;img;url;gsv
;;;limbo;2015;Angel;1a Woodhatch Road;Woodhatch;Reigate;Surrey;RH2 7LJ;;https://whatpub.com/img/REI/321/angel-reigate/200/150;https://whatpub.com/pubs/REI/321/angel-reigate;
;51.2332485334;-0.2287159874;open;;Skimmington Castle;Bonny's Road;Reigate Heath;Reigate;Surrey;RH2 8RL;;https://whatpub.com/img/REI/347/skimmington-castle-reigate-heath/298/224/1;https://whatpub.com/pubs/REI/347/skimmington-castle-reigate-heath;
;51.2105381887;-0.257662387;open;;Seven Stars;Bunce Common Road;Dawes Green;Reigate;Surrey;RH2 8NP;;https://whatpub.com/img/REI/232/seven-stars-leigh/298/224/1;https://whatpub.com/pubs/REI/232/seven-stars-leigh;https://www.google.co.uk/maps/@51.2106753,-0.2571546,3a,21.5y,245.76h,93.05t/data=!3m6!1e1!3m4!1s3apROMigXd81Ie62nRmC3w!2e0!7i13312!8i6656
;51.2082865344;-0.2498960508;open;;Plough;Church Road;Leigh;Reigate;Surrey;RH2 8NJ;;https://whatpub.com/img/REI/231/plough-leigh/298/224/1;https://whatpub.com/pubs/REI/231/plough-leigh;https://www.google.co.uk/maps/@51.208087,-0.2498295,3a,54.4y,2.53h,87.85t/data=!3m6!1e1!3m4!1s1l5ONBdYVTTD6KnDbpMWtg!2e0!7i13312!8i6656
;51.2018418269;-0.2129727629;open;;Three Horseshoes;Ironsbottom;Sidlow Bridge;Reigate;Surrey;RH2 8PT;;https://whatpub.com/img/REI/354/three-horseshoes-inn-sidlow-bridge/298/224/1;https://whatpub.com/pubs/REI/354/three-horseshoes-inn-sidlow-bridge;https://www.google.co.uk/maps/@51.2017891,-0.2131196,3a,75y,83.04h,85.33t/data=!3m6!1e1!3m4!1sxDLT0tCXVwNKhpHlbw8iSA!2e0!7i13312!8i6656
;;;;;;;;;;;;;;
;51.2330773047;-0.2868419276;open;;Royal Oak;Brockham Green ;Brockham;Betchworth;Surrey;RH3 7JS ;;https://whatpub.com/img/REI/33/royal-oak-brockham/298/224/1;https://whatpub.com/pubs/REI/33/royal-oak-brockham;https://www.google.co.uk/maps/@51.2326856,-0.2868236,3a,24.9y,1.79h,90.94t/data=!3m6!1e1!3m4!1sru_fKplVfEscuvWnKykkvg!2e0!7i13312!8i6656
;51.2329315166;-0.2856125811;open;;Inn on the Green;Brockham Green ;Brockham;Betchworth;Surrey;RH3 7JS ;Duke’s Head;https://whatpub.com/img/REI/32/inn-on-the-green-brockham/298/224/1;https://whatpub.com/pubs/REI/32/inn-on-the-green-brockham;https://www.google.co.uk/maps/@51.2328044,-0.2857513,3a,60y,38.15h,90t/data=!3m6!1e1!3m4!1sXHevOwoV5Fsv0NDe6IzsLQ!2e0!7i13312!8i6656
;51.2400349427;-0.2836232759;open;;Arkle Manor;Reigate Road;;Betchworth;Surrey;RH3 7HB ;Barley Mow ;https://whatpub.com/img/REI/17/arkle-manor-betchworth/298/224/1;https://whatpub.com/pubs/REI/17/arkle-manor-betchworth;https://www.google.co.uk/maps/@51.2403434,-0.2841571,3a,45.1y,139.22h,94.04t/data=!3m7!1e1!3m5!1sVSEmBxP41mav_SwGFlBxHA!2e0!6s%2F%2Fgeo1.ggpht.com%2Fcbk%3Fpanoid%3DVSEmBxP41mav_SwGFlBxHA%26output%3Dthumbnail%26cb_client%3Dmaps_sv.tactile.gps%26thumb%3D2%26w%3D203%26h%3D100%26yaw%3D261.54428%26pitch%3D0%26thumbfov%3D100!7i13312!8i6656
;51.2336482461;-0.2661448744;open;;Dolphin;The Street;;Betchworth;Surrey;RH3 7DW;;https://whatpub.com/img/REI/18/dolphin-inn-betchworth/298/224/1;https://whatpub.com/pubs/REI/18/dolphin-inn-betchworth;https://www.google.co.uk/maps/@51.2336845,-0.2664156,3a,75y,101.86h,94.88t/data=!3m6!1e1!3m4!1sLHSEOdUgHkksWC63Ydyszw!2e0!7i13312!8i6656
;51.2374285429;-0.2643209723;open;;Hartsfield Manor;Sandy Lane;;Betchworth;Surrey;RH3 7AA;;https://whatpub.com/img/REI/493/hartsfield-manor-betchworth/298/224/1;https://whatpub.com/pubs/REI/493/hartsfield-manor-betchworth;
;51.2402295567;-0.2629731609;open;;Red Lion;Old Road;;Betchworth;Surrey;RH3 7DS;;https://whatpub.com/img/REI/19/red-lion-betchworth/298/224/1;https://whatpub.com/pubs/REI/19/red-lion-betchworth;
;51.2430589458;-0.2403326346;open;;Pheasant at Buckland;Reigate Road;Buckland;Betchworth;Surrey;RH3 7BG;Jolly Farmers ;https://whatpub.com/img/REI/34/pheasant-at-buckland-buckland/298/224/1;https://whatpub.com/pubs/REI/34/pheasant-at-buckland-buckland;https://www.google.co.uk/maps/@51.2433249,-0.2403751,3a,50.6y,169.02h,90.45t/data=!3m7!1e1!3m5!1sW4zvfdBMWYEbUnYOw0gXag!2e0!6s%2F%2Fgeo3.ggpht.com%2Fcbk%3Fpanoid%3DW4zvfdBMWYEbUnYOw0gXag%26output%3Dthumbnail%26cb_client%3Dmaps_sv.tactile.gps%26thumb%3D2%26w%3D203%26h%3D100%26yaw%3D209.03949%26pitch%3D0%26thumbfov%3D100!7i13312!8i6656
;51.2208927027;-0.2822381312;gone;late 1990s;Spotted Cow;80 Middle Street;Strood Green;Betchworth;Surrey;RH3 7HU;;https://whatpub.com/img/REI/365/spotted-cow-strood-green/298/224/1;https://whatpub.com/pubs/REI/365/spotted-cow-strood-green;https://www.google.co.uk/maps/@51.2207277,-0.2818024,3a,70.1y,309.63h,87.89t/data=!3m6!1e1!3m4!1sOS8giPW8725AnQ5kh0MO9w!2e0!7i13312!8i6656
;;;;;;;;;;;;;;
;51.2359065707;-0.3382907253;limbo;;Pilgrim;Station Road ;;Dorking;Surrey;RH4 1HF ;Station Inn;https://whatpub.com/img/REI/97/pilgrim-dorking/298/224/1;https://whatpub.com/pubs/REI/97/pilgrim-dorking;https://www.google.co.uk/maps/@51.2357006,-0.3384126,3a,75y,31.66h,93.43t/data=!3m6!1e1!3m4!1sNq4_bDMY6BQUbt99kvHxyA!2e0!7i13312!8i6656
;51.2318232427;-0.3354686277;open;;King's Arms;45 West Street;;Dorking;Surrey;RH4 1BU ;;https://whatpub.com/img/REI/91/kings-arms-dorking/200/150;https://whatpub.com/pubs/REI/91/kings-arms-dorking;https://www.google.co.uk/maps/@51.2317689,-0.3353705,3a,75y,326.98h,92.3t/data=!3m6!1e1!3m4!1s1eqeoM72tWU89oZuUfyPmQ!2e0!7i13312!8i6656
;51.2316890538;-0.3361724853;open;;Old House at Home;24 West Street;;Dorking;Surrey;RH4 1BY ;;https://whatpub.com/img/REI/96/old-house-dorking/200/150;https://whatpub.com/pubs/REI/96/old-house-dorking;https://www.google.co.uk/maps/@51.2317714,-0.3360084,3a,51.9y,232.78h,96.01t/data=!3m6!1e1!3m4!1s4Etz_57UO8T_6k6gPAYhDA!2e0!7i13312!8i6656
;51.2318822856;-0.3367144271;open;;Star;36 West Street;;Dorking;Surrey;RH4 1BU ;;https://whatpub.com/img/REI/103/star-inn-dorking/200/150;https://whatpub.com/pubs/REI/103/star-inn-dorking;https://www.google.co.uk/maps/@51.2319965,-0.3368601,3a,51.4y,136.5h,96.63t/data=!3m6!1e1!3m4!1sAK0BcYcGKE8xfn_f1TVxvg!2e0!7i13312!8i6656
;51.2316932292;-0.3341085358;gone;1979;Bell;57 West Street;;Dorking;Surrey;RH4 1BS ;;http://www.closedpubs.co.uk/surrey/pics/dorking_bell.JPG;https://whatpub.com/pubs/REI/83/bell-dorking;https://www.google.co.uk/maps/@51.2316313,-0.3340766,3a,89.8y,344.08h,89.31t/data=!3m6!1e1!3m4!1stVYvvFDiLBRpW5WNJo6OZQ!2e0!7i13312!8i6656
;51.2324422954;-0.3303120851;open;;White Horse Hotel;74-77 High Street;;Dorking;Surrey;RH4 1BE ;;https://whatpub.com/img/REI/107/white-horse-hotel-dorking/298/224/1;https://whatpub.com/pubs/REI/107/white-horse-hotel-dorking;https://www.google.co.uk/maps/@51.2325861,-0.3305374,3a,55.8y,123.61h,88.48t/data=!3m6!1e1!3m4!1sL_bmaMty4IJooVzt6qefug!2e0!7i13312!8i6656
;51.2316497283;-0.3328455644;bone;C18;King's Head;3-11 High Street;;Dorking;Surrey;RH4 1AR ;Lower Chequers Inn ;https://whatpub.com/img/REI/92/courtyard-cafe-bar-dorking/298/224/1;https://whatpub.com/pubs/REI/92/courtyard-cafe-bar-dorking;https://www.google.co.uk/maps/@51.2316007,-0.3328123,3a,89.8y,321.71h,83.36t/data=!3m6!1e1!3m4!1s4vVGE_QrrJhamy8Mni0tWQ!2e0!7i13312!8i6656
;51.2331657058;-0.328902465;limbo;;Surrey Yeoman;220-222 High Street;;Dorking;Surrey;RH4 1QR ;;https://whatpub.com/img/REI/104/surrey-yeoman-dorking/298/224/1000001;https://whatpub.com/pubs/REI/104/surrey-yeoman-dorking;https://www.google.co.uk/maps/@51.2332453,-0.3289806,3a,75y,140.24h,89.9t/data=!3m6!1e1!3m4!1sRB7AMFxlVsavpYzCQ52gBg!2e0!7i13312!8i6656
;51.2398798198;-0.3248564753;open;;Lincoln Arms;Station Approach;;Dorking;Surrey;RH4 1TF ;Star and Garter;https://whatpub.com/img/REI/93/lincoln-arms-hotel-dorking/298/224/1;https://whatpub.com/pubs/REI/93/lincoln-arms-hotel-dorking;https://www.google.co.uk/maps/@51.2399702,-0.3252059,3a,52.4y,100.89h,94.19t/data=!3m6!1e1!3m4!1sMvgga9pMTc2oQGCpODSyFw!2e0!7i13312!8i6656
;51.2474836562;-0.3239356968;bone;1876;Beehive;London Road;;Dorking;Surrey;;;http://www.closedpubs.co.uk/surrey/pics/dorking_beehive2.jpg;http://www.closedpubs.co.uk/surrey/dorking_beehive2.html;https://www.google.co.uk/maps/@51.2474026,-0.3242468,3a,51.6y,67.5h,91.52t/data=!3m6!1e1!3m4!1sAnAmojoR4s7Kag8YX8IexA!2e0!7i13312!8i6656
;51.2339394975;-0.3320269636;dead;2008;Malthouse;29 Mill Lane;;Dorking;Surrey;RH4 1DX ;Evening Star;http://www.closedpubs.co.uk/surrey/pics/dorking_malthouse.JPG|https://whatpub.com/img/REI/94/malthouse-dorking/298/224/1;https://whatpub.com/pubs/REI/94/malthouse-dorking;https://www.google.co.uk/maps/@51.2341148,-0.3317597,3a,55.2y,221.77h,92.86t/data=!3m6!1e1!3m4!1saJuaH1uPSRQnlRqCHZ9yrQ!2e0!7i13312!8i6656
;51.2362670345;-0.3180691939;dead;1988;Punchbowl;Reigate Road;;Dorking;Surrey;RH4 1QB ;;http://www.closedpubs.co.uk/surrey/pics/dorking_punchbowl.jpg;https://whatpub.com/pubs/REI/100/punchbowl-dorking;https://www.google.co.uk/maps/@51.2366195,-0.3178748,3a,33.9y,200.1h,92.3t/data=!3m6!1e1!3m4!1sL2e0H73J3e5akaHbflvPJg!2e0!7i13312!8i6656
;51.2381772655;-0.3123322418;open;;Watermill;Reigate Road;;Dorking;Surrey;RH4 1NN ;;https://whatpub.com/img/REI/105/watermill-inn-dorking/298/224/1000001;https://whatpub.com/pubs/REI/105/watermill-inn-dorking;https://www.google.co.uk/maps/@51.237892,-0.3126047,3a,45.5y,28.25h,88.37t/data=!3m6!1e1!3m4!1sHRIZ0LaLbbb0lVXYA1UNSA!2e0!7i13312!8i6656
;51.2231749451;-0.3324224403;gone;2012;Bush;10 Horsham Road;;Dorking;Surrey;RH4 2JL ;;http://www.closedpubs.co.uk/surrey/pics/dorking_bush.jpg|https://whatpub.com/img/REI/85/bush-dorking/298/224/1;https://whatpub.com/pubs/REI/85/bush-dorking;https://www.google.co.uk/maps/@51.2231281,-0.3322291,3a,75y,293.3h,85.51t/data=!3m6!1e1!3m4!1sAbXTmlywKbX0-g-QEsuCag!2e0!7i13312!8i6656
;51.2179772389;-0.329072332;gone;2004;Windmill;Horsham Road;;Dorking;Surrey;RH4 2LL ;;http://www.closedpubs.co.uk/surrey/pics/dorking_windmill.jpg|https://whatpub.com/img/REI/109/windmill-dorking/298/224/1;https://whatpub.com/pubs/REI/109/windmill-dorking;https://www.google.co.uk/maps/@51.2179296,-0.3289115,3a,89.8y,263.19h,89.3t/data=!3m6!1e1!3m4!1sCiOOPLprLLpfvldQjhWFXA!2e0!7i13312!8i6656
;51.2312393693;-0.3332322845;open;;Bull's Head;11 South Street;;Dorking;Surrey;RH4 2DY ;;https://whatpub.com/img/REI/461/bulls-head-dorking/200/150;https://whatpub.com/pubs/REI/461/bulls-head-dorking;https://www.google.co.uk/maps/@51.2312086,-0.3334178,3a,41y,67.91h,93.68t/data=!3m6!1e1!3m4!1swSaxOpP8kd9anUPZi7ISUw!2e0!7i13312!8i6656
;51.2285936562;-0.3345485649;open;;Cricketers;81 South Street;;Dorking;Surrey;RH4 2JU ;;https://whatpub.com/img/REI/87/cricketers-dorking/200/150;https://whatpub.com/pubs/REI/87/cricketers-dorking;https://www.google.co.uk/maps/@51.2287197,-0.3345946,3a,75y,152.66h,91.72t/data=!3m6!1e1!3m4!1s52eKWoe9UzVM93LEnshZ8Q!2e0!7i13312!8i6656
;51.227292386;-0.3349798291;open;;Queen's Head;1 Horsham Road;;Dorking;Surrey;RH4 2JS ;;https://whatpub.com/img/REI/101/queens-head-dorking/200/150;https://whatpub.com/pubs/REI/101/queens-head-dorking;https://www.google.co.uk/maps/@51.227203,-0.3351105,3a,75y,48.17h,94.4t/data=!3m6!1e1!3m4!1sSkJUKxPSPMrYPcPmq0R5Fg!2e0!7i13312!8i6656
;51.2325245966;-0.3291615303;open;;White Hart;5 Dene Street;;Dorking;Surrey;RH4 2DR ;;https://whatpub.com/img/REI/106/white-hart-dorking/298/224/1;https://whatpub.com/pubs/REI/106/white-hart-dorking;https://www.google.co.uk/maps/@51.2324245,-0.3291371,3a,75y,356.5h,89.73t/data=!3m6!1e1!3m4!1s4_cfjnIToddnmr4W3RZ9Pw!2e0!7i13312!8i6656
;51.2320146847;-0.328787219;open;;Red Bar & Lounge;45 Dene Street;;Dorking;Surrey;RH4 2DW ;Beehive|Jolly Butchers;http://www.closedpubs.co.uk/surrey/pics/dorking_beehive.JPG|https://whatpub.com/img/REI/81/red-bar-lounge-dorking/298/224/1;https://whatpub.com/pubs/REI/81/red-bar-lounge-dorking;https://www.google.co.uk/maps/@51.2320482,-0.3285711,3a,75y,256.42h,85.12t/data=!3m6!1e1!3m4!1sn2sI3To_V-a9OT5mzxSUJQ!2e0!7i13312!8i6656
;51.230963831;-0.3341571096;open;;Spotted Dog;42 South Street;;Dorking;Surrey;RH4 2HQ ;;https://whatpub.com/img/REI/102/spotted-dog-dorking/200/150;https://whatpub.com/pubs/REI/102/spotted-dog-dorking;https://www.google.co.uk/maps/@51.2308477,-0.3340773,3a,75y,351.08h,91.89t/data=!3m6!1e1!3m4!1sEDBPkijzbTNR27vjd1KVEA!2e0!7i13312!8i6656
;51.2249600882;-0.3353500276;open;;Falkland Arms;60 Falkland Road;;Dorking;Surrey;RH4 3AD ;;https://whatpub.com/img/REI/89/falkland-arms-dorking/200/150;https://whatpub.com/pubs/REI/89/falkland-arms-dorking;https://www.google.co.uk/maps/@51.2249245,-0.3350063,3a,50.1y,277.83h,95.93t/data=!3m6!1e1!3m4!1sMITRB-0w5o5BUrd6UPphpg!2e0!7i13312!8i6656
;51.2247118608;-0.334100768;open;;Prince of Wales;55 Hampstead Road;;Dorking;Surrey;RH4 3AH ;;https://whatpub.com/img/REI/98/prince-of-wales-dorking/200/150;https://whatpub.com/pubs/REI/98/prince-of-wales-dorking;https://www.google.co.uk/maps/@51.2245965,-0.3339795,3a,55.9y,340.82h,93.35t/data=!3m6!1e1!3m4!1srPWaa31VlOcV324Emd_awg!2e0!7i13312!8i6656
;51.230125;-0.334259;open;;Rialto Lounge & Kitchen;33 South Street;;Dorking;Surrey;RH4 2JZ;;;https://whatpub.com/pubs/REI/496/rialto-lounge-kitchen-dorking;https://www.google.co.uk/maps/@51.2300705,-0.3344011,3a,90y,116.61h,88.67t/data=!3m6!1e1!3m4!1sV0kxnHq1ILYpxe0BS7F4WA!2e0!7i13312!8i6656
;51.233324;-0.331566;open;;Burgundy & Black;12 St Martin's Walk;;Dorking;Surrey;RH4 1UT;;https://whatpub.com/img/REI/462/burgundy-black-dorking/298/224/1;https://whatpub.com/pubs/REI/462/burgundy-black-dorking;https://www.google.co.uk/maps/@51.2333949,-0.3322483,3a,17.3y,97.34h,94.5t/data=!3m6!1e1!3m4!1s0Rxkad0q6nshj1qzUmQbvw!2e0!7i13312!8i6656
;51.231677;-0.335922;open;;Cobbett's;23 West Street;;Dorking;Surrey;RH4 1BY;;https://whatpub.com/img/REI/450/cobbetts-dorking/298/224/1;https://whatpub.com/pubs/REI/450/cobbetts-dorking;https://www.google.co.uk/maps/@51.2317714,-0.3360084,3a,56.2y,150.5h,90.39t/data=!3m7!1e1!3m5!1s4Etz_57UO8T_6k6gPAYhDA!2e0!6s%2F%2Fgeo0.ggpht.com%2Fcbk%3Fpanoid%3D4Etz_57UO8T_6k6gPAYhDA%26output%3Dthumbnail%26cb_client%3Dmaps_sv.tactile.gps%26thumb%3D2%26w%3D203%26h%3D100%26yaw%3D222.65979%26pitch%3D0%26thumbfov%3D100!7i13312!8i6656
;51.229679;-0.334562;limbo;;South Street Wine Bar;43 South Street;;Dorking;Surrey;RH4 2JX;;https://whatpub.com/img/REI/422/south-street-wine-bar-dorking/298/224/1000001;https://whatpub.com/pubs/REI/422/south-street-wine-bar-dorking;https://www.google.co.uk/maps/@51.2296551,-0.3346023,3a,42.6y,55.64h,92.42t/data=!3m6!1e1!3m4!1sKe38y0DGf8WrPb89jgQ5Uw!2e0!7i13312!8i6656
;51.22941;-0.334572;limbo;;Genghis;53-55 South Street;;Dorking;Surrey;RH4 2JX;Ceylon Tavern;https://whatpub.com/img/REI/415/genghis-dorking/298/224/1;https://whatpub.com/pubs/REI/415/genghis-dorking;https://www.google.co.uk/maps/@51.2294581,-0.3345987,3a,75y,63.14h,87.02t/data=!3m6!1e1!3m4!1scU7cpp99KH3vz1tGt4zExw!2e0!7i13312!8i6656
;51.228689;-0.334455;open;;Little Dudley House;77 South Street;;Dorking;Surrey;RH4 2EU;;https://whatpub.com/img/REI/447/little-dudley-house-dorking/298/224/1;https://whatpub.com/pubs/REI/447/little-dudley-house-dorking;https://www.google.co.uk/maps/@51.2287197,-0.3345946,3a,75y,78.28h,91.31t/data=!3m6!1e1!3m4!1s52eKWoe9UzVM93LEnshZ8Q!2e0!7i13312!8i6656
;51.233812;-0.327967;dead;;Office;272 High Street;;Dorking;Surrey;RH4 1QT;Applejacks|Arthur's|R4s ;https://whatpub.com/img/REI/95/office-dorking/298/224/1;https://whatpub.com/pubs/REI/95/office-dorking;https://www.google.co.uk/maps/@51.2338397,-0.3281251,3a,50.6y,111.39h,86.46t/data=!3m6!1e1!3m4!1s7546TVuENllLjRP_ITEycg!2e0!7i13312!8i6656
;51.234588;-0.325647;open;;Dorking Halls;Reigate Road;;Dorking;Surrey;RH4 1SG;;https://whatpub.com/img/REI/88/dorking-halls-dorking/298/224/1;https://whatpub.com/pubs/REI/88/dorking-halls-dorking;https://www.google.co.uk/maps/@51.2349116,-0.3258417,3a,54.7y,144.95h,90.1t/data=!3m6!1e1!3m4!1s6VrvNHJegBKALWkEpBFi8Q!2e0!7i13312!8i6656
;51.236059;-0.340491;open;;Dorking Brewery;Engine Shed, Dorking West Station Yard, Station Rd;;Dorking;Surrey;RH4 1HF;;https://whatpub.com/img/REI/429/dorking-brewery-dorking/298/224/1;https://whatpub.com/pubs/REI/429/dorking-brewery-dorking;https://www.google.co.uk/maps/@51.2359875,-0.3396438,3a,15y,280.22h,90.09t/data=!3m6!1e1!3m4!1smvRgzHHNGUUaQDQ1iCTdMw!2e0!7i13312!8i6656
;;;;;;;;;;;;;;
;51.2257062594;-0.3637397303;open;;Prince of Wales;Guildford Road;Westcott;Dorking;Surrey;RH4 3QE;;https://whatpub.com/img/REI/386/prince-of-wales-westcott/200/150;https://whatpub.com/pubs/REI/386/prince-of-wales-westcott;https://www.google.co.uk/maps/@51.2255701,-0.3635301,3a,52.1y,321.75h,90.23t/data=!3m6!1e1!3m4!1s3INvJKLcvsyOWZcJBmz6Ig!2e0!7i13312!8i6656
;51.2245346228;-0.368099661;dead;2007;Cricketers;7 Guildford Road;Westcott;Dorking;Surrey;RH4 3NW;;https://whatpub.com/img/REI/384/cricketers-westcott/298/224/1;http://www.closedpubs.co.uk/surrey/westcott_cricketers.html|https://whatpub.com/pubs/REI/384/cricketers-westcott;https://www.google.co.uk/maps/@51.2246099,-0.3683017,3a,48.9y,90.08h,88.32t/data=!3m6!1e1!3m4!1sl5zPfgqWNVkXpZ0hDvb3qQ!2e0!7i13312!8i6656
;51.2255441638;-0.3627714528;dead;2011;Crown ;Guildford Road;Westcott;Dorking;Surrey;RH4 3QG ;;https://whatpub.com/img/REI/385/bertram-bees-westcott/298/224/1;https://whatpub.com/pubs/REI/385/bertram-bees-westcott;https://www.google.co.uk/maps/@51.2256148,-0.3630267,3a,49.5y,106.26h,95.29t/data=!3m6!1e1!3m4!1sleKpX1zqnYNmL-1iS66wtw!2e0!7i13312!8i6656
;;;bone;;Bricklayer’s Arms ;Westcott Street ;Westcott;Dorking;Surrey;;;http://www.closedpubs.co.uk/surrey/pics/westcott_bricklayersarms.jpg;http://www.closedpubs.co.uk/surrey/westcott_bricklayersarms.html;
;;;bone;;Cabin ;St John’s Road ;Westcott;Dorking;Surrey;;;;http://www.closedpubs.co.uk/surrey/westcott_cabin.html;
;;;bone;;Uncle Tom’s Cabin ;Westcott Street ;Westcott;Dorking;Surrey;;;;http://www.closedpubs.co.uk/surrey/westcott_uncletomscabin.html;
;;;;;;;;;;;;;;
;51.2183558909;-0.3152062924;open;;Royal Oak;Chart Lane South ;Stonebridge ;Dorking;Surrey;RH5 4DJ ;;https://whatpub.com/img/REI/363/royal-oak-stonebridge/200/150;https://whatpub.com/pubs/REI/363/royal-oak-stonebridge;https://www.google.co.uk/maps/@51.2182879,-0.3150384,3a,75y,289.02h,85.04t/data=!3m6!1e1!3m4!1s1QJTAuwQS5C4edw2uAZl-A!2e0!7i13312!8i6656
;51.2073824974;-0.3113546027;gone;2009;Plough;Blackbrook Road ;Blackbrook;Dorking;Surrey;RH5 4DS ;;https://whatpub.com/img/REI/20/plough-blackbrook/298/224/1;https://whatpub.com/pubs/REI/20/plough-blackbrook;https://www.google.co.uk/maps/@51.2071795,-0.3115026,3a,66.7y,21.95h,88.19t/data=!3m6!1e1!3m4!1s4YmpKbZLoMah-SqZr2eEZg!2e0!7i13312!8i6656
;51.2023392863;-0.3292438415;bone;1960s;Norfolk Arms;Horsham Road;Mid Holmwood;Dorking;Surrey;;;http://www.closedpubs.co.uk/surrey/pics/midholmwood_norfolkarms.JPG;http://www.closedpubs.co.uk/surrey/midholmwood_norfolkarms.html;https://www.google.co.uk/maps/@51.2024255,-0.3290335,3a,75y,224.79h,91.06t/data=!3m6!1e1!3m4!1s0fF56FiALCDqtmOU9Cb7WQ!2e0!7i13312!8i6656
;;;bone;1830s;Old Nag's Head;Horsham Road;Mid Holmwood;Dorking;Surrey;;;http://www.closedpubs.co.uk/surrey/pics/midholmwood_oldnagshead.JPG;http://www.closedpubs.co.uk/surrey/midholmwood_oldnagshead.html;
;51.1940784112;-0.3256469992;dead;;Holly & Laurel;Horsham Road;South Holmwood;Dorking;Surrey;RH5 4NG ;;http://www.closedpubs.co.uk/surrey/pics/southholmwood_hollylaurel.JPG;http://www.closedpubs.co.uk/surrey/southholmwood_hollylaurel.html|https://whatpub.com/pubs/REI/360/holly-laurel-south-holmwood;https://www.google.co.uk/maps/@51.1943824,-0.325654,3a,89.9y,266.58h,90.78t/data=!3m6!1e1!3m4!1sWBGuptmE6qhxI8Zn8hiTWQ!2e0!7i13312!8i6656
;51.1800863221;-0.3174357642;gone;1991;White Hart;Old Horsham Road ;Beare Green;Dorking;Surrey;RH5 4QY ;;;https://whatpub.com/pubs/REI/16/white-hart-beare-green;https://www.google.co.uk/maps/@51.1801685,-0.3179117,3a,75y,77.31h,96.28t/data=!3m6!1e1!3m4!1sExPiNA_9wJscyPIXKqQC2g!2e0!7i13312!8i6656
;51.1750369183;-0.315569979;open;;Duke's Head;Horsham Road;Beare Green;Dorking;Surrey;RH5 4QP ;;https://whatpub.com/img/REI/15/dukes-head-beare-green/298/224/1;https://whatpub.com/pubs/REI/15/dukes-head-beare-green;https://www.google.co.uk/maps/@51.174957,-0.3159088,3a,49.7y,54.87h,90.56t/data=!3m6!1e1!3m4!1sy3DtdVbccZueCyKlUBJUWg!2e0!7i13312!8i6656
;51.182695644;-0.3008419329;limbo;2015;Henfold Lakes;Henfold Lane;Beare Green;Dorking;Surrey;RH5 4RW;;https://whatpub.com/img/REI/449/henfold-lakes-beare-green/298/224/1;https://whatpub.com/pubs/REI/449/henfold-lakes-beare-green;
;51.169711;-0.316694;dead;;Surrey Hills Hotel bar;Horsham Road;Capel;Dorking;Surrey;RH5 4PG;;https://whatpub.com/img/REI/40/surrey-hills-hotel-capel/298/224/1;https://whatpub.com/pubs/REI/40/surrey-hills-hotel-capel;https://www.google.co.uk/maps/@51.170012,-0.3172997,3a,43.4y,135.57h,98.19t/data=!3m6!1e1!3m4!1s4yRq-MqwqhHUPhuo8-_40A!2e0!7i13312!8i6656
;51.1535240317;-0.3201377419;open;;Crown;98 The Street;Capel;Dorking;Surrey;RH5 5JY;;https://whatpub.com/img/REI/38/crown-capel/298/224/1;https://whatpub.com/pubs/REI/38/crown-capel;https://www.google.co.uk/maps/@51.1534169,-0.3198377,3a,51.7y,296.58h,95.83t/data=!3m6!1e1!3m4!1s6KYE4ssO75T5a3hlNKMScQ!2e0!7i13312!8i6656
;51.1556320025;-0.3208243874;gone;1986;King's Head;The Street;Capel;Dorking;Surrey;;;https://photos.francisfrith.com/frith/capel-the-king-s-head-c1955_c20024.jpg;https://whatpub.com/pubs/REI/39/kings-head-capel;https://www.google.co.uk/maps/@51.1556939,-0.3204809,3a,75y,265.42h,92.31t/data=!3m6!1e1!3m4!1soUhYkMDhPBFJky9hRzqkXg!2e0!7i13312!8i6656
;51.1506252035;-0.3210148229;bone;;Jolly Farmer ;177 The Street ;Capel;Dorking;Surrey;;;;http://www.closedpubs.co.uk/surrey/capel_jollyfarmer.html;https://www.google.co.uk/maps/@51.1507099,-0.3218191,3a,24.2y,105.09h,88.32t/data=!3m6!1e1!3m4!1suNIuK2ndYFiwnuz055h_7A!2e0!7i13312!8i6656
;51.1650432572;-0.2890414165;open;;Six Bells;Village Street ;Newdigate;Dorking;Surrey;RH5 5DH ;;https://whatpub.com/img/REI/260/six-bells-newdigate/298/224/1000001;https://whatpub.com/pubs/REI/260/six-bells-newdigate;https://www.google.co.uk/maps/@51.1650785,-0.2888299,3a,74.5y,273.63h,91.5t/data=!3m6!1e1!3m4!1srYZREWgdmRYWjMgdT1-vlQ!2e0!7i13312!8i6656
;51.1791546598;-0.2771902111;open;;Surrey Oaks;Parkgate Road, Parkgate;Newdigate;Dorking;Surrey;RH5 5DZ;;https://whatpub.com/img/REI/261/surrey-oaks-newdigate/298/224/1;https://whatpub.com/pubs/REI/261/surrey-oaks-newdigate;https://www.google.co.uk/maps/@51.1790873,-0.276908,3a,52.4y,300.49h,91.39t/data=!3m6!1e1!3m4!1spttaj3qHEUbp33nWC5UU9Q!2e0!7i13312!8i6656
;51.1495618619;-0.3603091849;open;;Inn on the Green;Stane Street;Ockley;Dorking;Surrey;RH5 5TD;Red Lion ;https://whatpub.com/img/REI/269/inn-on-the-green-ockley/298/224/1000001;https://whatpub.com/pubs/REI/269/inn-on-the-green-ockley;https://www.google.co.uk/maps/@51.14969,-0.3603743,3a,75y,168.24h,96.43t/data=!3m6!1e1!3m4!1sWeVwP14bneAkZSPA2xAqqA!2e0!7i13312!8i6656
;51.1452215926;-0.3637343659;open;;Cricketer’s Arms;Stane Street;Ockley;Dorking;Surrey;RH5 5TP;;https://whatpub.com/img/REI/267/cricketers-arms-ockley/298/224/1;https://whatpub.com/pubs/REI/267/cricketers-arms-ockley;https://www.google.co.uk/maps/@51.1451121,-0.3636056,3a,75y,330.1h,85.56t/data=!3m6!1e1!3m4!1s828-xGbOKRjsW4JsTt-G2w!2e0!7i13312!8i6656
;51.1524220614;-0.358265343;gone;2012;King's Arms;Stane Street;Ockley;Dorking;Surrey;RH5 5TS;;https://whatpub.com/img/REI/270/kings-arms-inn-ockley/298/224/1;https://whatpub.com/pubs/REI/270/kings-arms-inn-ockley;https://www.google.co.uk/maps/@51.1523903,-0.3584662,3a,75y,72.15h,92.86t/data=!3m7!1e1!3m5!1s9lvKMfxeTnq1jh2I04itaA!2e0!6s%2F%2Fgeo3.ggpht.com%2Fcbk%3Fpanoid%3D9lvKMfxeTnq1jh2I04itaA%26output%3Dthumbnail%26cb_client%3Dmaps_sv.tactile.gps%26thumb%3D2%26w%3D203%26h%3D100%26yaw%3D162.24774%26pitch%3D0%26thumbfov%3D100!7i13312!8i6656
;51.1431114635;-0.3654778017;gone;2015;Old School House;Stane Street;Ockley;Dorking;Surrey;RH5 5TH;;https://whatpub.com/img/REI/271/old-school-house-ockley/298/224/1;https://whatpub.com/pubs/REI/271/old-school-house-ockley;https://www.google.co.uk/maps/@51.1430885,-0.3650266,3a,51.4y,276.01h,90.43t/data=!3m6!1e1!3m4!1srk2qWXo6O_IiEz50EsN4_g!2e0!7i13312!8i6656
;51.1433352697;-0.3650017096;bone;;Brewery Arms ;Stane Street;Ockley;Dorking;Surrey;;;http://www.closedpubs.co.uk/surrey/pics/ockley_brewersarms.jpg;http://www.closedpubs.co.uk/surrey/ockley_brewersarms.html;https://www.google.co.uk/maps/@51.1433604,-0.3648399,3a,90y,264.03h,92.09t/data=!3m6!1e1!3m4!1sbDg7CgS0Xo71uC5CdJ5Dnw!2e0!7i13312!8i6656
;51.138794;-0.388292;open;;Gatton Manor;Standon Lane;Ockley;Dorking;Surrey;RH5 5PQ;;https://whatpub.com/pubs/REI/268/gatton-manor-ockley;https://whatpub.com/img/REI/268/gatton-manor-ockley/298/224/1;https://www.google.co.uk/maps/@51.138634,-0.3886128,3a,90y,9.9h,87.45t/data=!3m6!1e1!3m4!1sC0bK_z5nsgWNsSV22VYdNg!2e0!7i13312!8i6656
;51.1597534599;-0.3940916169;open;;Parrot;Horsham Road;Forest Green;Dorking;Surrey;RH5 5RZ;;https://whatpub.com/img/REI/177/parrot-inn-forest-green/298/224/1;https://whatpub.com/pubs/REI/177/parrot-inn-forest-green;https://www.google.co.uk/maps/@51.1599302,-0.3945067,3a,52.4y,116.68h,90.28t/data=!3m6!1e1!3m4!1sJhE6Kl8R3RkXJRU8uJH4TQ!2e0!7i13312!8i6656
;51.131432;-0.402269;open;;Scarlett Arms;Walliswood Green Road;Walliswood;Dorking;Surrey;RH5 5RD;;https://whatpub.com/img/REI/374/scarlett-arms-walliswood/298/224/1;https://whatpub.com/pubs/REI/374/scarlett-arms-walliswood;https://www.google.co.uk/maps/@51.1315528,-0.4024364,3a,49.8y,128.41h,84.81t/data=!3m6!1e1!3m4!1srYASSuGb_PFRKq17zJI8AQ!2e0!7i13312!8i6656
;;;;;;;;;;;;;;
;51.247903;-0.332328;open;;Surrey Hills Brewery;Denbies Wine Estate, London Road;;Dorking;Surrey;RH5 6AA;;https://whatpub.com/img/REI/453/surrey-hills-brewery-dorking/298/224/1;https://whatpub.com/pubs/REI/453/surrey-hills-brewery-dorking;https://www.google.co.uk/maps/@51.2475218,-0.3309934,3a,75y,299.89h,90t/data=!3m7!1e1!3m5!1sCEvh3vk9yMhCOM37gR1vCQ!2e0!6s%2F%2Fgeo1.ggpht.com%2Fcbk%3Fpanoid%3DCEvh3vk9yMhCOM37gR1vCQ%26output%3Dthumbnail%26cb_client%3Dmaps_sv.tactile.gps%26thumb%3D2%26w%3D203%26h%3D100%26yaw%3D312.5587%26pitch%3D0%26thumbfov%3D100!7i13312!8i6656
;51.2529405986;-0.3245504205;open;;Stepping Stones;Westhumble Street ;Westhumble;Dorking;Surrey;RH5 6BS ;;https://whatpub.com/img/REI/388/stepping-stones-westhumble/200/150;https://whatpub.com/pubs/REI/388/stepping-stones-westhumble;https://www.google.co.uk/maps/@51.2529938,-0.3243698,3a,89.9y,235.47h,89.81t/data=!3m6!1e1!3m4!1swBO4apFDxAir4aJTfgHKog!2e0!7i13312!8i6656
;51.2546467106;-0.3217926648;open;;Burford Bridge Hotel;Old London Road;Westhumble;Dorking;Surrey;RH5 6BX;Fox & Hounds|Hare & Hounds;https://whatpub.com/img/REI/387/mercure-burford-bridge-hotel-westhumble/298/224/1;https://whatpub.com/pubs/REI/387/mercure-burford-bridge-hotel-westhumble;https://www.google.co.uk/maps/@51.254557,-0.3220298,3a,89.9y,54.14h,86.84t/data=!3m6!1e1!3m4!1siNA7ucfnJmLsw6sWb6dZyQ!2e0!7i13312!8i6656
;51.2677612854;-0.3241317444;open;;Running Horses;Old London Road ;Mickleham;Dorking;Surrey;RH5 6DU ;;https://whatpub.com/img/KIN/7084/running-horses-mickleham/298/224/22130;https://whatpub.com/pubs/KIN/7084/running-horses-mickleham;https://www.google.co.uk/maps/@51.2678247,-0.3238774,3a,75y,252.03h,90.79t/data=!3m6!1e1!3m4!1sBOYWUZSbUHaVfyRRb3EK8A!2e0!7i13312!8i6656
;51.2714990615;-0.3193683001;open;;King William IV;4 Byttom Hill ;Mickleham;Dorking;Surrey;RH5 6EL ;;https://whatpub.com/img/KIN/6997/king-william-iv-mickleham/200/150;https://whatpub.com/pubs/KIN/6997/king-william-iv-mickleham;https://www.google.co.uk/maps/@51.271578,-0.3195064,3a,75y,107.11h,98.88t/data=!3m6!1e1!3m4!1s2K2GNxfHiaiPTav_Ht5rdw!2e0!7i13312!8i6656
;51.2615623838;-0.3207036866;bone;1760s;Royal Oak ;;Mickleham;Dorking;Surrey;;;http://www.closedpubs.co.uk/surrey/pics/mickleham_royaloak.jpg;http://www.closedpubs.co.uk/surrey/mickleham_royaloak.html;https://www.google.co.uk/maps/@51.2616471,-0.320416,3a,75y,220.53h,87.31t/data=!3m6!1e1!3m4!1skHBb-jDblaPmC8LS6Ffr1g!2e0!7i13312!8i6656
;51.184263148;-0.3539209175;open;;Plough;Coldharbour Lane ;Coldharbough;Dorking;Surrey;RH5 6HD ;;https://whatpub.com/img/REI/64/plough-inn-coldharbour/200/150;https://whatpub.com/pubs/REI/64/plough-inn-coldharbour;https://www.google.co.uk/maps/@51.1843328,-0.3540104,3a,90y,107.97h,83.74t/data=!3m6!1e1!3m4!1sMrGSdhbSO_F-jPVl1VIswA!2e0!7i13312!8i6656
;51.216850636;-0.3890544203;open;;Wotton Hatch;Guildford Road;Wotton;Dorking;Surrey;RH5 6QQ;;https://whatpub.com/img/REI/393/wotton-hatch-wotton/200/150;https://whatpub.com/pubs/REI/393/wotton-hatch-wotton;https://www.google.co.uk/maps/@51.2168867,-0.389323,3a,75y,98.17h,92.69t/data=!3m6!1e1!3m4!1sBP5J7cIRkeX8FMfdSlQ_Rg!2e0!7i13312!8i6656
;51.2109095338;-0.3956902054;open;;Wotton House;Guildford Road;Wotton;Dorking;Surrey;RH5 6HS;;https://whatpub.com/img/REI/459/wotton-house-wotton/200/150;https://whatpub.com/pubs/REI/459/wotton-house-wotton;
;51.2420371954;-0.3694528355;bone;;Fox ;Fox Lane ;Ranmore Common ;Dorking;Surrey;;;http://www.closedpubs.co.uk/surrey/pics/ranmorecommon_fox.jpg;http://www.closedpubs.co.uk/surrey/ranmorecommon_fox.html;https://www.google.co.uk/maps/@51.2417195,-0.3696958,3a,39.3y,23.98h,90.48t/data=!3m6!1e1!3m4!1s1MJvk6I2IuG5M31TsxgiUg!2e0!7i13312!8i6656
;51.2397241113;-0.4103726175;gone;;Ranmore Arms ;Crocknorth Road ;Ranmore Common ;Dorking;Surrey;RH5 6SX ;;http://www.closedpubs.co.uk/surrey/pics/ranmorecommon_ranmorearms.JPG;http://www.closedpubs.co.uk/surrey/ranmorecommon_ranmorearms.html;https://www.google.co.uk/maps/@51.2387035,-0.4099541,3a,75y,11.12h,81.6t/data=!3m6!1e1!3m4!1sS9AcX2HkbS3HJ3kzl46sVA!2e0!7i13312!8i6656
;51.2161668434;-0.4328119782;dead;2012;Abinger Arms;Guildford Road;Abinger Hammer;Dorking;Surrey;RH5 6RZ;;https://whatpub.com/img/REI/2/abinger-arms-abinger-hammer/298/224/1;https://whatpub.com/pubs/REI/2/abinger-arms-abinger-hammer;https://www.google.co.uk/maps/@51.216308,-0.4333769,3a,75y,331.83h,91.25t/data=!3m6!1e1!3m4!1s-bCofk2ezpUlYBXOJX1VhQ!2e0!7i13312!8i6656
;51.2019661914;-0.4043577625;open;;Abinger Hatch;Abinger Lane;Abinger Common;Dorking;Surrey;RH5 6HZ;;https://whatpub.com/img/REI/1/abinger-hatch-abinger-common/200/150;https://whatpub.com/pubs/REI/1/abinger-hatch-abinger-common;https://www.google.co.uk/maps/@51.2017916,-0.4046169,3a,54.4y,48.58h,95.18t/data=!3m6!1e1!3m4!1sxAXPU6TCFnXvyPdJNN_NoQ!2e0!7i13312!8i6656
;51.2022250047;-0.4193083955;open;;Volunteer;Water Lane;Sutton Abinger;Dorking;Surrey;RH5 6PR;;https://whatpub.com/img/REI/366/volunteer-sutton-abinger/200/150;https://whatpub.com/pubs/REI/366/volunteer-sutton-abinger;https://www.google.co.uk/maps/@51.2021135,-0.4191347,3a,53y,336.92h,87.08t/data=!3m6!1e1!3m4!1sh0jioWbF2h0PX5ILkNB5rQ!2e0!7i13312!8i6656
;51.1982283617;-0.386975707;open;;Stephan Langton;Friday Street;Friday Street;Dorking;Surrey;RH5 6JR;;https://whatpub.com/img/REI/178/stephan-langton-inn-friday-street/200/150;https://whatpub.com/pubs/REI/178/stephan-langton-inn-friday-street;https://www.google.co.uk/maps/@51.1984775,-0.38706,3a,75y,138.62h,89.17t/data=!3m6!1e1!3m4!1sit1Iogts3xiwoaBsGALz2w!2e0!7i13312!8i6656
;51.1887261198;-0.4139828709;open;;Royal Oak;The Glade, Felday Road;Holmbury St Mary;Dorking;Surrey;RH5 6PF;;https://whatpub.com/img/REI/195/royal-oak-holmbury-st-mary/298/224/1;https://whatpub.com/pubs/REI/195/royal-oak-holmbury-st-mary;https://www.google.co.uk/maps/@51.1890474,-0.4138007,3a,42.8y,194.85h,89.99t/data=!3m6!1e1!3m4!1sVBI1-JfR-2pczCEnLAV60g!2e0!7i13312!8i6656
;51.1854234921;-0.4109828188;open;;King's Head;Pitland Street;Holmbury St Mary;Dorking;Surrey;RH5 6NP;;https://whatpub.com/img/REI/194/kings-head-holmbury-st-mary/298/224/1;https://whatpub.com/pubs/REI/194/kings-head-holmbury-st-mary;https://www.google.co.uk/maps/@51.1854788,-0.4111105,3a,75y,101.28h,93.74t/data=!3m6!1e1!3m4!1sfhJXuwkgWso7jbc_yTEg8g!2e0!7i13312!8i6656
1;;;gone;2012;Hollybush Tavern;Holmbury Hill Road;Holmbury St Mary;Dorking;Surrey;RH5 6NS;;https://whatpub.com/img/REI/506/hollybush-tavern-holmbury-st-mary/298/224/1;https://whatpub.com/pubs/REI/506/hollybush-tavern-holmbury-st-mary;
;;;;;;;;;;;;;;
;51.1773630468;-0.2273936583;open;;Fox Revived;Norwood Hill;Norwood Hill;Horley;Surrey;RH6 0ET;;https://whatpub.com/img/REI/262/fox-revived-norwood-hill/298/224/1;https://whatpub.com/pubs/REI/262/fox-revived-norwood-hill;https://www.google.co.uk/maps/@51.1773537,-0.227041,3a,75y,283.4h,89.24t/data=!3m6!1e1!3m4!1sCxUGFt73W8qG9Cv8V8h0eA!2e0!7i13312!8i6656
;51.1666161193;-0.2410984093;open;;Stanhill Court Hotel;Stanhill;Charlwood;Horley;Surrey;RH6 0EP;;https://whatpub.com/img/REI/59/stanhill-court-hotel-charlwood/298/224/1;https://whatpub.com/pubs/REI/59/stanhill-court-hotel-charlwood;https://www.google.co.uk/maps/@51.1658363,-0.236524,3a,70.4y,281.4h,97.99t/data=!3m6!1e1!3m4!1sQaRYtT26FjkH_MP62GjeYg!2e0!7i13312!8i6656
;51.1464827467;-0.2458727413;open;;Russ Hill Hotel;Russ Hill;Charlwood;Horley;Surrey;RH6 0EL;;https://whatpub.com/img/REI/58/russ-hill-hotel-charlwood/298/224/1;https://whatpub.com/pubs/REI/58/russ-hill-hotel-charlwood;https://www.google.co.uk/maps/@51.1476154,-0.2437331,3a,75y,226.4h,107.9t/data=!3m7!1e1!3m5!1sBWrOLEqwEF5uc9WKM6FcuQ!2e0!6s%2F%2Fgeo1.ggpht.com%2Fcbk%3Fpanoid%3DBWrOLEqwEF5uc9WKM6FcuQ%26output%3Dthumbnail%26cb_client%3Dmaps_sv.tactile.gps%26thumb%3D2%26w%3D203%26h%3D100%26yaw%3D201.3549%26pitch%3D0%26thumbfov%3D100!7i13312!8i6656
;51.1556841555;-0.2260002548;open;;Half Moon;73 The Street;Charlwood;Horley;Surrey;RH6 0DS;;https://whatpub.com/img/REI/56/half-moon-charlwood/298/224/1;https://whatpub.com/pubs/REI/56/half-moon-charlwood;https://www.google.co.uk/maps/@51.1558236,-0.2261244,3a,52.8y,158.27h,94.26t/data=!3m6!1e1!3m4!1stpQ662rI5AGYeRkCE4i0gg!2e0!7i13312!8i6656
;51.1546427992;-0.219981375;open;;Greyhound;12 The Street;Charlwood;Horley;Surrey;RH6 0BY;;https://whatpub.com/img/REI/55/greyhound-charlwood/298/224/1000001;https://whatpub.com/pubs/REI/55/greyhound-charlwood;https://www.google.co.uk/maps/@51.1545917,-0.2201139,3a,75y,58.71h,85.72t/data=!3m6!1e1!3m4!1sgCeq8-r6ectEI1vqERS5fw!2e0!7i13312!8i6656
;51.1555377936;-0.2241012481;gone;2014;Rising Sun;64 The Street;Charlwood;Horley;Surrey;RH6 0DS;;https://whatpub.com/img/REI/57/rising-sun-charlwood/298/224/1;https://whatpub.com/pubs/REI/57/rising-sun-charlwood;https://www.google.co.uk/maps/@51.1554166,-0.2242422,3a,49.9y,45.71h,93.12t/data=!3m7!1e1!3m5!1sMCg82R1oD57ooLgftQLsQg!2e0!6s%2F%2Fgeo1.ggpht.com%2Fcbk%3Fpanoid%3DMCg82R1oD57ooLgftQLsQg%26output%3Dthumbnail%26cb_client%3Dmaps_sv.tactile.gps%26thumb%3D2%26w%3D203%26h%3D100%26yaw%3D174.65273%26pitch%3D0%26thumbfov%3D100!7i13312!8i6656
;;;;;;;;;;;;;;
;;;;;;;;;;;;;;
;51.254438;-0.483232;open;;Queen's Head;The Street;East Clandon;Guildford;Surrey;GU4 7RY;Wishing Well;;https://whatpub.com/pubs/SHB/471/queens-head-east-clandon;https://www.google.co.uk/maps/@51.2542942,-0.4831423,3a,58.2y,332.39h,88.32t/data=!3m6!1e1!3m4!1sEP1EXvBMeFhxz4gW3nmNcg!2e0!7i13312!8i6656
;51.253279;-0.504152;open;;Bull’s Head;The Street;West Clandon;Guildford;Surrey;GU4 7ST;;https://whatpub.com/img/SHB/83/bulls-head-west-clandon/298/224/71520;https://whatpub.com/pubs/SHB/83/bulls-head-west-clandon;https://www.google.co.uk/maps/@51.2534457,-0.5040629,3a,40.3y,206.91h,96.9t/data=!3m6!1e1!3m4!1sJ2jdQjKGDFWhc2nLWLH5tQ!2e0!7i13312!8i6656
;51.2611;-0.50346;open;;Onslow Arms;The Street;West Clandon;Guildford;Surrey;GU4 7TE;;https://whatpub.com/img/SHB/421/onslow-arms-west-clandon/298/224/71524;https://whatpub.com/pubs/SHB/421/onslow-arms-west-clandon;https://www.google.co.uk/maps/@51.2609771,-0.5034977,3a,75y,32.45h,90.13t/data=!3m6!1e1!3m4!1sbkEY3KI_07weG10a3j9coQ!2e0!7i13312!8i6656
;;;bone;;Hare & Hounds ;;West Clandon;Guildford;Surrey;;;http://www.closedpubs.co.uk/surrey/pics/westclandon_harehounds.jpg;http://www.closedpubs.co.uk/surrey/westclandon_harehounds.html;
;;;open;;Percy Arms;75 Dorking Road;Chilworth;Guildford;Surrey;GU4 8NP;;https://whatpub.com/img/SHB/429/percy-arms-chilworth/298/224/2011010;https://whatpub.com/pubs/SHB/429/percy-arms-chilworth;
;;;dead;2011;Villagers;Blackheath Lane;Blackheath;Guildford;Surrey;GU4 8RB;;;https://whatpub.com/pubs/SHB/644/villagers-blackheath;
;;;;;;;;;;;;;;
;51.2200896923;-0.4479932812;open;;Compasses;50 Station Road;Gomshall;Guildford;Surrey;GU5 9LA;;https://whatpub.com/img/REI/186/compasses-gomshall/200/150;https://whatpub.com/pubs/REI/186/compasses-gomshall;https://www.google.co.uk/maps/@51.219973,-0.4475958,3a,44.6y,296.69h,89.26t/data=!3m6!1e1!3m4!1sY1bsqGFKycX-i97qMteLNA!2e0!7i13312!8i6656
;51.2195050662;-0.4471939829;open;;Gomshall Mill;52 Station Road;Gomshall;Guildford;Surrey;GU5 9LB;;https://whatpub.com/img/REI/418/gomshall-mill-gomshall/200/150;https://whatpub.com/pubs/REI/418/gomshall-mill-gomshall;https://www.google.co.uk/maps/@51.2196914,-0.4472274,3a,54.3y,187.07h,86.72t/data=!3m6!1e1!3m4!1s9N4KpWoss951cPjnB6ml-w!2e0!7i13312!8i6656
;51.2191136313;-0.4457885054;dead;2008;Black Horse;55 Station Road;Gomshall;Guildford;Surrey;GU5 9NP;;https://whatpub.com/img/REI/185/black-horse-gomshall/298/224/1;http://www.closedpubs.co.uk/surrey/gomshall_blackhorse.html|https://whatpub.com/pubs/REI/185/black-horse-gomshall;https://www.google.co.uk/maps/@51.2189817,-0.4455702,3a,75y,330.01h,91.87t/data=!3m6!1e1!3m4!1sYrON42gGyBHLhP7VN3SITw!2e0!7i13312!8i6656
;51.2192354293;-0.4649502052;open;;White Horse;Shere Lane;Shere;Guildford;Surrey;GU5 9HS;;https://whatpub.com/img/REI/353/white-horse-shere/200/150;https://whatpub.com/pubs/REI/353/white-horse-shere;https://www.google.co.uk/maps/@51.2193339,-0.464808,3a,75y,223.37h,92.73t/data=!3m6!1e1!3m4!1sjsKODxWPvzr6v21RWCTLfw!2e0!7i13312!8i6656
;51.2186944723;-0.465049447;open;;William Bray;Shere Lane;Shere;Guildford;Surrey;GU5 9HS;;https://whatpub.com/img/REI/351/william-bray-shere/200/150;https://whatpub.com/pubs/REI/351/william-bray-shere;https://www.google.co.uk/maps/@51.2187798,-0.4648553,3a,90y,248.52h,85.7t/data=!3m6!1e1!3m4!1s1w067tA4MUgp0cdG7-GH1g!2e0!7i13312!8i6656
;51.2099803264;-0.4759097113;open;;William IV;Little London;Albury Heath;Guildford;Surrey;GU5 9DG;;https://whatpub.com/img/REI/4/william-iv-albury-heath/298/224/1;https://whatpub.com/pubs/REI/4/william-iv-albury-heath;https://www.google.co.uk/maps/@51.209723,-0.4758455,3a,75y,287.3h,86.71t/data=!3m6!1e1!3m4!1sYQEJ1nrYR_RcicWSAtLcwg!2e0!7i13312!8i6656
;51.220209;-0.498723;open;;Drummond at Albury;The Street;Albury;Guildford;Surrey;GU5 9AG;;https://whatpub.com/img/REI/3/drummond-at-albury-albury/298/224/1;https://whatpub.com/pubs/REI/3/drummond-at-albury-albury;https://www.google.co.uk/maps/@51.2201185,-0.498557,3a,75y,300.84h,90.38t/data=!3m6!1e1!3m4!1s-xs45ESkGGXag1ppwP8I2w!2e0!7i13312!8i6656
;51.1919570686;-0.4471322921;open;;Hurtwood Inn;Walking Bottom;Peaslake;Guildford;Surrey;GU5 9RR;;https://whatpub.com/img/REI/282/hurtwood-inn-peaslake/298/224/1;https://whatpub.com/pubs/REI/282/hurtwood-inn-peaslake;https://www.google.co.uk/maps/@51.1918446,-0.4469213,3a,75y,337.24h,89.48t/data=!3m7!1e1!3m5!1suAXPwh_1y_hhlHkb_R5jHw!2e0!6s%2F%2Fgeo3.ggpht.com%2Fcbk%3Fpanoid%3DuAXPwh_1y_hhlHkb_R5jHw%26output%3Dthumbnail%26cb_client%3Dmaps_sv.tactile.gps%26thumb%3D2%26w%3D203%26h%3D100%26yaw%3D283.80908%26pitch%3D0%26thumbfov%3D100!7i13312!8i6656
;;;;;;;;;;;;;;
;51.1705734587;-0.4565307525;open;;Windmill;Ride Way, Pitch Hill;Ewhurst;Cranleigh ;Surrey;GU6 7NN;;https://whatpub.com/img/REI/168/windmill-inn-ewhurst/298/224/1;https://whatpub.com/pubs/REI/168/windmill-inn-ewhurst;https://www.google.co.uk/maps/@51.1705792,-0.456096,3a,51.4y,283.53h,91.15t/data=!3m6!1e1!3m4!1s54rtPMdR0InFnzRk-QAvqw!2e0!7i13312!8i6656
;51.156345;-0.442451;open;;Bull's Head [2];The Street;Ewhurst;Cranleigh ;Surrey;GU6 7QD;;https://whatpub.com/img/REI/167/bulls-head-ewhurst/298/224/1;https://whatpub.com/pubs/REI/167/bulls-head-ewhurst;https://www.google.co.uk/maps/@51.1563638,-0.4426438,3a,75y,113.78h,91.47t/data=!3m6!1e1!3m4!1sJorXAR4ROmoZFV_D5IN4bQ!2e0!7i13312!8i6656
;;;bone;1908;Bull’s Head [1];;Ewhurst;Cranleigh ;Surrey;;;;http://www.closedpubs.co.uk/surrey/ewhurst_bullshead.html;
;;;bone;1960;Crown Inn ;;Ewhurst;Cranleigh ;Surrey;;;;http://www.closedpubs.co.uk/surrey/ewhurst.html;
;;;bone;;White Hart ;;Ewhurst;Cranleigh ;Surrey;;;;http://www.closedpubs.co.uk/surrey/ewhurst.html;
;;;;;;;;;;;;;;
;51.2997795659;-0.4587543038;gone;2007;Hautboy;Ockham Lane;Ockham;Woking;Surrey;GU23 6NP;;http://www.closedpubs.co.uk/surrey/pics/ockham_hautboy.jpg;https://whatpub.com/pubs/SHB/293/hautboy-inn-ockham|http://www.closedpubs.co.uk/surrey/ockham_hautboyinn.html;https://www.google.co.uk/maps/@51.299585,-0.458651,3a,75y,316.62h,92.62t/data=!3m6!1e1!3m4!1soXazB-oNH-iSw_5D6B-ZEA!2e0!7i13312!8i6656
;;;;;;;;;;;;;;
;;;;;;;;;;;;;;
;51.3045270193;-0.439136627;open;;Black Swan;Old Lane;Martyrs Green;Cobham;Surrey;KT11 1NG;;https://whatpub.com/img/KIN/6913/black-swan-martyrs-green/298/224/22184;https://whatpub.com/pubs/KIN/6913/black-swan-martyrs-green;https://www.google.co.uk/maps/@51.3043725,-0.4395486,3a,49.5y,59.81h,98.11t/data=!3m7!1e1!3m5!1shNaimCnjYqTheyzOOefqzg!2e0!6s%2F%2Fgeo1.ggpht.com%2Fcbk%3Fpanoid%3DhNaimCnjYqTheyzOOefqzg%26output%3Dthumbnail%26cb_client%3Dmaps_sv.tactile.gps%26thumb%3D2%26w%3D203%26h%3D100%26yaw%3D119.385956%26pitch%3D0%26thumbfov%3D100!7i13312!8i6656
;51.3167950085;-0.3625971106;open;;Woodlands Park Hotel;Woodlands Lane;Stoke D'Abernon;Cobham;Surrey;KT11 3QB;;https://whatpub.com/img/KIN/7124/woodlands-park-hotel-stoke-dabernon/298/224/42536;https://whatpub.com/pubs/KIN/7124/woodlands-park-hotel-stoke-dabernon;https://www.google.co.uk/maps/@51.3171709,-0.3633404,3a,57.3y,146.45h,95.89t/data=!3m6!1e1!3m4!1srZIFRU3Q2-CuU1MxmNGnHw!2e0!7i13312!8i6656
;51.3208048238;-0.3864593817;open;;Old Plough;2 Station Road;Stoke D'Abernon;Cobham;Surrey;KT11 3BN;;https://whatpub.com/img/KIN/7038/old-plough-stoke-dabernon/298/224/42535;https://whatpub.com/pubs/KIN/7038/old-plough-stoke-dabernon;https://www.google.co.uk/maps/@51.3206335,-0.3864253,3a,50.1y,361.29h,89.14t/data=!3m6!1e1!3m4!1sTXaJCsJYJY5DatPLsgb-uA!2e0!7i13312!8i6656
;51.3119834362;-0.4108393206;open;;Cricketers;Downside Common, Downside Road;Downside;Cobham;Surrey;KT11 3NX;;https://whatpub.com/img/KIN/6943/cricketers-downside/298/224/22182;https://whatpub.com/pubs/KIN/6943/cricketers-downside;
;51.3217007821;-0.4125304534;open;;Plough;Plough Lane;Downside;Cobham;Surrey;KT11 3LT;;https://whatpub.com/img/KIN/7050/plough-downside/298/224/22183;https://whatpub.com/pubs/KIN/7050/plough-downside;https://www.google.co.uk/maps/@51.3218979,-0.4122748,3a,49.2y,220.97h,95.48t/data=!3m6!1e1!3m4!1sx81d0EywBWV9No6AvHWEiA!2e0!7i13312!8i6656
;51.3245595178;-0.4014931633;open;;Running Mare;45 Tilt Road;;Cobham;Surrey;KT11 3EZ;;https://whatpub.com/img/KIN/7085/running-mare-cobham/298/224/42841;https://whatpub.com/pubs/KIN/7085/running-mare-cobham;https://www.google.co.uk/maps/@51.3246824,-0.4013756,3a,75y,210.36h,93.21t/data=!3m6!1e1!3m4!1slf23SeLmrSiTR0SOHZhxYQ!2e0!7i13312!8i6656
;51.3271013047;-0.4092635228;open;;Old Bear;Riverhill;;Cobham;Surrey;KT11 3DX;;https://whatpub.com/img/KIN/7033/old-bear-cobham/298/224/42840;https://whatpub.com/pubs/KIN/7033/old-bear-cobham;https://www.google.co.uk/maps/@51.3269248,-0.409318,3a,60.1y,15.67h,90.69t/data=!3m7!1e1!3m5!1shdLOOW-vNyUQ78r3pAM9tg!2e0!6s%2F%2Fgeo2.ggpht.com%2Fcbk%3Fpanoid%3DhdLOOW-vNyUQ78r3pAM9tg%26output%3Dthumbnail%26cb_client%3Dmaps_sv.tactile.gps%26thumb%3D2%26w%3D203%26h%3D100%26yaw%3D87.66954%26pitch%3D0%26thumbfov%3D100!7i13312!8i6656
;;;dead;;Cedar House Riverside Grill;Mill Road;;Cobham;Surrey;KT11 3AL;;https://whatpub.com/img/KIN/6933/cedar-house-riverside-grill-cobham/298/224/42837;https://whatpub.com/pubs/KIN/6933/cedar-house-riverside-grill-cobham;
;;;;;;;;;;;;;;
;51.32854;-0.27137;open;;Haywain;2-4 St Margarets Drive, Dorking Road;;Epsom;Surrey;KT18 7LB;;https://whatpub.com/img/KIN/6989/haywain-epsom/298/224/22105;https://whatpub.com/pubs/KIN/6989/haywain-epsom;https://www.google.co.uk/maps/@51.3284219,-0.2711235,3a,75y,286.72h,88.53t/data=!3m6!1e1!3m4!1syZsdWApAybylOxGf6lTe_Q!2e0!7i13312!8i6656
;51.32616;-0.27461;dead;2014;White Horse;63 Dorking Road;;Epsom;Surrey;KT18 7JU;;https://whatpub.com/img/KIN/7119/white-horse-epsom/298/224/22113;https://whatpub.com/pubs/KIN/7119/white-horse-epsom;https://www.google.co.uk/maps/@51.3262079,-0.2748667,3a,56.1y,107.49h,87.87t/data=!3m6!1e1!3m4!1solw9HTLbFIHLrcjNF2VS_w!2e0!7i13312!8i6656
;51.32546;-0.26962;gone;2012;Ladas;Woodcote Road;;Epsom;Surrey;KT18 7QS;;https://whatpub.com/img/KIN/7006/ladas-epsom/298/224/22107;https://whatpub.com/pubs/KIN/7006/ladas-epsom;https://www.google.co.uk/maps/@51.3253301,-0.2697212,3a,75y,50.67h,91.88t/data=!3m6!1e1!3m4!1sQtIOKbmWCCDPd32E4T2E8g!2e0!7i13312!8i6656
;51.32445;-0.26836;open;;Amato;18 Chalk Lane;;Epsom;Surrey;KT18 7AS;;https://whatpub.com/img/KIN/6891/amato-epsom/298/224/22000475;https://whatpub.com/pubs/KIN/6891/amato-epsom;https://www.google.co.uk/maps/@51.3243657,-0.2680897,3a,75y,280h,93.19t/data=!3m6!1e1!3m4!1sJyMd2ZqeW8vvE6_JLOXGYA!2e0!7i13312!8i6656
;51.31842;-0.24993;dead;2013;South Hatch;46 Burgh Heath Road;;Epsom;Surrey;KT17 4LX;;https://whatpub.com/img/KIN/7094/south-hatch-epsom/298/224/42526;http://www.epsomguardian.co.uk/news/10835735.Much_loved_racing_restaurant_says_emotional_goodbye_after_nearly_30_years/|https://whatpub.com/pubs/KIN/7094/south-hatch-epsom;https://www.google.co.uk/maps/@51.3201081,-0.2509103,3a,75y,62.48h,90.8t/data=!3m6!1e1!3m4!1shmkJfG2ABM24rCYoy9j0uw!2e0!7i13312!8i6656
;51.309779;-0.240552;open;;Wine Rack;29-31 Tattenham Crescent;Tattenham Corner;Epsom;Surrey;KT18 5QJ;;;https://whatpub.com/pubs/REI/512/wine-rack-tattenham-corner;https://www.google.co.uk/maps/@51.3097419,-0.2405153,3a,89.2y,347.33h,90.93t/data=!3m6!1e1!3m4!1s2gJJxp7yr-lvKxSdcxYu2w!2e0!7i13312!8i6656
;51.3116766194;-0.2435982254;open;;Tattenham Corner;Tattenham Corner Road;Tattenham Corner;Epsom;Surrey;KT18 5NY;;https://whatpub.com/img/REI/153/tattenham-corner-tattenham-corner/298/224/1;https://whatpub.com/pubs/REI/153/tattenham-corner-tattenham-corner;https://www.google.co.uk/maps/@51.3117801,-0.2443657,3a,32.2y,108.04h,93.11t/data=!3m6!1e1!3m4!1sfLZLUkoc3c2DZN0oxnaEZg!2e0!7i13312!8i6656
;51.3131151238;-0.258286002;open;;Rubbing House;The Downs;Epsom Downs;Epsom;Surrey;KT18 5LJ;;https://whatpub.com/img/KIN/7080/rubbing-house-epsom-downs/298/224/42527;https://whatpub.com/pubs/KIN/7080/rubbing-house-epsom-downs;https://www.google.co.uk/maps/@51.3132928,-0.257908,3a,53.7y,230.06h,91.77t/data=!3m6!1e1!3m4!1syaHC4je8S7euzKJvT4Nq5w!2e0!7i13312!8i6656
;51.3145720238;-0.2546435608;open;;Derby Arms;The Downs;Epsom Downs;Epsom;Surrey;KT18 5LE;;https://whatpub.com/img/KIN/6947/derby-arms-epsom-downs/298/224/22114;https://whatpub.com/pubs/KIN/6947/derby-arms-epsom-downs;https://www.google.co.uk/maps/@51.3144669,-0.2545047,3a,75y,298.32h,87.03t/data=!3m7!1e1!3m5!1slHIWb1J9AqUwDMM_qOwZEw!2e0!5s20160901T000000!7i13312!8i6656
;51.2797203065;-0.2744932486;open;;Cock;Church Lane;Headley;Epsom;Surrey;KT18 6LE;Headley Hills|Cock Horse;https://whatpub.com/img/KIN/6939/cock-inn-headley/298/224/88284;https://whatpub.com/pubs/KIN/6939/cock-inn-headley;https://www.google.co.uk/maps/@51.2798288,-0.2747511,3a,75y,118.39h,95.8t/data=!3m6!1e1!3m4!1sDPaP2b8mN3N4Ukqx03bpYQ!2e0!7i13312!8i6656
;51.2750785175;-0.2768790776;bone;1958;Clermont ;Tot Hill ;Headley;Epsom;Surrey;;;http://www.headleysurrey.org.uk/pichh/cmont1.jpg;http://www.closedpubs.co.uk/surrey/headley_clermont.html;https://www.google.co.uk/maps/@51.2752742,-0.2765196,3a,89.9y,230.17h,83.24t/data=!3m6!1e1!3m4!1seXq7kRxgQwPk8dJv5es4ZQ!2e0!7i13312!8i6656
;;;;;;;;;;;;;;
;51.286552526;-0.2286261334;open;;Blue Anchor;Dorking Road;;Tadworth;Surrey;KT20 5SL;;https://whatpub.com/img/REI/367/blue-anchor-tadworth/298/224/1;https://whatpub.com/pubs/REI/367/blue-anchor-tadworth;https://www.google.co.uk/maps/@51.2862912,-0.2282448,3a,28.1y,316.69h,95.41t/data=!3m6!1e1!3m4!1s477NkTBa2DCONS2ZcZt4JQ!2e0!7i13312!8i6656
;51.2872889526;-0.2278845026;open;;Duke's Head;Dorking Road;;Tadworth;Surrey;KT20 5SL;;https://whatpub.com/img/REI/368/dukes-head-tadworth/298/224/1;https://whatpub.com/pubs/REI/368/dukes-head-tadworth;https://www.google.co.uk/maps/@51.2870795,-0.2276488,3a,50.7y,337.35h,86.8t/data=!3m6!1e1!3m4!1sTbUlKF0p3-jWufPUZI3JWQ!2e0!7i13312!8i6656
;51.2909046525;-0.2261142446;open;;Inn on the Green;Dorking Road;;Tadworth;Surrey;KT20 5RX;Bricklayer's Arms|Tumble Beacon;https://whatpub.com/img/REI/369/inn-on-the-green-tadworth/298/224/1;https://whatpub.com/pubs/REI/369/inn-on-the-green-tadworth;https://www.google.co.uk/maps/@51.290972,-0.2257829,3a,53.5y,257.4h,91.73t/data=!3m6!1e1!3m4!1sjPiAeMlOVccxfkiuU1wIMg!2e0!7i13312!8i6656
;51.3064268693;-0.2204722193;gone;late 1990s;Surrey Yeoman;Reigate Road;Burgh Heath;Tadworth;Surrey;KT20 5NT;;http://theoldhometown.com.s3.amazonaws.com/bansteadvillage.com/217.jpg;https://whatpub.com/pubs/REI/36/surrey-yeoman-burgh-heath;https://www.google.co.uk/maps/@51.3063236,-0.2206465,3a,90y,55.71h,89.18t/data=!3m6!1e1!3m4!1sHmsvENyr-BNq4EJfyyRkwA!2e0!7i13312!8i6656
;51.3060638405;-0.2215129151;bone;1969;Sheepshearer’s Arms ;Reigate Road;Burgh Heath;Tadworth;Surrey;;;http://www.surreymirror.co.uk/images/localworld/ugc-images/275797/Article/images/19474856/5017830-large.jpg;http://www.closedpubs.co.uk/surrey/burghheath_sheepshearersarms.html;https://www.google.co.uk/maps/@51.3064166,-0.2208167,3a,15y,233.56h,92.35t/data=!3m7!1e1!3m5!1s6w13Hyy1XqnRdLrOWdk19A!2e0!6s%2F%2Fgeo3.ggpht.com%2Fcbk%3Fpanoid%3D6w13Hyy1XqnRdLrOWdk19A%26output%3Dthumbnail%26cb_client%3Dmaps_sv.tactile.gps%26thumb%3D2%26w%3D203%26h%3D100%26yaw%3D319.91595%26pitch%3D0%26thumbfov%3D100!7i13312!8i6656
;51.3040038333;-0.219459684;open;;Heathside;Brighton Road;Burgh Heath;Tadworth;Surrey;KT20 6BW;;https://whatpub.com/img/REI/35/heathside-burgh-heath/298/224/1;https://whatpub.com/pubs/REI/35/heathside-burgh-heath;https://www.google.co.uk/maps/@51.3042037,-0.2198354,3a,88.2y,127.71h,94.09t/data=!3m6!1e1!3m4!1sBD855XtxbnsTFwEHXb56Vw!2e0!7i13312!8i6656
;51.2949636934;-0.2126428498;open;;Kingswood Arms;Waterhouse Lane;Kingswood;Tadworth;Surrey;KT20 6EB;;https://whatpub.com/img/REI/217/kingswood-arms-kingswood/298/224/1000001;https://whatpub.com/pubs/REI/217/kingswood-arms-kingswood;https://www.google.co.uk/maps/@51.2948533,-0.2125947,3a,90y,349.5h,95.15t/data=!3m6!1e1!3m4!1s-1zDupSeiyiJYn5onzNFKA!2e0!7i13312!8i6656
;51.2699202322;-0.2111636116;open;;Fox on the Hill;Brighton Road;Lower Kingswood;Tadworth;Surrey;KT20 6SU;Fox Hotel|Fox ;https://whatpub.com/img/REI/242/fox-on-the-hill-lower-kingswood/298/224/1;https://whatpub.com/pubs/REI/242/fox-on-the-hill-lower-kingswood;https://www.google.co.uk/maps/@51.2698678,-0.2113305,3a,90y,71.42h,91.92t/data=!3m6!1e1!3m4!1sXGWTQp2d3tHZLhMtAQn3Kw!2e0!7i13312!8i6656
;51.2642998305;-0.2132208659;gone;2005;Mint Arms;83 Buckland Road;Lower Kingswood;Tadworth;Surrey;KT20 7EF;;https://whatpub.com/img/REI/243/mint-arms-lower-kingswood/298/224/1;https://whatpub.com/pubs/REI/243/mint-arms-lower-kingswood;https://www.google.co.uk/maps/@51.2645415,-0.2133211,3a,75y,157.67h,97.84t/data=!3m7!1e1!3m5!1sEClDEQozomC3khQvVU6TlQ!2e0!5s20120901T000000!7i13312!8i6656
;51.2641613676;-0.2243882431;open;;Sportsman;Mogador Road;Mogador;Tadworth;Surrey;KT20 7ES;;https://whatpub.com/img/REI/253/sportsman-mogador/298/224/1;https://whatpub.com/pubs/REI/253/sportsman-mogador;https://www.google.co.uk/maps/@51.2640785,-0.2244762,3a,75y,41.81h,88.15t/data=!3m6!1e1!3m4!1soiHP_oegN4chcI0_pC3nWg!2e0!7i13312!8i6656
;51.2808804714;-0.2491986765;open;;Chequers;Chequers Lane;Walton-on-the- Hill;Tadworth;Surrey;KT20 7SF;;https://whatpub.com/img/REI/377/chequers-walton-on-the--hill/298/224/1000001;https://whatpub.com/pubs/REI/377/chequers-walton-on-the--hill;https://www.google.co.uk/maps/@51.280879,-0.249492,3a,75y,90.27h,95.1t/data=!3m6!1e1!3m4!1sISPv9sD_iyHvqmnzZV69BA!2e0!7i13312!8i6656
;51.2831361239;-0.2460296466;open;;Fox & Hounds;Walton Street;Walton-on-the- Hill;Tadworth;Surrey;KT20 7RU;;https://whatpub.com/img/REI/378/fox-hounds-walton-on-the--hill/298/224/1;https://whatpub.com/pubs/REI/378/fox-hounds-walton-on-the--hill;https://www.google.co.uk/maps/@51.2830729,-0.2458681,3a,75y,310.47h,87.14t/data=!3m6!1e1!3m4!1seOVMJSwyIYF7ANHDsOdx2Q!2e0!7i13312!8i6656
;51.2834741686;-0.2411359562;open;;Blue Ball;Deans Lane;Walton-on-the- Hill;Tadworth;Surrey;KT20 7UE;;https://whatpub.com/img/REI/376/blue-ball-walton-on-the--hill/298/224/1;https://whatpub.com/pubs/REI/376/blue-ball-walton-on-the--hill;https://www.google.co.uk/maps/@51.2836223,-0.2409512,3a,75y,220.85h,88.93t/data=!3m6!1e1!3m4!1sj-IYj66h-W4sZw9mivsB_g!2e0!7i13312!8i6656
;51.2872705001;-0.2423898889;open;;Bell;Withybed Corner;Walton-on-the- Hill;Tadworth;Surrey;KT20 7UJ;;https://whatpub.com/img/REI/375/bell-walton-on-the--hill/298/224/1;https://whatpub.com/pubs/REI/375/bell-walton-on-the--hill;
;51.2543630106;-0.2776689841;open;;Tree on Box Hill;Boxhill Road;Boxhill;Tadworth;Surrey;KT20 7PS;Hand in Hand ;https://whatpub.com/img/REI/29/tree-on-box-hill-boxhill/298/224/1;https://whatpub.com/pubs/REI/29/tree-on-box-hill-boxhill;https://www.google.co.uk/maps/@51.2541397,-0.2775382,3a,58.4y,348.44h,93.03t/data=!3m6!1e1!3m4!1s3i9md1wr9Myl7lK9zMUQ8w!2e0!7i13312!8i6656
;;;;;;;;;;;;;;
;51.3091532584;-0.2996657796;open;;Leg of Mutton & Cauliflower;48 The Street;;Ashtead;Surrey;KT21 1AZ;;https://whatpub.com/img/KIN/7009/leg-of-mutton-cauliflower-ashtead/298/224/1999823;https://whatpub.com/pubs/KIN/7009/leg-of-mutton-cauliflower-ashtead;https://www.google.co.uk/maps/@51.3092343,-0.2998574,3a,52.3y,106.99h,90.7t/data=!3m6!1e1!3m4!1sXKZ1B_jgwtc3PkbrKJEbOg!2e0!7i13312!8i6656
;51.309377097;-0.2999930091;open;;Brewery Inn;15 The Street;;Ashtead;Surrey;KT21 2AD;;https://whatpub.com/img/KIN/6920/brewery-inn-ashtead/298/224/22642;https://whatpub.com/pubs/KIN/6920/brewery-inn-ashtead;https://www.google.co.uk/maps/@51.3093157,-0.2997029,3a,33.4y,289.66h,90.47t/data=!3m6!1e1!3m4!1sHvrpYaz-XLFvndWg4re55Q!2e0!7i13312!8i6656
;51.3143012684;-0.307991357;open;;Woodman;238 Barnett Wood Lane;;Ashtead;Surrey;KT21 2DA;;https://whatpub.com/img/KIN/7125/woodman-ashtead/298/224/26153;https://whatpub.com/pubs/KIN/7125/woodman-ashtead;https://www.google.co.uk/maps/@51.3145381,-0.3080118,3a,43.9y,184.04h,91.98t/data=!3m6!1e1!3m4!1ssSYgPC4zyBrbInmoRALtEw!2e0!7i13312!8i6656
;;;;;;;;;;;;;;
;51.3281722825;-0.3548710062;open;;Bear;Leatherhead Road;Oxshott;Leatherhead;Surrey;KT22 0JE;;https://whatpub.com/img/KIN/6906/bear-oxshott/298/224/22186;https://whatpub.com/pubs/KIN/6906/bear-oxshott;https://www.google.co.uk/maps/@51.3280883,-0.3545043,3a,51.3y,289.72h,95.09t/data=!3m6!1e1!3m4!1s9Nm5QupBMp_v4fgoH98lBg!2e0!7i13312!8i6656
;51.3318580814;-0.3564199812;open;;Victoria;High Street;Oxshott;Leatherhead;Surrey;KT22 0JR;;https://whatpub.com/img/KIN/7110/victoria-oxshott/298/224/2005679;https://whatpub.com/pubs/KIN/7110/victoria-oxshott;https://www.google.co.uk/maps/@51.3316772,-0.3563529,3a,75y,5.28h,101.46t/data=!3m6!1e1!3m4!1sIQMUGZAnKHZy7yumNUzf2g!2e0!7i13312!8i6656
;51.3268163768;-0.327664019;open;;Star;Leatherhead Road;Leatherhead Common;Leatherhead;Surrey;KT22 0DP;;https://whatpub.com/img/KIN/7097/star-leatherhead-common/298/224/26335;https://whatpub.com/pubs/KIN/7097/star-leatherhead-common;https://www.google.co.uk/maps/@51.3266965,-0.3274663,3a,75y,322.42h,84.96t/data=!3m6!1e1!3m4!1so6gkTWGxQwzCzUX-z80AfA!2e0!7i13312!8i6656
;51.302935645;-0.3298366083;open;;Plough;93 Kingston Road;;Leatherhead;Surrey;KT22 7SP;;https://whatpub.com/img/KIN/7049/plough-leatherhead/298/224/42530;https://whatpub.com/pubs/KIN/7049/plough-leatherhead;https://www.google.co.uk/maps/@51.3031189,-0.3295369,3a,36.4y,223.9h,95.72t/data=!3m6!1e1!3m4!1s8gnxMSQqDVBtuo91G3RETw!2e0!7i13312!8i6656
;51.3086577918;-0.3325261927;limbo;;Royal Oak;265 Kingston Road;;Leatherhead;Surrey;KT22 7PJ;;https://whatpub.com/img/KIN/7077/royal-oak-leatherhead/298/224/42531;https://whatpub.com/pubs/KIN/7077/royal-oak-leatherhead;https://www.google.co.uk/maps/@51.3087249,-0.3322718,3a,51.5y,239.26h,91.98t/data=!3m6!1e1!3m4!1smzgc6CKDpfoZXGllFZ9UqA!2e0!7i13312!8i6656
;51.3024971272;-0.3298902525;gone;2002;Railway Arms ;85 Kingston Road ;;Leatherhead;Surrey;KT22 7SP ;;;http://www.closedpubs.co.uk/surrey/leatherhead_railwayarms.html;https://www.google.co.uk/maps/@51.3024231,-0.329653,3a,75y,297.7h,87.07t/data=!3m6!1e1!3m4!1sSYz5Aan8vd9txAiO3mi4nQ!2e0!7i13312!8i6656
;51.2954811115;-0.330153109;open;;Penny Black;5 North Street;;Leatherhead;Surrey;KT22 7AX;;https://whatpub.com/img/KIN/7047/penny-black-leatherhead/298/224/52618;https://whatpub.com/pubs/KIN/7047/penny-black-leatherhead;https://www.google.co.uk/maps/@51.2955743,-0.3299897,3a,75y,217.31h,90.01t/data=!3m6!1e1!3m4!1s4lTlW4eTnLY8KhShRjZZ2A!2e0!7i13312!8i6656
;51.2944232071;-0.3320715583;open;;Running Horse;38 Bridge Street;;Leatherhead;Surrey;KT22 8BZ;;https://whatpub.com/img/KIN/7083/running-horse-leatherhead/298/224/22127;https://whatpub.com/pubs/KIN/7083/running-horse-leatherhead;https://www.google.co.uk/maps/@51.2942948,-0.3320083,3a,75y,356.92h,92.37t/data=!3m6!1e1!3m4!1sY35jQ7gziFRHbWIwCpLxow!2e0!7i13312!8i6656
;51.2953041669;-0.3274534656;open;;Edmund Tylney;30-34 High Street;;Leatherhead;Surrey;KT22 8AW;;https://whatpub.com/img/KIN/6956/edmund-tylney-leatherhead/298/224/40246;https://whatpub.com/pubs/KIN/6956/edmund-tylney-leatherhead;https://www.google.co.uk/maps/@51.2954217,-0.3272702,3a,27.3y,243.84h,96.31t/data=!3m6!1e1!3m4!1sAF1QipP97jVl2ON8AdtBoDqnZwSGLvc6vleVgEf4Ks-E!2e10!7i13312!8i6656
;51.2956052239;-0.3270417465;open;;Duke’s Head;57 High Street;;Leatherhead;Surrey;KT22 8AG;;https://whatpub.com/img/KIN/6954/dukes-head-leatherhead/298/224/40245;https://whatpub.com/pubs/KIN/6954/dukes-head-leatherhead;https://www.google.co.uk/maps/@51.2954914,-0.3269627,3a,48.1y,356.3h,101.24t/data=!3m8!1e1!3m6!1sAF1QipNd7AWTTcrg-5mHTV_TiSfRmDAWuQwQGraRATDi!2e10!3e11!6shttps:%2F%2Flh5.googleusercontent.com%2Fp%2FAF1QipNd7AWTTcrg-5mHTV_TiSfRmDAWuQwQGraRATDi%3Dw203-h100-k-no-pi-0-ya26.588015-ro-0-fo100!7i8704!8i4352
;51.295529751;-0.327183905;bone;;Blue Bird ;53-55 High Street ;;Leatherhead;Surrey;;;http://www.closedpubs.co.uk/surrey/pics/leatherhead_bluebird.jpg;http://www.closedpubs.co.uk/surrey/leatherhead_bluebird.html;https://www.google.co.uk/maps/@51.2954914,-0.3269627,3a,50y,308.65h,102.75t/data=!3m8!1e1!3m6!1sAF1QipNd7AWTTcrg-5mHTV_TiSfRmDAWuQwQGraRATDi!2e10!3e11!6shttps:%2F%2Flh5.googleusercontent.com%2Fp%2FAF1QipNd7AWTTcrg-5mHTV_TiSfRmDAWuQwQGraRATDi%3Dw203-h100-k-no-pi-0-ya26.588015-ro-0-fo100!7i8704!8i4352
;51.2961704349;-0.3314861682;bone;1925;Bull Inn ;North Street ;;Leatherhead;Surrey;;;https://photos.francisfrith.com/frith/leatherhead-bull-hotel-1905_53245.jpg;http://www.closedpubs.co.uk/surrey/leatherhead_bull.html;https://www.google.co.uk/maps/@51.296432,-0.3311698,3a,75y,47h,91.22t/data=!3m6!1e1!3m4!1sy-qq1HDULJQhTg0ohUrpmA!2e0!7i13312!8i6656
;51.2957846839;-0.331612232;gone;1990s ;New Bull Hotel;41 North Street ;;Leatherhead;Surrey;;;http://legacymedia.localworld.co.uk/275797/Article/images/14984875/3483521.png;http://www.closedpubs.co.uk/surrey/leatherhead_newbull.html;https://www.google.co.uk/maps/@51.2960393,-0.3315808,3a,75y,167.34h,91.47t/data=!3m6!1e1!3m4!1sN6FP1GJRqV4DTS0_aZzJ5w!2e0!7i13312!8i6656
;51.2952798475;-0.3278933479;bone;;King’s Head [1];High Street ;;Leatherhead;Surrey;;;https://photos.francisfrith.com/frith/leatherhead-high-street-1906_54877.jpg;http://www.closedpubs.co.uk/surrey/leatherhead_kingshead.html;
;51.2952647535;-0.3280797628;bone;1960s ;King’s Head [2];High Street ;;Leatherhead;Surrey;;;/img/pub/leatherhead-kings-head-2a.png;http://www.closedpubs.co.uk/surrey/leatherhead_kingshead.html;
;51.2960563871;-0.3282889751;gone;1980s;Prince of Wales ;Lower Fairfield Road ;;Leatherhead;Surrey;;;https://i.pinimg.com/originals/1b/6b/e6/1b6be6c778cdc0aaf34f4ba9bc8f646e.jpg|/img/pub/leatherhead-prince-of-wales-a.png;;
;51.2952865571;-0.3294879225;bone;1930s;Swan Hotel ;High Street ;;Leatherhead;Surrey;;;https://photos.francisfrith.com/frith/leatherhead-bridge-street-the-swan-hotel-1888_21342.jpg|http://www.leatherheadlocalhistory.org.uk/Leatherhead%20High%20Street.jpg;http://www.closedpubs.co.uk/surrey/leatherhead_swan.html;https://www.google.co.uk/maps/@51.2951368,-0.3298119,3a,75y,45.29h,96.11t/data=!3m6!1e1!3m4!1s5_8glVsa7U2aSFv5JpJrkg!2e0!7i13312!8i6656
;51.2917424889;-0.3376123336;bone;1930s;Rising Sun [1];Guildford Road ;;Leatherhead;Surrey;;;http://www.closedpubs.co.uk/surrey/pics/fetcham_risingsun.jpg|/img/pub/leatherhead-rising-sun-1a.png;http://www.closedpubs.co.uk/surrey/fetcham_risingsun.html;https://www.google.co.uk/maps/@51.2914851,-0.3375755,3a,41.5y,352.23h,91.67t/data=!3m6!1e1!3m4!1s9q0eUKN1BnelI5LRZdSclA!2e0!7i13312!8i6656
;51.2914120531;-0.3385806111;gone;1990s ;Rising Sun [2];Guildford Road ;;Leatherhead;Surrey;KT22 9DJ ;;https://photos.francisfrith.com/frith/leatherhead-rising-sun-c1965_l26096.jpg;http://www.closedpubs.co.uk/surrey/fetcham_risingsun2.html;https://www.google.co.uk/maps/@51.2916695,-0.3381839,3a,78.2y,219.91h,96.55t/data=!3m6!1e1!3m4!1sioRalikPf4LRsculLIA3Gw!2e0!7i13312!8i6656
;51.2911319348;-0.3548602773;open;;Bell;Bell Lane;Fetcham;Leatherhead;Surrey;KT22 9ND;;https://whatpub.com/img/KIN/6908/bell-fetcham/298/224/22121;https://whatpub.com/pubs/KIN/6908/bell-fetcham;https://www.google.co.uk/maps/@51.2913157,-0.3546588,3a,47.5y,208.95h,96.71t/data=!3m6!1e1!3m4!1sNtUQ3Y9J9rRrvUVfbwHoGw!2e0!7i13312!8i6656
;;;;;;;;;;;;;;
;51.2787849389;-0.3876771046;open;;Olde Windsor Castle;Little Bookham Street;Little Bookham;Leatherhead;Surrey;KT23 3AA;;https://whatpub.com/img/KIN/7042/olde-windsor-castle-little-bookham/200/150;https://whatpub.com/pubs/KIN/7042/olde-windsor-castle-little-bookham;https://www.google.co.uk/maps/@51.2788641,-0.387293,3a,52.1y,260.98h,88.68t/data=!3m7!1e1!3m5!1s-RH-yO4qYzFHYJmDXuRKdw!2e0!6s%2F%2Fgeo1.ggpht.com%2Fcbk%3Fpanoid%3D-RH-yO4qYzFHYJmDXuRKdw%26output%3Dthumbnail%26cb_client%3Dmaps_sv.tactile.gps%26thumb%3D2%26w%3D203%26h%3D100%26yaw%3D88.75758%26pitch%3D0%26thumbfov%3D100!7i13312!8i6656
;51.289647452;-0.3901487616;open;;Bookham Grange Hotel;Little Bookham Common;Little Bookham;Leatherhead;Surrey;KT23 3HS;;https://whatpub.com/img/KIN/6918/bookham-grange-hotel-little-bookham/298/224/42532;https://whatpub.com/pubs/KIN/6918/bookham-grange-hotel-little-bookham;https://www.google.co.uk/maps/@51.2898364,-0.3905152,3a,75y,140.11h,85.62t/data=!3m6!1e1!3m4!1sWHMPKmXocdkFoxHfTLStzA!2e0!7i13312!8i6656
;;;bone;;Fox & Hounds ;;Little Bookham;Leatherhead;Surrey;;;;http://www.closedpubs.co.uk/surrey/littlebookham_foxhounds.html;
;51.2774997221;-0.3851705816;bone;1890s;Child’s Hall ;Lower Road ;Little Bookham;Leatherhead;Surrey;;;http://www.closedpubs.co.uk/surrey/pics/greatbookham_childshall.jpg;http://www.closedpubs.co.uk/surrey/greatbookham_childshall.html;https://www.google.co.uk/maps/@51.2773663,-0.3848171,3a,54.7y,307.89h,86.51t/data=!3m6!1e1!3m4!1s8o6wl2cqM43aQUrgN196jQ!2e0!7i13312!8i6656
;51.2762966854;-0.3874424127;gone;;Preston Cross Hotel & Country Club;Rectory Lane;Great Bookham;Leatherhead;Surrey;KT23 4DY;;https://whatpub.com/img/KIN/7055/preston-cross-hotel-country-club-great-bookham/298/224/22124;https://whatpub.com/pubs/KIN/7055/preston-cross-hotel-country-club-great-bookham;https://www.google.co.uk/maps/@51.2763386,-0.3867247,3a,50.4y,257.77h,96.89t/data=!3m7!1e1!3m5!1srCTzMD6hukyJ32oRhHKDaQ!2e0!6s%2F%2Fgeo0.ggpht.com%2Fcbk%3Fpanoid%3DrCTzMD6hukyJ32oRhHKDaQ%26output%3Dthumbnail%26cb_client%3Dmaps_sv.tactile.gps%26thumb%3D2%26w%3D203%26h%3D100%26yaw%3D228.41396%26pitch%3D0%26thumbfov%3D100!7i13312!8i6656
;51.2786565861;-0.373722241;open;;Royal Oak;16 High Street;Great Bookham;Leatherhead;Surrey;KT23 4AG;;https://whatpub.com/img/KIN/7078/royal-oak-great-bookham/200/150;https://whatpub.com/pubs/KIN/7078/royal-oak-great-bookham;https://www.google.co.uk/maps/@51.2787184,-0.3735932,3a,75y,259.65h,91.06t/data=!3m6!1e1!3m4!1sTdKJRhXbrj_m6YK-zvLC7w!2e0!7i13312!8i6656
;51.2791804797;-0.3738194711;open;;Old Crown;1 High Street;Great Bookham;Leatherhead;Surrey;KT23 4AA;;https://whatpub.com/img/KIN/7035/old-crown-great-bookham/298/224/22123;https://whatpub.com/pubs/KIN/7035/old-crown-great-bookham;https://www.google.co.uk/maps/@51.2792653,-0.3740479,3a,75y,101.94h,90.2t/data=!3m6!1e1!3m4!1sctZMN4V0sswOhDaJdo0dVw!2e0!7i13312!8i6656
;51.2816387986;-0.3683484352;open;;Anchor;161 Lower Road;Great Bookham;Leatherhead;Surrey;KT23 4AH;;https://whatpub.com/img/KIN/6892/anchor-great-bookham/298/224/22122;https://whatpub.com/pubs/KIN/6892/anchor-great-bookham;https://www.google.co.uk/maps/@51.28177,-0.3686353,3a,41.3y,113.47h,94.48t/data=!3m6!1e1!3m4!1shByoxht6pNmcXv8bFdnvMg!2e0!7i13312!8i6656
;;;;;;;;;;;;;;
;51.2798234894;-0.3750854744;bone;;King’s Arms ;Church Street ;Great Bookham;Leatherhead;Surrey;;;http://www.closedpubs.co.uk/surrey/pics/greatbookham_kingsarms.jpg;http://www.closedpubs.co.uk/surrey/greatbookham_kingsarms.html;https://www.google.co.uk/maps/@51.2798186,-0.3752436,3a,56.2y,100.55h,93.58t/data=!3m6!1e1!3m4!1siFfs3RazdxDnbova3P97pA!2e0!7i13312!8i6656
;51.2773118021;-0.3722611097;bone;1890s;Saracen ;;Great Bookham;Leatherhead;Surrey;;White Hart|Saracen & Ring;http://www.closedpubs.co.uk/surrey/pics/greatbookham_saracenring.jpg;http://www.closedpubs.co.uk/surrey/greatbookham_saracenring.html;https://www.google.co.uk/maps/@51.2770721,-0.372263,3a,55.1y,3.97h,94.27t/data=!3m6!1e1!3m4!1s9Wi0Fhi14C0EBQM-s3A3CA!2e0!7i13312!8i6656
;;;;;;;;;;;;;;
;51.2726353667;-0.4018566026;open;;Plough;Orestan Lane;Effingham ;Leatherhead;Surrey;KT24 5SW ;;;https://whatpub.com/pubs/SHB/440/plough-inn-effingham;https://www.google.co.uk/maps/@51.2725547,-0.4017032,3a,75y,322.91h,87.42t/data=!3m6!1e1!3m4!1s5T4YZYE6hThKy0Y64voGNA!2e0!7i13312!8i6656
;51.2722284424;-0.4001721753;open;;Sir Douglas Haig;The Street;Effingham ;Leatherhead;Surrey;KT24 5LU;Blucher Hotel;https://whatpub.com/img/SHB/573/sir-douglas-haig-effingham/200/150;https://whatpub.com/pubs/SHB/573/sir-douglas-haig-effingham;https://www.google.co.uk/maps/@51.2724442,-0.400478,3a,42y,138.45h,94.74t/data=!3m6!1e1!3m4!1sMjpshMBs_h-TiWMxZnMXrw!2e0!7i13312!8i6656
;51.2723047934;-0.3996960832;bone;c1905;Blacksmith’s Arms ;Church Street ;Effingham ;Leatherhead;Surrey;;;http://www.closedpubs.co.uk/surrey/pics/effingham_blacksmithsarms.jpg;http://www.closedpubs.co.uk/surrey/effingham_blacksmithsarms.html;https://www.google.co.uk/maps/@51.2722462,-0.3995096,3a,75y,306.85h,90.04t/data=!3m6!1e1!3m4!1sC-xlCmB9d9DU4lhJbkEcdw!2e0!7i13312!8i6656
;51.2676765182;-0.3979459432;bone;1904;Prince Blucher ;;Effingham ;Leatherhead;Surrey;;Horse & Jockey ;http://www.closedpubs.co.uk/surrey/pics/effingham_princeblucher.jpg;http://www.closedpubs.co.uk/surrey/effingham_princeblucher.html;https://www.google.co.uk/maps/@51.2677462,-0.3980623,3a,89.8y,128.34h,85.87t/data=!3m6!1e1!3m4!1sSfOExwcSXz6JvzX15fAoPQ!2e0!7i13312!8i6656
;51.2929635712;-0.4211953309;gone;;Lord Howard of Effingham;Forest Road;Effingham Junction;Leatherhead;Surrey;KT24 5HL;;https://i.pinimg.com/736x/84/06/8c/84068cfdd408d395f4e92c32fe4ecfac--surrey-the-lord.jpg;https://whatpub.com/pubs/SHB/374/lord-howard-effingham-junction;https://www.google.co.uk/maps/@51.2929793,-0.4205792,3a,52y,262.22h,87.38t/data=!3m6!1e1!3m4!1ssS6-I8M22r9N6KyqYxukFg!2e0!7i13312!8i6656
;51.2628975598;-0.4317216589;open;;Duke of Wellington;Guildford Road;East Horsley;Leatherhead;Surrey;KT24 6AA;;https://whatpub.com/img/SHB/181/duke-of-wellington-east-horsley/200/150;https://whatpub.com/pubs/SHB/181/duke-of-wellington-east-horsley;https://www.google.co.uk/maps/@51.2627852,-0.4314686,3a,75y,314.81h,86.76t/data=!3m6!1e1!3m4!1sFDOnd66TJAFhUAdYgbw98w!2e0!7i13312!8i6656
;51.2781389797;-0.4361218241;dead;1989;Railway Hotel ;Ockham Road ;East Horsley;Leatherhead;Surrey;;;http://www.closedpubs.co.uk/surrey/pics/easthorsley_railway.jpg;http://www.closedpubs.co.uk/surrey/easthorsley_railway.html;https://www.google.co.uk/maps/@51.2783344,-0.4357608,3a,43.3y,222.55h,93.1t/data=!3m6!1e1!3m4!1sXDJCH-yZoMbaN8Lq52Vkrw!2e0!7i13312!8i6656
;51.2651457038;-0.45654148;open;;King William IV;83 The Street;West Horsley;Leatherhead;Surrey;KT24 6BG;;https://whatpub.com/img/SHB/350/king-william-iv-west-horsley/200/150;https://whatpub.com/pubs/SHB/350/king-william-iv-west-horsley;https://www.google.co.uk/maps/@51.2649555,-0.4562187,3a,45.6y,318.75h,90.25t/data=!3m6!1e1!3m4!1scPSoEOwhVGuc-_JcCyR_HA!2e0!7i13312!8i6656
;51.2707886564;-0.4539464428;open;;Barley Mow;181 The Street;West Horsley;Leatherhead;Surrey;KT24 6HR;;https://whatpub.com/img/SHB/39/barley-mow-west-horsley/200/150;https://whatpub.com/pubs/SHB/39/barley-mow-west-horsley;https://www.google.co.uk/maps/@51.2707374,-0.4535237,3a,42.5y,287.93h,88.41t/data=!3m6!1e1!3m4!1sBqlcb-KjFEt2AOiAjW2e0A!2e0!7i13312!8i6656
;51.2630964507;-0.4561525637;bone;1860;Red Lion ;Cranmore Lane ;West Horsley;Leatherhead;Surrey;;;;http://www.closedpubs.co.uk/surrey/westhorsley_redlion.html;https://www.google.co.uk/maps/@51.2632084,-0.4559727,3a,75y,220.34h,83.29t/data=!3m7!1e1!3m5!1sckjVXU1Mo4QlpSiKv4gxlA!2e0!6s%2F%2Fgeo0.ggpht.com%2Fcbk%3Fpanoid%3DckjVXU1Mo4QlpSiKv4gxlA%26output%3Dthumbnail%26cb_client%3Dmaps_sv.tactile.gps%26thumb%3D2%26w%3D203%26h%3D100%26yaw%3D33.082756%26pitch%3D0%26thumbfov%3D100!7i13312!8i6656
;;;;;;;;;;;;;;
;;;open;;Well House;Chipstead Lane;Mugswell;Coulsdon ;Surrey;CR5 3SQ;;https://whatpub.com/img/REI/255/well-house-inn-mugswell/298/224/1;https://whatpub.com/pubs/REI/255/well-house-inn-mugswell;
;;;;;;;;;;;;;;
;;;;;;;;;;;;;;
;;;;;;;;;;;;;;
;51.2301902877;-0.3372782761;gone;1986;Arundel Arms;22 Howard Road;;Dorking;Surrey;;;http://www.closedpubs.co.uk/surrey/pics/dorking_arundelarms.JPG|https://whatpub.com/img/REI/82/arundel-arms-dorking/298/224/1;https://whatpub.com/pubs/REI/82/arundel-arms-dorking;https://www.google.co.uk/maps/@51.230175,-0.3370713,3a,75y,269.8h,91.47t/data=!3m7!1e1!3m5!1s93mncSvAe58W8jWgR_RmQg!2e0!6s%2F%2Fgeo2.ggpht.com%2Fcbk%3Fpanoid%3D93mncSvAe58W8jWgR_RmQg%26output%3Dthumbnail%26cb_client%3Dmaps_sv.tactile.gps%26thumb%3D2%26w%3D203%26h%3D100%26yaw%3D119.28106%26pitch%3D0%26thumbfov%3D100!7i13312!8i6656
;51.2325835833;-0.3308362161;bone;;Black Horse;29 High Street;;Dorking;Surrey;;;;http://www.closedpubs.co.uk/surrey/dorking_blackhorse.html;https://www.google.co.uk/maps/@51.232503,-0.3307248,3a,75y,325.99h,92.24t/data=!3m6!1e1!3m4!1sEmQvSMEUUQ5wXXB8M-EQRw!2e0!7i13312!8i6656
;51.2318894098;-0.3321433458;bone;;George;High Street;;Dorking;Surrey;;;http://www.closedpubs.co.uk/surrey/pics/dorking_george.jpg;http://www.closedpubs.co.uk/surrey/dorking_george.html;https://www.google.co.uk/maps/@51.2318099,-0.3321317,3a,75y,285.47h,95.18t/data=!3m6!1e1!3m4!1slvHDPndHSROePx4s1hysHQ!2e0!7i13312!8i6656
;51.2318654999;-0.3332627962;bone;;Gun;1 North Street;;Dorking;Surrey;;;http://www.closedpubs.co.uk/surrey/pics/dorking_gun.jpg;http://www.closedpubs.co.uk/surrey/dorking_gun.html;https://www.google.co.uk/maps/@51.231946,-0.3332057,3a,75y,196.85h,92.02t/data=!3m6!1e1!3m4!1sBlRtHVdwtt66qyuIV0kRmw!2e0!7i13312!8i6656
;51.2317958091;-0.3330589403;bone;;Old King's Head;26 North Street;;Dorking;Surrey;;;;;https://www.google.co.uk/maps/@51.2315805,-0.3330595,3a,39.9y,359.8h,94.86t/data=!3m6!1e1!3m4!1sNqnn1LD-3d3V9e2Cw-cm5Q!2e0!7i13312!8i6656
;51.231662558;-0.3332143683;bone;;Queen's Arms;West Street;;Dorking;Surrey;;;;http://www.closedpubs.co.uk/surrey/dorking_queensarms.html;https://www.google.co.uk/maps/@51.2315774,-0.3330601,3a,75y,310.81h,92.12t/data=!3m6!1e1!3m4!1sI7ujkvLpFXchPZesXOKH5A!2e0!7i13312!8i6656
;51.2328568746;-0.3294574128;bone;1950s;Ram;68 High Street;;Dorking;Surrey;;;http://www.closedpubs.co.uk/surrey/pics/dorking_ram.jpg;http://www.closedpubs.co.uk/surrey/dorking_ram.html;https://www.google.co.uk/maps/@51.232854,-0.3297643,3a,60y,93.22h,91.17t/data=!3m6!1e1!3m4!1sUxk4NyofyWQQ9OvM9DLa4A!2e0!7i13312!8i6656
;51.2321645986;-0.3310153845;bone;1964;Red Lion Hotel;81 High Street;;Dorking;Surrey;;Cardinal's Cap;;http://www.closedpubs.co.uk/surrey/dorking_redlion.html;https://www.google.co.uk/maps/@51.232231,-0.3312512,3a,75y,136.24h,89.17t/data=!3m7!1e1!3m5!1sVyEcFMqSXoKzlSkwyvjhTQ!2e0!6s%2F%2Fgeo3.ggpht.com%2Fcbk%3Fpanoid%3DVyEcFMqSXoKzlSkwyvjhTQ%26output%3Dthumbnail%26cb_client%3Dmaps_sv.tactile.gps%26thumb%3D2%26w%3D203%26h%3D100%26yaw%3D70.198654%26pitch%3D0%26thumbfov%3D100!7i13312!8i6656
;51.2319296488;-0.331668372;bone;;Rock;89 High Street;;Dorking;Surrey;;;;http://www.closedpubs.co.uk/surrey/dorking_rock.html;
;51.2316085409;-0.3344837995;bone;;Rose & Crown;10 West Street;;Dorking;Surrey;;;;http://www.closedpubs.co.uk/surrey/dorking_rosecrown.html;https://www.google.co.uk/maps/@51.2316956,-0.3345849,3a,54.8y,136.58h,93.89t/data=!3m6!1e1!3m4!1stEWB3o06_bbFi2b7_0i6bQ!2e0!7i13312!8i6656
;51.2324377936;-0.3311168052;bone;1971;Sun;26 High Street;;Dorking;Surrey;;;;http://www.closedpubs.co.uk/surrey/dorking_sun.html;https://www.google.co.uk/maps/@51.2323831,-0.3309606,3a,78.1y,315.67h,92.78t/data=!3m6!1e1!3m4!1s_9k2Sc4b90pJ0_7Bmjsn-w!2e0!7i13312!8i6656
;51.2324923443;-0.3310142907;bone;c1950;Three Tuns;27 High Street;;Dorking;Surrey;;;;http://www.closedpubs.co.uk/surrey/dorking_threetuns.html;https://www.google.co.uk/maps/@51.2323831,-0.3309606,3a,55.9y,359.05h,92.67t/data=!3m6!1e1!3m4!1s_9k2Sc4b90pJ0_7Bmjsn-w!2e0!7i13312!8i6656
;51.2317886524;-0.3323750841;bone;;Wheatsheaf;8 High Street;;Dorking;Surrey;;;http://www.closedpubs.co.uk/surrey/pics/dorking_wheatsheaf.jpg;http://www.closedpubs.co.uk/surrey/dorking_wheatsheaf.html;
;51.2314129224;-0.3333008616;bone;;White Lion;78 South Street;;Dorking;Surrey;;;;http://www.closedpubs.co.uk/surrey/dorking_whitelion.html;https://www.google.co.uk/maps/@51.2314203,-0.3331185,3a,75y,269.3h,89.03t/data=!3m6!1e1!3m4!1so_7HW1ITF_b8iLPDfF9Stg!2e0!7i13312!8i6656
