_id;hide;kind;vague;lat;lon;status;closed;name;addr;town;posttown;county;postcode;prev;img;url;listed;gsv
;;;;;;;;;;;;;;;;;;
cr53-midday-sun;;;;51.316071;-0.164256;open;;Midday Sun;Outwood Lane ;Chipstead ;Coulsdon ;Surrey;CR5 3NA ;;https://whatpub.com/img/REI/61/midday-sun-chipstead/298/224/1;https://whatpub.com/pubs/REI/61/midday-sun-chipstead;;https://www.google.co.uk/maps/@51.3158186,-0.1641906,3a,75y,1.64h,91.9t/data=!3m6!1e1!3m4!1sPZzEk0oScqSPkv4goynY0g!2e0!7i13312!8i6656
cr53-ramblers-rest;;;;51.302747;-0.17483;open;;Rambler's Rest;Outwood Lane ;Chipstead ;Coulsdon ;Surrey;CR5 3NP ;;https://whatpub.com/img/REI/62/ramblers-rest-chipstead/298/224/1;https://whatpub.com/pubs/REI/62/ramblers-rest-chipstead;;https://www.google.co.uk/maps/@51.3028518,-0.174328,3a,75y,221.75h,96.14t/data=!3m6!1e1!3m4!1sRdCAF8dWWJG-NR79m7_L_A!2e0!7i13312!8i6656
cr53-white-hart;;;;51.297695;-0.168001;open;;White Hart;Hazelwood Lane ;Chipstead ;Coulsdon ;Surrey;CR5 3QW ;;https://whatpub.com/img/REI/63/white-hart-chipstead/298/224/1;https://whatpub.com/pubs/REI/63/white-hart-chipstead;;https://www.google.co.uk/maps/@51.2975767,-0.1679716,3a,75y,351.28h,95.17t/data=!3m7!1e1!3m5!1s1noa7eActfTzDKs_bNMBVg!2e0!6s%2F%2Fgeo3.ggpht.com%2Fcbk%3Fpanoid%3D1noa7eActfTzDKs_bNMBVg%26output%3Dthumbnail%26cb_client%3Dmaps_sv.tactile.gps%26thumb%3D2%26w%3D203%26h%3D100%26yaw%3D189.52235%26pitch%3D0%26thumbfov%3D100!7i13312!8i6656
cr53-well-house;;;;51.282589;-0.196995;open;;Well House;Chipstead Lane;Mugswell;Coulsdon ;Surrey;CR5 3SQ;;https://whatpub.com/img/REI/255/well-house-inn-mugswell/298/224/1;https://whatpub.com/pubs/REI/255/well-house-inn-mugswell;;https://www.google.co.uk/maps/@51.2827104,-0.1966105,3a,75y,226.92h,91.61t/data=!3m6!1e1!3m4!1sBQFzuKM_ttEkI8DXuX0VtQ!2e0!7i13312!8i6656
cr53-star;;;;51.295744;-0.152587;gone;1977;Star;Brighton Road ;Hooley ;Coulsdon ;Surrey;;;https://chipsteadvillage.org/open.php?filename=images/Star%20Inn%201905.jpg;https://whatpub.com/pubs/REI/197/star-hooley|https://chipsteadvillage.org/Have-Your-Say/Hooley-and-the-Star-Inn;;
;;;;;;;;;;;;;;;;;;
gu11-anchor-horseshoes;;;;51.254918;-0.548956;open;;Anchor & Horse Shoes;194 London Road ;Burpham ;Guildford;Surrey;GU1 1XR ;;https://whatpub.com/img/SHB/22/anchor-horseshoes-burpham/298/224/2015303;https://whatpub.com/pubs/SHB/22/anchor-horseshoes-burpham;;https://www.google.co.uk/maps/@51.2550943,-0.5491281,3a,26.1y,138.2h,92.45t/data=!3m6!1e1!3m4!1scyv0gEr4YTzOi5AoRTFg3Q!2e0!7i13312!8i6656
gu11-green-man;;;;51.2588;-0.54561;gone;2006;Green Man;93 London Road ;Burpham ;Guildford;Surrey;GU1 1YT ;;;https://whatpub.com/pubs/SHB/265/green-man-burpham;;https://www.google.co.uk/maps/@51.2584377,-0.5454568,3a,75y,314.07h,89.96t/data=!3m6!1e1!3m4!1sXLVTDgVEIKyl-4IFjsHukg!2e0!7i13312!8i6656
;;;;;;;;;;;;;;;;;;
gu12-horse-groom;;;;51.246188;-0.527928;open;;Horse & Groom;232 Epsom Road ;Merrow ;Guildford;Surrey;GU1 2RG ;Hare & Hound|Running Horse;;https://whatpub.com/pubs/SHB/318/horse-groom-merrow;;https://www.google.co.uk/maps/@51.2462895,-0.5277168,3a,74y,217.35h,98.38t/data=!3m6!1e1!3m4!1sZ75yltYFKJQnH_DRtBKebg!2e0!7i13312!8i6656
;;;;;;;;;;;;;;;;;;
gu13-forresters;;;;51.235622;-0.561351;gone;2011;Forresters;18 Cooper Road ;;Guildford;Surrey;GU1 3LY ;Pig & Tater;https://whatpub.com/img/SHB/216/forresters-guildford/298/224/16945;https://whatpub.com/pubs/SHB/216/forresters-guildford;;
;;;;;;;;;;;;;;;;;;
;;;;;;;;;;;;;;;;;;
;;;;;;;;;;;;;;;;;;
gu47-queens-head;;;;51.254438;-0.483232;open;;Queen's Head;The Street;East Clandon;Guildford;Surrey;GU4 7RY;Wishing Well;;https://whatpub.com/pubs/SHB/471/queens-head-east-clandon;;https://www.google.co.uk/maps/@51.2542942,-0.4831423,3a,58.2y,332.39h,88.32t/data=!3m6!1e1!3m4!1sEP1EXvBMeFhxz4gW3nmNcg!2e0!7i13312!8i6656
gu47-bulls-head;;;;51.253279;-0.504152;open;;Bull’s Head;The Street;West Clandon;Guildford;Surrey;GU4 7ST;;https://whatpub.com/img/SHB/83/bulls-head-west-clandon/298/224/71520;https://whatpub.com/pubs/SHB/83/bulls-head-west-clandon;;https://www.google.co.uk/maps/@51.2534457,-0.5040629,3a,40.3y,206.91h,96.9t/data=!3m6!1e1!3m4!1sJ2jdQjKGDFWhc2nLWLH5tQ!2e0!7i13312!8i6656
gu47-onslow-arms;;;;51.2611;-0.50346;open;;Onslow Arms;The Street;West Clandon;Guildford;Surrey;GU4 7TE;;https://whatpub.com/img/SHB/421/onslow-arms-west-clandon/298/224/71524;https://whatpub.com/pubs/SHB/421/onslow-arms-west-clandon;;https://www.google.co.uk/maps/@51.2609771,-0.5034977,3a,75y,32.45h,90.13t/data=!3m6!1e1!3m4!1sbkEY3KI_07weG10a3j9coQ!2e0!7i13312!8i6656
gu47-hare-hounds;;;;;;bone;;Hare & Hounds ;;West Clandon;Guildford;Surrey;;;http://www.closedpubs.co.uk/surrey/pics/westclandon_harehounds.jpg;http://www.closedpubs.co.uk/surrey/westclandon_harehounds.html;;
;;;;;;;;;;;;;;;;;;
gu48-newlands-corner-hotel;;hotel;;;;open;;Manor House Hotel;Newlands Corner ;Albury;Guildford;Surrey;GU4 8SE ;Newlands Corner Hotel;http://images.pub-explorer.com/pubs/16500/lr_manor-house-hotel-guildford_191020120746261968.jpg;http://www.manorhouse-hotel.com/;;https://www.google.co.uk/maps/@51.2372684,-0.5061887,3a,25.8y,97.81h,92.33t/data=!3m6!1e1!3m4!1sLFW19ROit62jwiHa2k0s6g!2e0!7i13312!8i6656
gu48-percy-arms;;;;51.215469;-0.525991;open;;Percy Arms;75 Dorking Road;Chilworth;Guildford;Surrey;GU4 8NP;;https://whatpub.com/img/SHB/429/percy-arms-chilworth/298/224/2011010;https://whatpub.com/pubs/SHB/429/percy-arms-chilworth;;https://www.google.co.uk/maps/@51.2153746,-0.5260592,3a,75y,6.5h,87.2t/data=!3m6!1e1!3m4!1slukfSUwT9hrTZRizHmrOtA!2e0!7i13312!8i6656
gu48-villagers;;;;51.206;-0.52044;limbo;;Villagers;Blackheath Lane;Blackheath;Guildford;Surrey;GU4 8RB;Volunteer Arms;http://www.closedpubs.co.uk/surrey/pics/blackheath_villagers.JPG;http://www.closedpubs.co.uk/surrey/blackheath_villagers.html|https://whatpub.com/pubs/SHB/644/villagers-blackheath;;https://www.google.co.uk/maps/@51.2059342,-0.5204755,3a,75y,21.08h,89.37t/data=!3m7!1e1!3m5!1sImdogdfTYrvFzebP5QqD5Q!2e0!6s%2F%2Fgeo3.ggpht.com%2Fcbk%3Fpanoid%3DImdogdfTYrvFzebP5QqD5Q%26output%3Dthumbnail%26cb_client%3Dmaps_sv.tactile.gps%26thumb%3D2%26w%3D203%26h%3D100%26yaw%3D110.23804%26pitch%3D0%26thumbfov%3D100!7i13312!8i6656
gu48-forest-king;;;;51.20542;-0.520068;bone;c1954;Forest King ;;Blackheath;Guildford;Surrey;;;http://www.closedpubs.co.uk/surrey/pics/blackheath_forestking.jpg;http://www.closedpubs.co.uk/surrey/blackheath_forestking.html;;
;;;;;;;;;;;;;;;;;;
;;;;;;;;;;;;;;;;;;
gu50-bramley-grange-hotel;;;;51.195079;-0.559455;gone;;Bramley Grange Hotel;Horsham Road ;Bramley ;Guildford;Surrey;GU5 0ES ;;;https://whatpub.com/pubs/SHB/70/bramley-grange-hotel-bramley;;
gu50-jolly-farmer;;;;51.194147;-0.558172;open;;Jolly Farmer;High Street ;Bramley ;Guildford;Surrey;GU5 0HB ;;https://whatpub.com/img/SHB/329/jolly-farmer-bramley/298/224/51004;https://whatpub.com/pubs/SHB/329/jolly-farmer-bramley;;https://www.google.co.uk/maps/@51.1942655,-0.5581299,3a,75y,209.52h,88.97t/data=!3m6!1e1!3m4!1sgP5x6Cm3_ixBVEJuA_dewg!2e0!7i13312!8i6656
gu50-wheatsheaf;;;;;;;;Wheatsheaf;High Street ;Bramley ;Guildford;Surrey;;;;;;
gu50-grantley-arms;;;;51.19722;-0.545819;open;;Grantley Arms;The Street ;Wonersh ;Guildford;Surrey;GU5 0PE ;;https://whatpub.com/img/SHB/260/grantley-arms-wonersh/298/224/2001795;https://whatpub.com/pubs/SHB/260/grantley-arms-wonersh;;https://www.google.co.uk/maps/@51.1972131,-0.5460323,3a,75y,111.29h,92.64t/data=!3m6!1e1!3m4!1s8Hf8XI2PYeid0w20P4JA7A!2e0!7i13312!8i6656
gu50-barnett-hill-hotel;;;;51.199045;-0.535086;open;;Barnett Hill Hotel;Blackheath Lane ;Wonersh ;Guildford;Surrey;GU5 0RF ;;;https://whatpub.com/pubs/SHB/836/barnett-hill-hotel-wonersh;;https://www.google.co.uk/maps/@51.1992938,-0.5345056,3a,75y,225.84h,97.07t/data=!3m6!1e1!3m4!1sg6wY1petP_0d0rbdWsgalA!2e0!7i13312!8i6656
gu50-bricklayers-arms;;;;51.182731;-0.523508;open;;Bricklayers Arms;The Green ;Shamley Green ;Guildford;Surrey;GU5 0UA ;;https://whatpub.com/img/SHB/73/bricklayers-arms-shamley-green/298/224/50982;https://whatpub.com/pubs/SHB/73/bricklayers-arms-shamley-green;;https://www.google.co.uk/maps/@51.182706,-0.5236304,3a,75y,85.19h,94.46t/data=!3m7!1e1!3m5!1s8BMX__KRJRWXYCk1aNXfcA!2e0!6s%2F%2Fgeo1.ggpht.com%2Fcbk%3Fpanoid%3D8BMX__KRJRWXYCk1aNXfcA%26output%3Dthumbnail%26cb_client%3Dmaps_sv.tactile.gps%26thumb%3D2%26w%3D203%26h%3D100%26yaw%3D279.4295%26pitch%3D0%26thumbfov%3D100!7i13312!8i6656
gu50-red-lion;;;;51.184819;-0.525123;open;;Red Lion;The Green ;Shamley Green ;Guildford;Surrey;GU5 0UB ;;https://whatpub.com/img/SHB/496/red-lion-shamley-green/298/224/71526;https://whatpub.com/pubs/SHB/496/red-lion-shamley-green;;https://www.google.co.uk/maps/@51.1846785,-0.5252974,3a,75y,66.6h,93.89t/data=!3m6!1e1!3m4!1scCeQzl99g3kxum3XH1MSsQ!2e0!7i13312!8i6656
gu50-railway-arms;;;;51.168687;-0.526275;bone;1957;Railway Arms ;Run Common ;Shamley Green ;Guildford;Surrey;;;http://www.closedpubs.co.uk/surrey/pics/shamleygreen_railwayarms.jpg;http://www.closedpubs.co.uk/surrey/shamleygreen_railwayarms.html;;
;;;;;;;;;;;;;;;;;;
gu59-drummond;;;;51.220209;-0.498723;open;;Drummond at Albury;The Street;Albury;Guildford;Surrey;GU5 9AG;Drummond Arms;https://whatpub.com/img/REI/3/drummond-at-albury-albury/298/224/1;https://whatpub.com/pubs/REI/3/drummond-at-albury-albury;;https://www.google.co.uk/maps/@51.2201185,-0.498557,3a,75y,300.84h,90.38t/data=!3m6!1e1!3m4!1s-xs45ESkGGXag1ppwP8I2w!2e0!7i13312!8i6656
gu59-william-iv;;;;51.2099803264;-0.4759097113;open;;William IV;Little London;Albury Heath;Guildford;Surrey;GU5 9DG;;https://whatpub.com/img/REI/4/william-iv-albury-heath/298/224/1;https://whatpub.com/pubs/REI/4/william-iv-albury-heath;;https://www.google.co.uk/maps/@51.209723,-0.4758455,3a,75y,287.3h,86.71t/data=!3m6!1e1!3m4!1sYQEJ1nrYR_RcicWSAtLcwg!2e0!7i13312!8i6656
gu59-white-horse;;;;51.2192354293;-0.4649502052;open;;White Horse;Shere Lane;Shere;Guildford;Surrey;GU5 9HS;;https://whatpub.com/img/REI/353/white-horse-shere/200/150;https://whatpub.com/pubs/REI/353/white-horse-shere;;https://www.google.co.uk/maps/@51.2193339,-0.464808,3a,75y,223.37h,92.73t/data=!3m6!1e1!3m4!1sjsKODxWPvzr6v21RWCTLfw!2e0!7i13312!8i6656
gu59-prince-wales;;;;51.2186944723;-0.465049447;open;;William Bray;Shere Lane;Shere;Guildford;Surrey;GU5 9HS;Prince of Wales;https://whatpub.com/img/REI/351/william-bray-shere/200/150;https://whatpub.com/pubs/REI/351/william-bray-shere;;https://www.google.co.uk/maps/@51.2187798,-0.4648553,3a,90y,248.52h,85.7t/data=!3m6!1e1!3m4!1s1w067tA4MUgp0cdG7-GH1g!2e0!7i13312!8i6656
gu59-compasses;;;;51.2200896923;-0.4479932812;open;;Compasses;50 Station Road;Gomshall;Guildford;Surrey;GU5 9LA;;https://whatpub.com/img/REI/186/compasses-gomshall/200/150;https://whatpub.com/pubs/REI/186/compasses-gomshall;;https://www.google.co.uk/maps/@51.219973,-0.4475958,3a,44.6y,296.69h,89.26t/data=!3m6!1e1!3m4!1sY1bsqGFKycX-i97qMteLNA!2e0!7i13312!8i6656
gu59-gomshall-mill;;;;51.2195050662;-0.4471939829;open;;Gomshall Mill;52 Station Road;Gomshall;Guildford;Surrey;GU5 9LB;;https://whatpub.com/img/REI/418/gomshall-mill-gomshall/200/150;https://whatpub.com/pubs/REI/418/gomshall-mill-gomshall;;https://www.google.co.uk/maps/@51.2196914,-0.4472274,3a,54.3y,187.07h,86.72t/data=!3m6!1e1!3m4!1s9N4KpWoss951cPjnB6ml-w!2e0!7i13312!8i6656
gu59-black-horse;;;;51.2191136313;-0.4457885054;dead;2008;Black Horse;55 Station Road;Gomshall;Guildford;Surrey;GU5 9NP;;https://whatpub.com/img/REI/185/black-horse-gomshall/298/224/1;http://www.closedpubs.co.uk/surrey/gomshall_blackhorse.html|https://whatpub.com/pubs/REI/185/black-horse-gomshall;;https://www.google.co.uk/maps/@51.2189817,-0.4455702,3a,75y,330.01h,91.87t/data=!3m6!1e1!3m4!1sYrON42gGyBHLhP7VN3SITw!2e0!7i13312!8i6656
gu59-hurtwood-inn;;;;51.1919570686;-0.4471322921;open;;Hurtwood Inn;Walking Bottom;Peaslake;Guildford;Surrey;GU5 9RR;;https://whatpub.com/img/REI/282/hurtwood-inn-peaslake/298/224/1;https://whatpub.com/pubs/REI/282/hurtwood-inn-peaslake;;https://www.google.co.uk/maps/@51.1918446,-0.4469213,3a,75y,337.24h,89.48t/data=!3m7!1e1!3m5!1suAXPwh_1y_hhlHkb_R5jHw!2e0!6s%2F%2Fgeo3.ggpht.com%2Fcbk%3Fpanoid%3DuAXPwh_1y_hhlHkb_R5jHw%26output%3Dthumbnail%26cb_client%3Dmaps_sv.tactile.gps%26thumb%3D2%26w%3D203%26h%3D100%26yaw%3D283.80908%26pitch%3D0%26thumbfov%3D100!7i13312!8i6656
;;;;;;;;;;;;;;;;;;
;;;;;;;;;;;;;;;;;;
gu67-white-hart-hotel;;;;51.141322;-0.483127;open;;White Hart Hotel;Ewhurst Road ;;Cranleigh ;Surrey;GU6 7AE ;;https://whatpub.com/img/REI/79/white-hart-hotel-cranleigh/298/224/1;https://whatpub.com/pubs/REI/79/white-hart-hotel-cranleigh;;https://www.google.co.uk/maps/@51.1414119,-0.4832843,3a,75y,130.99h,90.62t/data=!3m6!1e1!3m4!1s5zUAaG06hnEIUWUotVfOQQ!2e0!7i13312!8i6656
gu67-park-hatch;;;;51.145754;-0.471259;open;;Park Hatch;Bookhurst Road ;;Cranleigh ;Surrey;GU6 7DN ;Little Park Hatch;https://whatpub.com/img/REI/75/park-hatch-cranleigh/298/224/1;https://whatpub.com/pubs/REI/75/park-hatch-cranleigh;;https://www.google.co.uk/maps/@51.1460141,-0.4709885,3a,56.4y,215.46h,98.21t/data=!3m6!1e1!3m4!1sfHHJKmyLjutsVnhzzTlLgA!2e0!7i13312!8i6656
gu67-natashas;;bar;;51.144401;-0.47788;dead;late 1990s;Natasha's;The Old Barn, Ewhurst Road ;;Cranleigh ;Surrey;GU6 7EF ;;https://whatpub.com/img/REI/76/natashas-cranleigh/298/224/1;https://whatpub.com/pubs/REI/76/natashas-cranleigh;;https://www.google.co.uk/maps/@51.1444693,-0.4779294,3a,75y,143h,83.05t/data=!3m7!1e1!3m5!1sb13qf-66m8P3cJDnp_6d8g!2e0!6s%2F%2Fgeo0.ggpht.com%2Fcbk%3Fpanoid%3Db13qf-66m8P3cJDnp_6d8g%26output%3Dthumbnail%26cb_client%3Dmaps_sv.tactile.gps%26thumb%3D2%26w%3D203%26h%3D100%26yaw%3D98.355095%26pitch%3D0%26thumbfov%3D100!7i13312!8i6656
gu67-windmill;;;;51.1705734587;-0.4565307525;open;;Windmill;Ride Way, Pitch Hill;Ewhurst;Cranleigh ;Surrey;GU6 7NN;;https://whatpub.com/img/REI/168/windmill-inn-ewhurst/298/224/1;https://whatpub.com/pubs/REI/168/windmill-inn-ewhurst;;https://www.google.co.uk/maps/@51.1705792,-0.456096,3a,51.4y,283.53h,91.15t/data=!3m6!1e1!3m4!1s54rtPMdR0InFnzRk-QAvqw!2e0!7i13312!8i6656
gu67-bulls-head-2;;;;51.156345;-0.442451;open;;Bull's Head [2];The Street;Ewhurst;Cranleigh ;Surrey;GU6 7QD;;https://whatpub.com/img/REI/167/bulls-head-ewhurst/298/224/1;https://whatpub.com/pubs/REI/167/bulls-head-ewhurst;;https://www.google.co.uk/maps/@51.1563638,-0.4426438,3a,75y,113.78h,91.47t/data=!3m6!1e1!3m4!1sJorXAR4ROmoZFV_D5IN4bQ!2e0!7i13312!8i6656
gu67-bulls-head-1;;;;51.15287;-0.44164;bone;1908;Bull’s Head [1];The Street;Ewhurst;Cranleigh ;Surrey;;;https://photos.francisfrith.com/frith/ewhurst-post-office-1925_77184.jpg;http://www.closedpubs.co.uk/surrey/ewhurst_bullshead.html;;https://www.google.co.uk/maps/@51.1529958,-0.4417925,3a,53.1y,130.54h,94.76t/data=!3m7!1e1!3m5!1sh2H-4UYwPaeyWC_yPEFyVQ!2e0!6s%2F%2Fgeo3.ggpht.com%2Fcbk%3Fpanoid%3Dh2H-4UYwPaeyWC_yPEFyVQ%26output%3Dthumbnail%26cb_client%3Dmaps_sv.tactile.gps%26thumb%3D2%26w%3D203%26h%3D100%26yaw%3D39.71271%26pitch%3D0%26thumbfov%3D100!7i13312!8i6656
gu67-crown;;;;51.15639;-0.4435;bone;1960;Crown ;;Ewhurst;Cranleigh ;Surrey;;;https://photos.francisfrith.com/frith/ewhurst-village-1925_77183.jpg|https://photos.francisfrith.com/frith/ewhurst-the-crown-inn-c1955_e47016.jpg;http://www.closedpubs.co.uk/surrey/ewhurst.html;;
gu67-white-hart;;;;51.15554;-0.44185;bone;1900s;White Hart ;The Street;Ewhurst;Cranleigh ;Surrey;;;http://media.rightmove.co.uk/dir/90k/89741/47924527/89741_HOR150003_IMG_26_0000_max_656x437.jpg;http://www.closedpubs.co.uk/surrey/ewhurst.html;https://historicengland.org.uk/listing/the-list/list-entry/1044312;https://www.google.co.uk/maps/@51.155419,-0.4421522,3a,75y,51.82h,94.51t/data=!3m6!1e1!3m4!1smers2BkM0sE_Pk92FEUvbw!2e0!7i13312!8i6656
;;;;;;;;;;;;;;;;;;
gu68-three-horseshoes;;;;51.14055;-0.486012;open;;Three Horseshoes;4 High Street ;;Cranleigh ;Surrey;GU6 8AE ;;https://whatpub.com/img/REI/78/three-horseshoes-cranleigh/298/224/1;https://whatpub.com/pubs/REI/78/three-horseshoes-cranleigh;;https://www.google.co.uk/maps/@51.1407451,-0.4860676,3a,50.5y,169.76h,88.95t/data=!3m6!1e1!3m4!1sG_IEqMlHWClMfyUwCnBBiw!2e0!7i13312!8i6656
gu68-onslow-arms;;;;51.141592;-0.490123;open;;Richard Onslow;113-117 High Street ;;Cranleigh ;Surrey;GU6 8AU ;Onslow Arms;https://whatpub.com/img/REI/77/richard-onslow-cranleigh/298/224/1;https://whatpub.com/pubs/REI/77/richard-onslow-cranleigh;;https://www.google.co.uk/maps/@51.1414874,-0.49024,3a,90y,39.14h,88.84t/data=!3m6!1e1!3m4!1sIl_2DZ46dv5ZjIGUC0nE4Q!2e0!7i13312!8i6656
gu68-boy-donkey;;;;51.126586;-0.491041;gone;1990s ;Boy & Donkey;Knowle Road ;;Cranleigh ;Surrey;GU6 8JW ;;http://www.closedpubs.co.uk/surrey/pics/cranleigh_boydonkey.JPG|https://whatpub.com/img/REI/73/boy-donkey-cranleigh/298/224/1;http://www.closedpubs.co.uk/surrey/cranleigh_boydonkey.html|https://whatpub.com/pubs/REI/73/boy-donkey-cranleigh;;https://www.google.co.uk/maps/@51.1265916,-0.4911329,3a,90y,74.99h,85.39t/data=!3m7!1e1!3m5!1s_BilTsrCLe9nnlxRO5ndkA!2e0!6s%2F%2Fgeo3.ggpht.com%2Fcbk%3Fpanoid%3D_BilTsrCLe9nnlxRO5ndkA%26output%3Dthumbnail%26cb_client%3Dmaps_sv.tactile.gps%26thumb%3D2%26w%3D203%26h%3D100%26yaw%3D88.88555%26pitch%3D0%26thumbfov%3D100!7i13312!8i6656
gu68-leathern-bottle;;;;51.145575;-0.5346;gone;;Leathern Bottle;Guildford Road ;Smithbrook ;Cranleigh ;Surrey;GU6 8LH ;;;https://whatpub.com/pubs/REI/441/leathern-bottle-smithbrook;;
gu68-four-elms;;;;51.158754;-0.495999;gone;1997;Four Elms;Smithwood Common Road ;Smithwood Common ;Cranleigh ;Surrey;GU6 8QP ;;http://www.closedpubs.co.uk/surrey/pics/cranleigh_fourelms.jpg|https://whatpub.com/img/REI/356/four-elms-smithwood-common/298/224/1;http://www.closedpubs.co.uk/surrey/cranleigh_fourelms.html|https://whatpub.com/pubs/REI/356/four-elms-smithwood-common;;
gu68-cranley-hotel;;;;51.143673;-0.498061;open;;Cranley Hotel;The Common ;;Cranleigh ;Surrey;GU6 8SQ ;;https://whatpub.com/img/REI/74/cranley-hotel-cranleigh/298/224/1;https://whatpub.com/pubs/REI/74/cranley-hotel-cranleigh;;https://www.google.co.uk/maps/@51.1438535,-0.497917,3a,75y,213.41h,88.04t/data=!3m6!1e1!3m4!1sxaoE68L22c0WG4zL5wcIoA!2e0!7i13312!8i6656
gu68-greyhound;;;;51.141104;-0.488366;bone;1950s;Greyhound  ;The Street ;;Cranleigh ;Surrey;;;;http://www.closedpubs.co.uk/surrey/cranleigh_greyhound.html;;https://www.google.co.uk/maps/@51.1409352,-0.4883618,3a,75y,0.52h,85.59t/data=!3m6!1e1!3m4!1sVEQ1_p8ZRD6jJAQSmVgOig!2e0!7i13312!8i6656
;;;;;;;;;;;;;;;;;;
;;;;;;;;;;;;;;;;;;
gu236-anchor;;;;51.299504;-0.493366;open;;Anchor;High Street ;Ripley ;Woking;Surrey;GU23 6AE ;;https://whatpub.com/img/SHB/23/anchor-ripley/298/224/71519;https://whatpub.com/pubs/SHB/23/anchor-ripley;;https://www.google.co.uk/maps/@51.29961,-0.4933357,3a,89.9y,151.11h,87.39t/data=!3m6!1e1!3m4!1sddZgxkE9RKh--bO4k3miPw!2e0!7i13312!8i6656
gu236-half-moon;;;;51.301269;-0.490142;open;;Half Moon;High Street ;Ripley ;Woking;Surrey;GU23 6AN ;;https://whatpub.com/img/SHB/280/half-moon-ripley/298/224/71522;https://whatpub.com/pubs/SHB/280/half-moon-ripley;;https://www.google.co.uk/maps/@51.3012515,-0.4900197,3a,75y,306.09h,87.81t/data=!3m6!1e1!3m4!1ss7pSlfJJuEV8VYsBfT8fGg!2e0!7i13312!8i6656
gu236-ship;;;;51.300421;-0.491945;open;;Ship;High Street ;Ripley ;Woking;Surrey;GU23 6AZ ;;https://whatpub.com/img/SHB/565/ship-ripley/298/224/74244;https://whatpub.com/pubs/SHB/565/ship-ripley;;https://www.google.co.uk/maps/@51.3005313,-0.4921145,3a,37.3y,124.47h,89.94t/data=!3m6!1e1!3m4!1s8GRSoJIW0ajSEWc51bb0Cg!2e0!7i13312!8i6656
gu236-talbot;;hotel;;51.301337;-0.489209;open;;Talbot;High Street ;Ripley ;Woking;Surrey;GU23 6BB ;;https://whatpub.com/img/SHB/616/talbot-ripley/298/224/71529;https://whatpub.com/pubs/SHB/616/talbot-ripley;;https://www.google.co.uk/maps/@51.3014611,-0.4892722,3a,73.1y,167.68h,90.31t/data=!3m6!1e1!3m4!1sqWwiLvm8SG_D5CVhi78zZQ!2e0!7i13312!8i6656
gu236-seven-stars;;;;51.302146;-0.509477;open;;Seven Stars;Newark Lane ;Ripley ;Woking;Surrey;GU23 6DL ;;;https://whatpub.com/pubs/SHB/561/seven-stars-ripley;;https://www.google.co.uk/maps/@51.3022074,-0.5092497,3a,61.2y,259.36h,90.39t/data=!3m6!1e1!3m4!1sJY2d-Cp1IjIKmVyVg-lTfA!2e0!7i13312!8i6656
gu236-jovial-sailor;;;;51.289241;-0.502203;open;;Jovial Sailor;Portsmouth Road ;Ripley ;Woking;Surrey;GU23 6EZ ;;https://whatpub.com/img/SHB/335/jovial-sailor-ripley/298/224/71523;https://whatpub.com/pubs/SHB/335/jovial-sailor-ripley;;https://www.google.co.uk/maps/@51.2894597,-0.5021846,3a,75y,134.24h,90.24t/data=!3m6!1e1!3m4!1sy11KADoU1uWWp9jOo2sB_w!2e0!7i13312!8i6656
gu236-sadlers-arms;;;;51.29;-0.50965;open;;Saddlers Arms;Send Marsh Road ;Send ;Woking;Surrey;GU23 6JQ ;;https://whatpub.com/img/SHB/554/saddlers-arms-send/298/224/71527;https://whatpub.com/pubs/SHB/554/saddlers-arms-send;;https://www.google.co.uk/maps/@51.2898091,-0.5096911,3a,51.7y,20.64h,90.94t/data=!3m6!1e1!3m4!1sQzhhUy3I_jqgSrpdaAzZ5w!2e0!7i13312!8i6656
gu236-white-hart-2;;;;51.300964;-0.490491;gone;1980s;White Hart [2];High Street ;Ripley ;Woking;Surrey;GU23 6ND ;Spread Eagle ;http://www.closedpubs.co.uk/surrey/pics/ripley_whitehart.JPG;http://www.closedpubs.co.uk/surrey/ripley_whitehart2.html|https://whatpub.com/pubs/SHB/680/white-hart-ripley;;https://www.google.co.uk/maps/@51.3010605,-0.4907598,3a,58.6y,110.67h,91t/data=!3m6!1e1!3m4!1sTLN0C_D_JRqFKTsnk5lvWg!2e0!7i13312!8i6656
gu236-hautboy;;;;51.2997795659;-0.4587543038;gone;2007;Hautboy;Ockham Lane;Ockham;Woking;Surrey;GU23 6NP;;http://www.closedpubs.co.uk/surrey/pics/ockham_hautboy.jpg|https://photos.francisfrith.com/frith/ockham-the-hautboy-hotel-c1938_o6303.jpg;http://www.closedpubs.co.uk/surrey/ockham_hautboyinn.html|https://whatpub.com/pubs/SHB/293/hautboy-inn-ockham;;https://www.google.co.uk/maps/@51.299585,-0.458651,3a,75y,316.62h,92.62t/data=!3m6!1e1!3m4!1soXazB-oNH-iSw_5D6B-ZEA!2e0!7i13312!8i6656
gu236-anchor-q;;;;51.322753;-0.49007;open;;Anchor;Lock Lane ;Pyrford ;Woking;Surrey;GU23 6QW ;;https://whatpub.com/img/SHB/19/anchor-pyrford/298/224/98732;https://whatpub.com/pubs/SHB/19/anchor-pyrford;;https://www.google.co.uk/maps/@51.3224887,-0.489589,3a,32.3y,322.21h,87t/data=!3m6!1e1!3m4!1sTk-1Fihkl1JzeJAa3cb3cQ!2e0!7i13312!8i6656
;;;;;;;;;;;;;;;;;;
gu237-new-inn;;;;51.294473;-0.541627;open;;New Inn;Send Road ;Send ;Woking;Surrey;GU23 7EN ;;https://whatpub.com/img/SHB/405/new-inn-send/298/224/81568;https://whatpub.com/pubs/SHB/405/new-inn-send;;https://www.google.co.uk/maps/@51.2945413,-0.5414657,3a,50.8y,248.48h,84.81t/data=!3m6!1e1!3m4!1su0G5C-HCf71fEjVw5_OX3A!2e0!7i13312!8i6656
;;;;;;;;;;;;;;;;;;
gu236-three-mariners;;;;51.301394;-0.488797;bone;late C17;Three Mariners ;High Street ;Ripley ;Woking;Surrey;;Angel;http://www.closedpubs.co.uk/surrey/pics/ripley_angel.jpg;http://www.closedpubs.co.uk/surrey/ripley_angel.html;;https://www.google.co.uk/maps/@51.3015687,-0.4888405,3a,75y,161.16h,91.95t/data=!3m6!1e1!3m4!1sm4BGC2mB9kLCtdKIRA7qrA!2e0!7i13312!8i6656
gu236-cricketers;;;;;;bone;after 1912;Cricketers  ;Portsmouth Road ;Ripley ;Woking;Surrey;;;;http://www.closedpubs.co.uk/surrey/ripley_cricketers.html;;
gu236-george-hotel;;;;51.29983;-0.492815;bone;early C19;George Hotel  ;10 High Street ;Ripley ;Woking;Surrey;;;http://www.closedpubs.co.uk/surrey/pics/ripley_george.JPG;http://www.closedpubs.co.uk/surrey/ripley_george.html;;https://www.google.co.uk/maps/@51.2998545,-0.492985,3a,90y,96.49h,91.41t/data=!3m6!1e1!3m4!1szXAOYBupi1js2tE-KHaBOA!2e0!7i13312!8i6656
gu236-white-hart-1;;;;51.301609;-0.486742;bone;c1746;White Hart [1];High Street ;Ripley ;Woking;Surrey;;;http://www.closedpubs.co.uk/surrey/pics/ripley_whitehart2.jpg;http://www.closedpubs.co.uk/surrey/ripley_whitehart2.html;;https://www.google.co.uk/maps/@51.3018399,-0.486941,3a,75y,155.82h,85.89t/data=!3m6!1e1!3m4!1sIjjv5TOpXkssrboVUzKgiw!2e0!7i13312!8i6656
gu236-white-horse;;;;51.301061;-0.49009;bone;c1853;White Horse ;High Street ;Ripley ;Woking;Surrey;;;http://www.closedpubs.co.uk/surrey/pics/ripley_whitehorse.jpg;http://www.closedpubs.co.uk/surrey/ripley_whitehorse.html;;https://www.google.co.uk/maps/@51.3012004,-0.4902133,3a,50.3y,149.21h,93.38t/data=!3m6!1e1!3m4!1s6qGMv6IXwLCuDy6iQPLWvQ!2e0!7i13312!8i6656
gu236-white-lion;;;;51.299283;-0.494138;bone;before 1773;White Lion ;High Street ;Ripley ;Woking;Surrey;;;http://www.closedpubs.co.uk/surrey/pics/ripley_whitelion.jpg;http://www.closedpubs.co.uk/surrey/ripley_whitelion.html;;https://www.google.co.uk/maps/@51.2991979,-0.4939042,3a,75y,317.72h,88.83t/data=!3m6!1e1!3m4!1sJRSVNymtzT1EJ7mrGfhONQ!2e0!7i13312!8i6656
;;;;;;;;;;;;;;;;;;
;;;;;;;;;;;;;;;;;;
kt91-chessington-oak;;;;51.3642;-0.2974;open;;Chessington Oak;116 Moor Lane;;Chessington ;;KT9 1HX ;;https://whatpub.com/img/KIN/6935/chessington-oak-chessington/298/224/47808;https://whatpub.com/pubs/KIN/6935/chessington-oak-chessington;;https://www.google.co.uk/maps/@51.3639222,-0.2962057,3a,49.2y,275.97h,88.59t/data=!3m6!1e1!3m4!1s6NG9c8EU-q9rV16eYEUQyA!2e0!7i13312!8i6656
kt91-white-hart;;;;51.365634;-0.307731;gone;2008;White Hart ;Hook Road ;;Chessington ;;KT9 1NA ;;;http://www.closedpubs.co.uk/surrey/chessington_whitehart.html|https://whatpub.com/pubs/KIN/16880/white-hart-chessington;;
kt91-maverick;;;;51.369234;-0.295406;dead;2010;Maverick;Cox Lane ;;Chessington ;;KT9 1SG ;Port of Call;http://www.closedpubs.co.uk/surrey/pics/chessington_maverick.JPG;http://www.closedpubs.co.uk/surrey/chessington_maverick.html|https://whatpub.com/pubs/KIN/16878/maverick-chessington;;https://www.google.co.uk/maps/@51.3690045,-0.2955551,3a,75y,18.85h,86.19t/data=!3m6!1e1!3m4!1s8gu1qH6Hro1irhQyZbEiPA!2e0!7i13312!8i6656
;;;;;;;;;;;;;;;;;;
;;;;;;;;;;;;;;;;;;
kt92-william-bourne;;;;51.3625;-0.2894;open;;William Bourne;273 Moor Lane ;;Chessington ;;KT9 2BQ ;Bonesgate ;https://whatpub.com/img/KIN/6916/william-bourne-chessington/298/224/20869;https://whatpub.com/pubs/KIN/6916/william-bourne-chessington;;https://www.google.co.uk/maps/@51.3622329,-0.2888377,3a,58.2y,337.25h,92.2t/data=!3m6!1e1!3m4!1sNNJ5StinQ3Jt6RX28NIlUg!2e0!7i13312!8i6656
kt92-harrow;;;;51.35756;-0.311092;gone;2010;Harrow;Leatherhead Road ;;Chessington ;;KT9 2HS ;;http://www.closedpubs.co.uk/surrey/pics/chessington_harrow.JPG;http://www.closedpubs.co.uk/surrey/chessington_harrow.html|https://whatpub.com/pubs/KIN/16879/harrow-chessington;;https://www.google.co.uk/maps/@51.3576191,-0.3114317,3a,90y,83.95h,87.11t/data=!3m7!1e1!3m5!1sh7GumrgXl3LbyljhuU671g!2e0!6s%2F%2Fgeo0.ggpht.com%2Fcbk%3Fpanoid%3Dh7GumrgXl3LbyljhuU671g%26output%3Dthumbnail%26cb_client%3Dmaps_sv.tactile.gps%26thumb%3D2%26w%3D203%26h%3D100%26yaw%3D35.065155%26pitch%3D0%26thumbfov%3D100!7i13312!8i6656
kt92-bunkers-bar;;bar;;51.3555;-0.3074;open;;Chessington Golf Centre;Garrison Lane ;;Chessington ;;KT9 2LW ;Bunkers Bar;https://whatpub.com/img/KIN/6934/chessington-golf-centre-chessington/298/224/26324;https://whatpub.com/pubs/KIN/6934/chessington-golf-centre-chessington;;
kt92-monkey-puzzle;;;;51.3485;-0.3148;open;;Monkey Puzzle;Leatherhead Road ;;Chessington ;;KT9 2NE ;;https://whatpub.com/img/KIN/7021/monkey-puzzle-chessington/298/224/22645;https://whatpub.com/pubs/KIN/7021/monkey-puzzle-chessington;;https://www.google.co.uk/maps/@51.3465839,-0.3150137,3a,61y,316.44h,95.01t/data=!3m6!1e1!3m4!1sKAp6mev-9_RguB18FEHOwA!2e0!7i13312!8i6656
kt92-shy-horse;;;;51.3386;-0.3193;open;;Shy Horse;423 Leatherhead Road ;Malden Rushett ;Chessington ;;KT9 2NQ ;;https://whatpub.com/img/KIN/7089/shy-horse-malden-rushett/298/224/26336;https://whatpub.com/pubs/KIN/7089/shy-horse-malden-rushett;;https://www.google.co.uk/maps/@51.3372202,-0.3202806,3a,56y,102.02h,96.09t/data=!3m6!1e1!3m4!1szi9_IOZF9g05SC15mBzsYA!2e0!7i13312!8i6656
;;;;;;;;;;;;;;;;;;
;;;;;;;;;;;;;;;;;;
kt100-griffin;;;;51.35968;-0.33497;open;;Griffin;58 Common Road ;Claygate ;Esher;Surrey;KT10 0HW ;;https://whatpub.com/img/KIN/6980/griffin-claygate/298/224/22191;https://whatpub.com/pubs/KIN/6980/griffin-claygate;;https://www.google.co.uk/maps/@51.3596182,-0.3346159,3a,89.7y,304.81h,85.37t/data=!3m6!1e1!3m4!1scVpM3CaTxq-A6IJBCOfq_w!2e0!7i13312!8i6656
kt100-hare-hounds;;;;51.359927;-0.339487;open;;Hare & Hounds;The Green ;Claygate ;Esher;Surrey;KT10 0JL ;;https://whatpub.com/img/KIN/6986/hare-hounds-claygate/298/224/26149;https://whatpub.com/pubs/KIN/6986/hare-hounds-claygate;;https://www.google.co.uk/maps/@51.3598647,-0.3397729,3a,49.4y,78.29h,91.16t/data=!3m6!1e1!3m4!1sMMvmsJOoYjSZMSOBrI8ZRg!2e0!7i13312!8i6656
kt100-winning-horse;;;;51.35545;-0.338298;open;;Winning Horse;35 Coverts Road ;Claygate ;Esher;Surrey;KT10 0JY ;;https://whatpub.com/img/KIN/7122/winning-horse-claygate/298/224/22267;https://whatpub.com/pubs/KIN/7122/winning-horse-claygate;;https://www.google.co.uk/maps/@51.3555923,-0.3385565,3a,49.4y,134.66h,91.7t/data=!3m6!1e1!3m4!1szFODzSEdGrttrLIj2STKig!2e0!7i13312!8i6656
kt100-foley-arms;;;;51.35982;-0.34531;open;;Foley;106 Hare Lane ;Claygate ;Esher;Surrey;KT10 0LZ ;Foley Arms;https://whatpub.com/img/KIN/6969/foley-claygate/298/224/22190;https://whatpub.com/pubs/KIN/6969/foley-claygate;;https://www.google.co.uk/maps/@51.3596897,-0.3447787,3a,49.7y,288.98h,97.02t/data=!3m6!1e1!3m4!1shXO027wM4fk3orOr1oKxKQ!2e0!7i13312!8i6656
kt100-platform3;;bar;;51.3613;-0.348246;open;;Platform 3;Claygate Station, The Parade ;Claygate ;Esher;Surrey;KT10 0PB ;;https://whatpub.com/img/KIN/16813/platform-3-claygate/298/224/92456;https://whatpub.com/pubs/KIN/16813/platform-3-claygate;;https://www.google.co.uk/maps/@51.3612631,-0.3481247,3a,75y,337.39h,90.46t/data=!3m6!1e1!3m4!1sbwrXUNJeRm_cFiQDjM8JFQ!2e0!7i13312!8i6656
;;;;;;;;;;;;;;;;;;
kt109-swan;;;;51.364182;-0.354433;open;;Swan;2 Hare Lane ;Claygate ;Esher;Surrey;KT10 9BS ;;https://whatpub.com/img/KIN/7104/swan-claygate/298/224/2007827;https://whatpub.com/pubs/KIN/7104/swan-claygate;;https://www.google.co.uk/maps/@51.3643126,-0.3545714,3a,90y,153.1h,91.58t/data=!3m6!1e1!3m4!1sDiBfc2qvcOtw1zfhdAQoWA!2e0!7i13312!8i6656
;;;;;;;;;;;;;;;;;;
;;;;;;;;;;;;;;;;;;
;;;;;;;;;;;;;;;;;;
kt111-hut-hotel;;;;51.3155;-0.4588;bone;1970s;Hut Hotel;Portsmouth Road ;Wisley Common;Cobham;Surrey;;;https://photos.francisfrith.com/frith/wisley-hut-hotel-1928_81417.jpg|https://photos.francisfrith.com/frith/wisley-the-hut-hotel-1928_81418.jpg|https://photos.francisfrith.com/frith/wisley-hut-hotel-1903_49287.jpg;https://www.francisfrith.com/uk/wisley/wisley-hut-hotel-1903_49287|http://www.closedpubs.co.uk/surrey/wisley_huthotel.html;;
kt111-tartar-inn;;;;51.3357;-0.4076;bone;;Tartar Inn;Tartar Hill ;;Cobham;Surrey;;;https://photos.francisfrith.com/frith/cobham-tartar-hill-1904_53087.jpg;http://www.closedpubs.co.uk/surrey/cobham_tartar.html;;
kt111-fairmile;;;;51.34082;-0.40127;open;;Fairmile;Portsmouth Road ;;Cobham;Surrey;KT11 1BW ;;https://whatpub.com/img/KIN/6964/fairmile-cobham/298/224/22196;https://whatpub.com/pubs/KIN/6964/fairmile-cobham;;https://www.google.co.uk/maps/@51.3410432,-0.4003383,3a,89.9y,347.95h,85.02t/data=!3m6!1e1!3m4!1sZlSYFzoXzPBZsv-OC-3Gow!2e0!7i13312!8i6656
kt111-white-lion;;;;51.331998;-0.417679;gone;;NY Bar & Grill;46 Portsmouth Road ;;Cobham;Surrey;KT11 1BY ;White Lion;https://whatpub.com/img/KIN/6958/ny-bar-grill-cobham/298/224/42839|https://photos.francisfrith.com/frith/cobham-the-white-lion-1919_68858.jpg|https://photos.francisfrith.com/frith/cobham-the-white-lion-c1955_c131017.jpg;https://whatpub.com/pubs/KIN/6958/ny-bar-grill-cobham;;https://www.google.co.uk/maps/@51.3320418,-0.4175882,3a,90y,163.34h,90.45t/data=!3m6!1e1!3m4!1sY8jPtmwm_PdYc86MHRC_vQ!2e0!7i13312!8i6656
kt111-little-white-lion;;bar;;51.3333;-0.421471;open;;Loch Fyne;17 Portsmouth Road ;;Cobham;Surrey;KT11 1JF ;Little White Lion ;http://www.closedpubs.co.uk/surrey/pics/cobham_littlewhitelion.JPG|https://photos.francisfrith.com/frith/cobham-little-white-lion-1903_49276n.jpg;http://www.closedpubs.co.uk/surrey/cobham_littlewhitelion.html|https://whatpub.com/pubs/KIN/16935/loch-fyne-cobham;;https://www.google.co.uk/maps/@51.3331701,-0.4217894,3a,50y,57.03h,89.03t/data=!3m6!1e1!3m4!1seU-qdGW2KsDJ--SqMvszQA!2e0!7i13312!8i6656
kt111-kings-arms;;;;51.3334;-0.4221;bone;between 1904 & 1914;Kings Arms ;on Painshill ;;Cobham;Surrey;;;https://photos.francisfrith.com/frith/cobham-pains-hill-1904_53095.jpg|https://photos.francisfrith.com/frith/cobham-the-kings-arms-1903_49276m.jpg;http://www.closedpubs.co.uk/surrey/cobham_kingsarms.html;;
kt111-brewery;;;;51.3329;-0.4152;bone;after 1903;Brewery ;;;Cobham;Surrey;;;;;;
kt111-royal-oak;;;;51.3336;-0.4128;bone;;Royal Oak ;Portsmouth Road ;;Cobham;Surrey;;;https://photos.francisfrith.com/frith/cobham-the-royal-oak-1911_63131.jpg;http://www.closedpubs.co.uk/surrey/cobham_royaloak.html;;
kt111-antelope;;;;;;bone;after 1968;Antelope ;site of The George Hotel (also known as The George & Dragon), Portsmouth Road ;;Cobham;Surrey;;;https://d1k3x9ag8od9zn.cloudfront.net/postcards/images/000/068/324/extra_large/2011_03_24_16_40_31.jpg;http://www.closedpubs.co.uk/surrey/cobham_antelope.html;;
kt111-black-swan;;;;51.3045270193;-0.439136627;open;;Black Swan;Old Lane;Martyrs Green;Cobham;Surrey;KT11 1NG;;https://whatpub.com/img/KIN/6913/black-swan-martyrs-green/298/224/22184;https://whatpub.com/pubs/KIN/6913/black-swan-martyrs-green;;https://www.google.co.uk/maps/@51.3043725,-0.4395486,3a,49.5y,59.81h,98.11t/data=!3m7!1e1!3m5!1shNaimCnjYqTheyzOOefqzg!2e0!6s%2F%2Fgeo1.ggpht.com%2Fcbk%3Fpanoid%3DhNaimCnjYqTheyzOOefqzg%26output%3Dthumbnail%26cb_client%3Dmaps_sv.tactile.gps%26thumb%3D2%26w%3D203%26h%3D100%26yaw%3D119.385956%26pitch%3D0%26thumbfov%3D100!7i13312!8i6656
;;;;;;;;;;;;;;;;;;
kt112-griffin;;;;51.3347;-0.3822;bone;c1900;Griffin  ;Knipp Hill ;;Cobham;Surrey;;;;http://www.closedpubs.co.uk/surrey/cobham_griffin.html;;
;;;;;;;;;;;;;;;;;;
kt113-woodlands-park-hotel;;hotel;;51.3167950085;-0.3625971106;open;;Woodlands Park Hotel;Woodlands Lane;Stoke D'Abernon;Cobham;Surrey;KT11 3QB;;https://whatpub.com/img/KIN/7124/woodlands-park-hotel-stoke-dabernon/298/224/42536;https://whatpub.com/pubs/KIN/7124/woodlands-park-hotel-stoke-dabernon;;https://www.google.co.uk/maps/@51.3171709,-0.3633404,3a,57.3y,146.45h,95.89t/data=!3m6!1e1!3m4!1srZIFRU3Q2-CuU1MxmNGnHw!2e0!7i13312!8i6656
kt113-old-plough;;;;51.3208048238;-0.3864593817;open;;Old Plough;2 Station Road;Stoke D'Abernon;Cobham;Surrey;KT11 3BN;;https://photos.francisfrith.com/frith/cobham-station-road-1904_53085.jpg|https://whatpub.com/img/KIN/7038/old-plough-stoke-dabernon/298/224/42535;https://whatpub.com/pubs/KIN/7038/old-plough-stoke-dabernon;;https://www.google.co.uk/maps/@51.3206335,-0.3864253,3a,50.1y,361.29h,89.14t/data=!3m6!1e1!3m4!1sTXaJCsJYJY5DatPLsgb-uA!2e0!7i13312!8i6656
kt113-cricketers;;;;51.3119834362;-0.4108393206;open;;Cricketers;Downside Common, Downside Road;Downside;Cobham;Surrey;KT11 3NX;;https://whatpub.com/img/KIN/6943/cricketers-downside/298/224/22182;https://whatpub.com/pubs/KIN/6943/cricketers-downside;;
kt113-harrow;;;;;;bone;after 1903;Harrow  ;;Downside ;Cobham;Surrey;;;;http://www.closedpubs.co.uk/surrey/cobham_harrow.html;;
kt113-plough;;;;51.3217007821;-0.4125304534;open;;Plough;Plough Lane;Downside;Cobham;Surrey;KT11 3LT;;https://whatpub.com/img/KIN/7050/plough-downside/298/224/22183;https://whatpub.com/pubs/KIN/7050/plough-downside;;https://www.google.co.uk/maps/@51.3218979,-0.4122748,3a,49.2y,220.97h,95.48t/data=!3m6!1e1!3m4!1sx81d0EywBWV9No6AvHWEiA!2e0!7i13312!8i6656
kt113-running-mare;;;;51.3245595178;-0.4014931633;open;;Running Mare;45 Tilt Road;;Cobham;Surrey;KT11 3EZ;;https://whatpub.com/img/KIN/7085/running-mare-cobham/298/224/42841;https://whatpub.com/pubs/KIN/7085/running-mare-cobham;;https://www.google.co.uk/maps/@51.3246824,-0.4013756,3a,75y,210.36h,93.21t/data=!3m6!1e1!3m4!1slf23SeLmrSiTR0SOHZhxYQ!2e0!7i13312!8i6656
kt113-old-bear;;;;51.3271013047;-0.4092635228;open;;Old Bear;Riverhill;;Cobham;Surrey;KT11 3DX;;https://whatpub.com/img/KIN/7033/old-bear-cobham/298/224/42840;https://whatpub.com/pubs/KIN/7033/old-bear-cobham;;https://www.google.co.uk/maps/@51.3269248,-0.409318,3a,60.1y,15.67h,90.69t/data=!3m7!1e1!3m5!1shdLOOW-vNyUQ78r3pAM9tg!2e0!6s%2F%2Fgeo2.ggpht.com%2Fcbk%3Fpanoid%3DhdLOOW-vNyUQ78r3pAM9tg%26output%3Dthumbnail%26cb_client%3Dmaps_sv.tactile.gps%26thumb%3D2%26w%3D203%26h%3D100%26yaw%3D87.66954%26pitch%3D0%26thumbfov%3D100!7i13312!8i6656
kt113-cedar-house;;bar;;51.32802;-0.40602;dead;;Cedar House Riverside Grill;Mill Road;;Cobham;Surrey;KT11 3AL;;https://whatpub.com/img/KIN/6933/cedar-house-riverside-grill-cobham/298/224/42837;https://whatpub.com/pubs/KIN/6933/cedar-house-riverside-grill-cobham;;
kt113-crown-inn;;;;51.3272;-0.4098;bone;c1913;Crown Inn ;High Street;;Cobham;Surrey;;;https://i.pinimg.com/564x/2b/88/cc/2b88ccaa10074ed4fa67c969d64dbec0.jpg;http://www.closedpubs.co.uk/surrey/cobham_crown.html|http://openplaques.org/plaques/8685;;
kt113-fox-hounds;;;;51.3273;-0.4101;bone;1960;Fox & Hounds ;Church Street ;;Cobham;Surrey;;;https://photos.francisfrith.com/frith/cobham-1903_49271.jpg|https://photos.francisfrith.com/frith/cobham-high-street-c1955_c131063.jpg;http://www.closedpubs.co.uk/surrey/cobham_foxhounds.html;;
kt113-white-hart;;;;;;bone;1863;White Hart ;Church Street ;;Cobham;Surrey;;;;http://www.closedpubs.co.uk/surrey/cobham_whitehart.html;;
;;;;;;;;;;;;;;;;;;
;;;;;;;;;;;;;;;;;;
kt11-waggon-horses;;;;;;bone;after 1925;Waggon & Horses ;;;Cobham;Surrey;;;;;;
;;;;;;;;;;;;;;;;;;
;;;;;;;;;;;;;;;;;;
;;;;;;;;;;;;;;;;;;
;;;;;;;;;;;;;;;;;;
;;;;;;;;;;;;;;;;;;
;;;;;;;;;;;;;;;;;;
;;;;;;;;;;;;;;;;;;
;;;;;;;;;;;;;;;;;;
kt171-rifleman;;;;51.33482;-0.26424;open;;Rifleman;5 East Street ;;Epsom;Surrey;KT17 1BB ;;https://whatpub.com/img/KIN/7072/rifleman-epsom/298/224/83283;https://whatpub.com/pubs/KIN/7072/rifleman-epsom;;https://www.google.co.uk/maps/@51.334704,-0.2641956,3a,90y,351.01h,92.16t/data=!3m6!1e1!3m4!1sa5PiLB57BUA8FFTJHOZC8w!2e0!7i13312!8i6656
kt171-locomotive;;;;51.33726;-0.25941;limbo;;Bar XLR;79 East Street ;;Epsom;Surrey;KT17 1DT ;Locomotive|Common Room|Bear’s|Friends|Vibe;https://whatpub.com/img/KIN/7109/bar-xlr-epsom/298/224/31544;https://whatpub.com/pubs/KIN/7109/bar-xlr-epsom;;https://www.google.co.uk/maps/@51.3371772,-0.2592914,3a,75y,292.74h,89.2t/data=!3m6!1e1!3m4!1sLjzvX21iHU7Zxm6FllYRDQ!2e0!7i13312!8i6656
kt171-kings-arms;;;;51.33823;-0.25765;limbo;;King's Arms;144 East Street ;;Epsom;Surrey;KT17 1EY ;;https://whatpub.com/img/KIN/7001/kings-arms-epsom/298/224/52616;https://whatpub.com/pubs/KIN/7001/kings-arms-epsom;;https://www.google.co.uk/maps/@51.3382692,-0.2577402,3a,90y,153.93h,90.59t/data=!3m6!1e1!3m4!1svCHmTWra9HraGzG8Y11bDg!2e0!7i13312!8i6656
kt171-stir;;bar;;51.33472;-0.26381;open;;Stir;4 East Street ;;Epsom;Surrey;KT17 1HH ;;https://whatpub.com/img/KIN/12468/stir-epsom/298/224/83284;https://whatpub.com/pubs/KIN/12468/stir-epsom;;https://www.google.co.uk/maps/@51.3347306,-0.2640025,3a,75y,100.24h,88.33t/data=!3m6!1e1!3m4!1sMhtUvErMkpp8tlmAFwAsrg!2e0!7i13312!8i6656
kt171-glyn-arms;;;;51.34625;-0.24069;open;;Toby Carvery;45 Cheam Road ;Ewell ;Epsom;Surrey;KT17 1QZ ;Glyn Arms;https://whatpub.com/img/KIN/7107/toby-carvery-ewell/298/224/22096;https://whatpub.com/pubs/KIN/7107/toby-carvery-ewell;;https://www.google.co.uk/maps/@51.3461316,-0.2409036,3a,90y,42.89h,91.79t/data=!3m6!1e1!3m4!1s-ux49V5fZtdCrkgXLElWeg!2e0!7i13312!8i6656
kt171-green-man;;;;51.34764;-0.24968;open;;Famous Green Man;71 High Street ;Ewell ;Epsom;Surrey;KT17 1RX ;;https://whatpub.com/img/KIN/6965/famous-green-man-ewell/298/224/22653;https://whatpub.com/pubs/KIN/6965/famous-green-man-ewell;;https://www.google.co.uk/maps/@51.3476641,-0.249863,3a,90y,147.04h,92t/data=!3m6!1e1!3m4!1sY2eqcJwzugM5tUAEA7YNPQ!2e0!7i13312!8i6656
kt171-star;;;;51.34898;-0.24891;limbo;;Star;2 Cheam Road ;Ewell ;Epsom;Surrey;KT17 1SA ;After Hours|Pipps|Marbles|Loose Box;https://whatpub.com/img/KIN/7098/star-ewell/298/224/22657;https://whatpub.com/pubs/KIN/7098/star-ewell;;https://www.google.co.uk/maps/@51.3490627,-0.2490194,3a,75y,177.68h,86.56t/data=!3m7!1e1!3m5!1s72jKZIfzwp9bmNOed3fcgg!2e0!5s20091001T000000!7i13312!8i6656
kt171-king-william-iv;;;;51.349432;-0.249073;dead;;King William IV;17 High Street ;Ewell ;Epsom;Surrey;KT17 1SB ;;https://whatpub.com/img/KIN/6998/king-william-iv-ewell/298/224/22654;https://whatpub.com/pubs/KIN/6998/king-william-iv-ewell;;https://www.google.co.uk/maps/@51.3493752,-0.249217,3a,84y,60.01h,86.47t/data=!3m6!1e1!3m4!1sBweV7ZrvuDU5AJmsdk6FWg!2e0!7i13312!8i6656
;;;;;;;;;;;;;;;;;;
kt172-wheatsheaf;;;;51.35224;-0.2508;open;;Wheatsheaf;34 Kingston Road ;Ewell ;Epsom;Surrey;KT17 2AA ;;https://whatpub.com/img/KIN/7117/wheatsheaf-ewell/298/224/83252;https://whatpub.com/pubs/KIN/7117/wheatsheaf-ewell;;https://www.google.co.uk/maps/@51.352203,-0.250916,3a,89.4y,76.27h,92.19t/data=!3m6!1e1!3m4!1sC5YJSMwSTd63373XS0sevQ!2e0!7i13312!8i6656
kt172-spring-tavern;;;;51.35134;-0.25026;open;;Spring Tavern;1 London Road ;Ewell ;Epsom;Surrey;KT17 2AY ;;https://whatpub.com/img/KIN/7095/spring-tavern-ewell/298/224/22656;https://whatpub.com/pubs/KIN/7095/spring-tavern-ewell;;https://www.google.co.uk/maps/@51.3511659,-0.2500257,3a,49.5y,324.3h,90.91t/data=!3m6!1e1!3m4!1s0ozSqnqLN7gs2A8MEiRtEA!2e0!7i13312!8i6656
kt172-organ-inn;;;;51.3546;-0.24568;gone;;Organ & Dragon;65 London Road ;Ewell ;Epsom;Surrey;KT17 2BL ;Organ Inn ;https://whatpub.com/img/KIN/7043/organ-dragon-ewell/298/224/26334;https://whatpub.com/pubs/KIN/7043/organ-dragon-ewell;;https://www.google.co.uk/maps/@51.3543461,-0.2456945,3a,75y,352.66h,88.69t/data=!3m7!1e1!3m5!1sdHhwasj-zLzNIg5IKlpXTw!2e0!5s20080801T000000!7i13312!8i6656
kt172-eight-bells;;;;51.35477;-0.25128;open;;Eight Bells;78 Kingston Road ;Ewell ;Epsom;Surrey;KT17 2DU ;;https://whatpub.com/img/KIN/6957/eight-bells-ewell/298/224/22094;https://whatpub.com/pubs/KIN/6957/eight-bells-ewell;;https://www.google.co.uk/maps/@51.354667,-0.2516118,3a,73.1y,69.9h,94.04t/data=!3m6!1e1!3m4!1sFvXW1vslAbxe4LmwpS3MNw!2e0!7i13312!8i6656
;;;;;;;;;;;;;;;;;;
kt173-driftbridge-hotel;;hotel;;51.326125;-0.233181;dead;2004;Driftbridge;Reigate Road ;Driftbridge;Epsom;Surrey;KT17 3JZ ;;https://whatpub.com/img/REI/114/driftbridge-drift-bridge/298/224/1;https://whatpub.com/pubs/REI/114/driftbridge-drift-bridge;;https://www.google.co.uk/maps/@51.326101,-0.23287,3a,75y,270.91h,90.39t/data=!3m7!1e1!3m5!1sF8gLMe4mdpkqithOgBhv1A!2e0!5s20160901T000000!7i13312!8i6656
kt173-omnia;;bar;;51.325228;-0.233359;dead;2006;Omnia;215 Fir Tree Road ;Driftbridge;Epsom;Surrey;KT17 3LB ;;https://whatpub.com/img/REI/115/omnia-drift-bridge/298/224/1;https://whatpub.com/pubs/REI/115/omnia-drift-bridge;;https://www.google.co.uk/maps/@51.3250374,-0.2331716,3a,50.5y,302.85h,83.35t/data=!3m6!1e1!3m4!1sK5ez8jDfYFEgtM5aANhWIw!2e0!7i13312!8i6656
;;;;;;;;;;;;;;;;;;
kt174-railway-guard;;;;51.33346;-0.25754;open;;Railway Guard;48 Church Road ;;Epsom;Surrey;KT17 4DZ ;;https://whatpub.com/img/KIN/7064/railway-guard-epsom/298/224/22108;https://whatpub.com/pubs/KIN/7064/railway-guard-epsom;;https://www.google.co.uk/maps/@51.3333418,-0.2574991,3a,90y,292.3h,85.33t/data=!3m6!1e1!3m4!1szw47felNiBtziOSepv0nXA!2e0!7i13312!8i6656
kt174-barley-mow;;;;51.33419;-0.25809;open;;Barley Mow;12 Pikes Hill ;;Epsom;Surrey;KT17 4EA ;;https://whatpub.com/img/KIN/6903/barley-mow-epsom/298/224/31542;https://whatpub.com/pubs/KIN/6903/barley-mow-epsom;;https://www.google.co.uk/maps/@51.3341463,-0.2578912,3a,75y,267.6h,92.08t/data=!3m6!1e1!3m4!1s1MdZhZHH0Fve3g--uvCDYw!2e0!7i13312!8i6656
kt174-south-hatch;;;;51.31842;-0.24993;dead;2013;South Hatch;46 Burgh Heath Road;;Epsom;Surrey;KT17 4LX;;https://whatpub.com/img/KIN/7094/south-hatch-epsom/298/224/42526;http://www.epsomguardian.co.uk/news/10835735.Much_loved_racing_restaurant_says_emotional_goodbye_after_nearly_30_years/|https://whatpub.com/pubs/KIN/7094/south-hatch-epsom;;https://www.google.co.uk/maps/@51.3201081,-0.2509103,3a,75y,62.48h,90.8t/data=!3m6!1e1!3m4!1shmkJfG2ABM24rCYoy9j0uw!2e0!7i13312!8i6656
kt174-faraday;;bar;;51.33383;-0.26399;open;;Faraday;2 Church Street ;;Epsom;Surrey;KT17 4NY ;;https://whatpub.com/img/KIN/7108/faraday-epsom/298/224/74252;https://whatpub.com/pubs/KIN/7108/faraday-epsom;;https://www.google.co.uk/maps/@51.3338949,-0.2638747,3a,89.9y,225.32h,91.99t/data=!3m6!1e1!3m4!1sQPNrtY39irHrzi4DcULIlA!2e0!7i13312!8i6656
kt174-olde-kings-head;;;;51.33053;-0.25995;open;;Olde Kings Head;26 Church Street ;;Epsom;Surrey;KT17 4QB ;;https://whatpub.com/img/KIN/7040/olde-kings-head-epsom/298/224/31769;https://whatpub.com/pubs/KIN/7040/olde-kings-head-epsom;;https://www.google.co.uk/maps/@51.3304891,-0.2598483,3a,90y,261.94h,89.08t/data=!3m6!1e1!3m4!1sRTCrN0eG9yUQw2Pjr9UFJQ!2e0!7i13312!8i6656
kt174-lime-bar;;bar;;51.33484;-0.25964;dead;;Lime Bar;11 Upper High Street ;;Epsom;Surrey;KT17 4QY ;;https://whatpub.com/img/KIN/7010/lime-bar-epsom/298/224/47813;https://whatpub.com/pubs/KIN/7010/lime-bar-epsom;;https://www.google.co.uk/maps/@51.3341855,-0.262981,3a,75y,349.31h,88.64t/data=!3m6!1e1!3m4!1sTHjlvnYXSkTNm9gmJb1KkQ!2e0!7i13312!8i6656
;;;;;;;;;;;;;;;;;;
;;;;;;;;;;;;;;;;;;
kt185-epsom-playhouse;;bar;;51.33158;-0.27025;open;;Epsom Playhouse Bar;Ashley Avenue ;;Epsom;Surrey;KT18 5AL ;;https://whatpub.com/img/KIN/6959/epsom-playhouse-bar-epsom/298/224/31551;https://whatpub.com/pubs/KIN/6959/epsom-playhouse-bar-epsom;;https://www.google.co.uk/maps/@51.3313917,-0.269821,3a,75y,311.17h,90.91t/data=!3m6!1e1!3m4!1sEKJWbv490AzwF8Dmmh3O2g!2e0!7i13312!8i6656
kt185-rising-sun;;;;51.33085;-0.26324;open;;Rising Sun;14 Heathcote Road ;;Epsom;Surrey;KT18 5DX ;;https://whatpub.com/img/KIN/7073/rising-sun-epsom/298/224/31770;https://whatpub.com/pubs/KIN/7073/rising-sun-epsom;;https://www.google.co.uk/maps/@51.3307056,-0.2633102,3a,73.3y,9.91h,85.9t/data=!3m7!1e1!3m5!1siPP8hxDMPkHEcvNdELng9Q!2e0!5s20150801T000000!7i13312!8i6656
kt185-derby-arms;;;;51.3145720238;-0.2546435608;open;;Derby Arms;The Downs;Epsom Downs;Epsom;Surrey;KT18 5LE;;https://whatpub.com/img/KIN/6947/derby-arms-epsom-downs/298/224/22114;https://whatpub.com/pubs/KIN/6947/derby-arms-epsom-downs;;https://www.google.co.uk/maps/@51.3144669,-0.2545047,3a,75y,298.32h,87.03t/data=!3m7!1e1!3m5!1slHIWb1J9AqUwDMM_qOwZEw!2e0!5s20160901T000000!7i13312!8i6656
kt185-rubbing-house;;;;51.3131151238;-0.258286002;open;;Rubbing House;The Downs;Epsom Downs;Epsom;Surrey;KT18 5LJ;;https://whatpub.com/img/KIN/7080/rubbing-house-epsom-downs/298/224/42527;https://whatpub.com/pubs/KIN/7080/rubbing-house-epsom-downs;;https://www.google.co.uk/maps/@51.3132928,-0.257908,3a,53.7y,230.06h,91.77t/data=!3m6!1e1!3m4!1syaHC4je8S7euzKJvT4Nq5w!2e0!7i13312!8i6656
kt185-tattenham-corner;;;;51.3116766194;-0.2435982254;open;;Tattenham Corner;Tattenham Corner Road;Tattenham Corner;Epsom;Surrey;KT18 5NY;;https://whatpub.com/img/REI/153/tattenham-corner-tattenham-corner/298/224/1;https://whatpub.com/pubs/REI/153/tattenham-corner-tattenham-corner;;https://www.google.co.uk/maps/@51.3117801,-0.2443657,3a,32.2y,108.04h,93.11t/data=!3m6!1e1!3m4!1sfLZLUkoc3c2DZN0oxnaEZg!2e0!7i13312!8i6656
kt185-wine-rack;;bar;;51.309779;-0.240552;open;;Wine Rack;29-31 Tattenham Crescent;Tattenham Corner;Epsom;Surrey;KT18 5QJ;;;https://whatpub.com/pubs/REI/512/wine-rack-tattenham-corner;;https://www.google.co.uk/maps/@51.3097419,-0.2405153,3a,89.2y,347.33h,90.93t/data=!3m6!1e1!3m4!1s2gJJxp7yr-lvKxSdcxYu2w!2e0!7i13312!8i6656
;;;;;;;;;;;;;;;;;;
kt186-cock;;;;51.2797203065;-0.2744932486;open;;Cock;Church Lane;Headley;Epsom;Surrey;KT18 6LE;Headley Hills|Cock Horse;https://whatpub.com/img/KIN/6939/cock-inn-headley/298/224/88284;https://whatpub.com/pubs/KIN/6939/cock-inn-headley;;https://www.google.co.uk/maps/@51.2798288,-0.2747511,3a,75y,118.39h,95.8t/data=!3m6!1e1!3m4!1sDPaP2b8mN3N4Ukqx03bpYQ!2e0!7i13312!8i6656
kt186-clermont;;;;51.2750785175;-0.2768790776;bone;1958;Clermont ;Tot Hill ;Headley;Epsom;Surrey;;;http://www.headleysurrey.org.uk/pichh/cmont1.jpg;http://www.closedpubs.co.uk/surrey/headley_clermont.html;;https://www.google.co.uk/maps/@51.2752742,-0.2765196,3a,89.9y,230.17h,83.24t/data=!3m6!1e1!3m4!1seXq7kRxgQwPk8dJv5es4ZQ!2e0!7i13312!8i6656
;;;;;;;;;;;;;;;;;;
kt187-amato;;;;51.32445;-0.26836;open;;Amato;18 Chalk Lane;;Epsom;Surrey;KT18 7AS;;https://whatpub.com/img/KIN/6891/amato-epsom/298/224/22000475;https://whatpub.com/pubs/KIN/6891/amato-epsom;;https://www.google.co.uk/maps/@51.3243657,-0.2680897,3a,75y,280h,93.19t/data=!3m6!1e1!3m4!1sJyMd2ZqeW8vvE6_JLOXGYA!2e0!7i13312!8i6656
kt187-white-horse;;;;51.32616;-0.27461;dead;2014;White Horse;63 Dorking Road;;Epsom;Surrey;KT18 7JU;;https://whatpub.com/img/KIN/7119/white-horse-epsom/298/224/22113;https://whatpub.com/pubs/KIN/7119/white-horse-epsom;;https://www.google.co.uk/maps/@51.3262079,-0.2748667,3a,56.1y,107.49h,87.87t/data=!3m6!1e1!3m4!1solw9HTLbFIHLrcjNF2VS_w!2e0!7i13312!8i6656
kt187-haywain;;;;51.32854;-0.27137;open;;Haywain;2-4 St Margarets Drive, Dorking Road;;Epsom;Surrey;KT18 7LB;;https://whatpub.com/img/KIN/6989/haywain-epsom/298/224/22105;https://whatpub.com/pubs/KIN/6989/haywain-epsom;;https://www.google.co.uk/maps/@51.3284219,-0.2711235,3a,75y,286.72h,88.53t/data=!3m6!1e1!3m4!1syZsdWApAybylOxGf6lTe_Q!2e0!7i13312!8i6656
kt187-magpie;;;;51.33213;-0.27094;open;;Acorn 30;30 South Street ;;Epsom;Surrey;KT18 7PF ;Magpie|Symonds Wells;https://whatpub.com/img/KIN/7105/acorn-30-epsom/298/224/22647;https://whatpub.com/pubs/KIN/7105/acorn-30-epsom;;https://www.google.co.uk/maps/@51.332344,-0.2706342,3a,45.5y,216.87h,94.7t/data=!3m6!1e1!3m4!1sRpaj7zLqrsiGE8o_Uv-dWg!2e0!7i13312!8i6656
kt187-ladas;;;;51.32546;-0.26962;gone;2012;Ladas;Woodcote Road;;Epsom;Surrey;KT18 7QS;;https://whatpub.com/img/KIN/7006/ladas-epsom/298/224/22107;https://whatpub.com/pubs/KIN/7006/ladas-epsom;;https://www.google.co.uk/maps/@51.3253301,-0.2697212,3a,75y,50.67h,91.88t/data=!3m6!1e1!3m4!1sQtIOKbmWCCDPd32E4T2E8g!2e0!7i13312!8i6656
kt187-marquis-granby;;;;51.3332;-0.27062;open;;Marquis of Granby;4 West Street ;;Epsom;Surrey;KT18 7RG ;;https://whatpub.com/img/KIN/7017/marquis-of-granby-epsom/298/224/22001554;https://whatpub.com/pubs/KIN/7017/marquis-of-granby-epsom;;https://www.google.co.uk/maps/@51.3329737,-0.2707894,3a,54.8y,24.13h,92.86t/data=!3m6!1e1!3m4!1sXlQjwPIk1p1CtGp-HOnq6w!2e0!7i13312!8i6656
kt187-jolly-coopers;;;;51.33085;-0.28147;open;;Jolly Coopers;84 Wheelers Lane ;;Epsom;Surrey;KT18 7SD ;;https://whatpub.com/img/KIN/6995/jolly-coopers-epsom/298/224/89561;https://whatpub.com/pubs/KIN/6995/jolly-coopers-epsom;;https://www.google.co.uk/maps/@51.3311739,-0.2819361,3a,75y,52.49h,85.57t/data=!3m6!1e1!3m4!1sy_7ijT26vbwUb0GfTTZQlQ!2e0!7i13312!8i6656
kt187-cricketers;;;;51.33328;-0.28195;open;;Cricketers;1 Stamford Green Road ;;Epsom;Surrey;KT18 7SR ;;https://whatpub.com/img/KIN/6945/cricketers-epsom/298/224/26326;https://whatpub.com/pubs/KIN/6945/cricketers-epsom;;https://www.google.co.uk/maps/@51.333531,-0.2823921,3a,56.8y,138.22h,97.41t/data=!3m6!1e1!3m4!1sFeXcJjPvSQkfbtY5lduRlw!2e0!7i13312!8i6656
;;;;;;;;;;;;;;;;;;
;;;;;;;;;;;;;;;;;;
kt198-slug-lettuce;;;;51.33421;-0.26598;open;;Slug & Lettuce;10 Derby Square ;;Epsom;Surrey;KT19 8AX ;;https://whatpub.com/img/KIN/7091/slug-lettuce-epsom/298/224/22110;https://whatpub.com/pubs/KIN/7091/slug-lettuce-epsom;;https://www.google.co.uk/maps/@51.3341726,-0.2662249,3a,90y,220.28h,86.01t/data=!3m6!1e1!3m4!1sA_5tsZ8SZI-AcT9IV68FBA!2e0!7i13312!8i6656
kt198-boogie-lounge;;bar;;51.3336;-0.2673;open;;Boogie Lounge;1a Waterloo Road ;;Epsom;Surrey;KT19 8AY ;Legends|Po-Na-Na;https://whatpub.com/img/KIN/6917/boogie-lounge-epsom/298/224/31545;https://whatpub.com/pubs/KIN/6917/boogie-lounge-epsom;;https://www.google.co.uk/maps/@51.3335941,-0.2672217,3a,75y,254.76h,85.26t/data=!3m7!1e1!3m5!1sN_2XmSTCd9dhljkmsE2VYA!2e0!5s20150701T000000!7i13312!8i6656
kt198-cafe-rouge;;bar;;51.33327;-0.26904;open;;Cafe Rouge;96-98 High Street ;;Epsom;Surrey;KT19 8BJ ;;https://whatpub.com/img/KIN/6926/cafe-rouge-epsom/298/224/22649;https://whatpub.com/pubs/KIN/6926/cafe-rouge-epsom;;https://www.google.co.uk/maps/@51.3331448,-0.2689507,3a,49.5y,320.77h,94.61t/data=!3m7!1e1!3m5!1sPqBqoi3ZB_XQgaGQrX2nCQ!2e0!5s20150701T000000!7i13312!8i6656
kt198-albion;;;;51.33284;-0.27063;open;;Albion;134 High Street ;;Epsom;Surrey;KT19 8BT ;;https://whatpub.com/img/KIN/6887/albion-epsom/298/224/74251;https://whatpub.com/pubs/KIN/6887/albion-epsom;;https://www.google.co.uk/maps/@51.3326836,-0.2705188,3a,75y,285.2h,93.05t/data=!3m6!1e1!3m4!1sYRoGJd2kCEITWyznXvlCnQ!2e0!7i13312!8i6656
kt198-assembly-rooms;;;;51.33274;-0.26992;open;;Assembly Rooms;147-153 High Street ;;Epsom;Surrey;KT19 8EH ;;https://whatpub.com/img/KIN/6899/assembly-rooms-epsom/298/224/22101;https://whatpub.com/pubs/KIN/6899/assembly-rooms-epsom;;https://www.google.co.uk/maps/@51.3329216,-0.2700426,3a,75y,171.76h,88.82t/data=!3m6!1e1!3m4!1sSf4OCJabA85WkcmSf6HI6A!2e0!7i13312!8i6656
;;;;;;;;;;;;;;;;;;
kt198-horton-park;;bar;;51.35594;-0.27551;open;;Horton Park Golf Club;Hook Road, West Ewell ;;Epsom;Surrey;KT19 8QG ;;https://whatpub.com/img/KIN/6993/horton-park-golf-club-ewell/298/224/22095;https://whatpub.com/pubs/KIN/6993/horton-park-golf-club-ewell;;https://www.google.co.uk/maps/@51.3560505,-0.2752914,3a,85.1y,242.29h,89.81t/data=!3m7!1e1!3m5!1snOkgIT01KGcfm9pvX_N4Bw!2e0!6s%2F%2Fgeo0.ggpht.com%2Fcbk%3Fpanoid%3DnOkgIT01KGcfm9pvX_N4Bw%26output%3Dthumbnail%26cb_client%3Dmaps_sv.tactile.gps%26thumb%3D2%26w%3D203%26h%3D100%26yaw%3D272.87784%26pitch%3D0%26thumbfov%3D100!7i13312!8i6656
kt198-blenheim;;;;51.340554;-0.271293;open;;Blenheim Arms;7 Manor Green Road ;;Epsom;Surrey;KT19 8RA ;Blenheim|GGs;https://whatpub.com/img/KIN/6914/blenheim-arms-epsom/298/224/22103;https://whatpub.com/pubs/KIN/6914/blenheim-arms-epsom;;https://www.google.co.uk/maps/@51.3407683,-0.2713943,3a,49.5y,164.43h,91.08t/data=!3m6!1e1!3m4!1sx3oBh7bLC4olUNYuyo5Biw!2e0!7i13312!8i6656
;;;;;;;;;;;;;;;;;;
kt199-kingfisher;;;;51.36297;-0.27653;dead;;Kingfisher;Ruxley Lane ;Ewell ;Epsom;Surrey;KT19 9JS ;;https://whatpub.com/img/KIN/7000/kingfisher-ewell/298/224/26332;https://whatpub.com/pubs/KIN/7000/kingfisher-ewell;;https://www.google.co.uk/maps/@51.3625744,-0.2764202,3a,45.3y,344.44h,92.76t/data=!3m6!1e1!3m4!1sAMScgrXmNlHSg1r8EAr_kg!2e0!7i13312!8i6656
kt199-sefton-arms;;;;51.3475;-0.266;gone;2008;Sefton Arms;Sefton Road ;;Epsom;Surrey;KT19 9JZ ;;https://whatpub.com/img/KIN/7087/sefton-arms-epsom/298/224/63075;https://whatpub.com/pubs/KIN/7087/sefton-arms-epsom;;https://www.google.co.uk/maps/@51.3470901,-0.2660951,3a,75y,346.89h,81.52t/data=!3m6!1e1!3m4!1sZFPkgqoe6nPFhMSJAFwG0Q!2e0!7i13312!8i6656
;;;;;;;;;;;;;;;;;;
;;;;;;;;;;;;;;;;;;
kt205-blue-anchor;;;;51.286552526;-0.2286261334;open;;Blue Anchor;Dorking Road;;Tadworth;Surrey;KT20 5SL;;https://whatpub.com/img/REI/367/blue-anchor-tadworth/298/224/1;https://whatpub.com/pubs/REI/367/blue-anchor-tadworth;;https://www.google.co.uk/maps/@51.2862912,-0.2282448,3a,28.1y,316.69h,95.41t/data=!3m6!1e1!3m4!1s477NkTBa2DCONS2ZcZt4JQ!2e0!7i13312!8i6656
kt205-dukes-head;;;;51.2872889526;-0.2278845026;open;;Duke's Head;Dorking Road;;Tadworth;Surrey;KT20 5SL;;https://whatpub.com/img/REI/368/dukes-head-tadworth/298/224/1;https://whatpub.com/pubs/REI/368/dukes-head-tadworth;;https://www.google.co.uk/maps/@51.2870795,-0.2276488,3a,50.7y,337.35h,86.8t/data=!3m6!1e1!3m4!1sTbUlKF0p3-jWufPUZI3JWQ!2e0!7i13312!8i6656
kt205-bricklayers-arms;;;;51.2909046525;-0.2261142446;open;;Inn on the Green;Dorking Road;;Tadworth;Surrey;KT20 5RX;Bricklayer's Arms|Tumble Beacon;https://whatpub.com/img/REI/369/inn-on-the-green-tadworth/298/224/1;https://whatpub.com/pubs/REI/369/inn-on-the-green-tadworth;;https://www.google.co.uk/maps/@51.290972,-0.2257829,3a,53.5y,257.4h,91.73t/data=!3m6!1e1!3m4!1sjPiAeMlOVccxfkiuU1wIMg!2e0!7i13312!8i6656
kt205-surrey-yeoman;;;;51.3064268693;-0.2204722193;gone;late 1990s;Surrey Yeoman;Reigate Road;Burgh Heath;Tadworth;Surrey;KT20 5NT;;http://theoldhometown.com.s3.amazonaws.com/bansteadvillage.com/217.jpg;https://whatpub.com/pubs/REI/36/surrey-yeoman-burgh-heath;;https://www.google.co.uk/maps/@51.3063236,-0.2206465,3a,90y,55.71h,89.18t/data=!3m6!1e1!3m4!1sHmsvENyr-BNq4EJfyyRkwA!2e0!7i13312!8i6656
kt205-sheepshearers-arms;;;;51.3060638405;-0.2215129151;bone;1969;Sheepshearer’s Arms ;Reigate Road;Burgh Heath;Tadworth;Surrey;;;http://www.surreymirror.co.uk/images/localworld/ugc-images/275797/Article/images/19474856/5017830-large.jpg|/img/pub/burgh-heath-sheepshearers-arms.jpg;http://www.closedpubs.co.uk/surrey/burghheath_sheepshearersarms.html;;https://www.google.co.uk/maps/@51.3064166,-0.2208167,3a,15y,233.56h,92.35t/data=!3m7!1e1!3m5!1s6w13Hyy1XqnRdLrOWdk19A!2e0!6s%2F%2Fgeo3.ggpht.com%2Fcbk%3Fpanoid%3D6w13Hyy1XqnRdLrOWdk19A%26output%3Dthumbnail%26cb_client%3Dmaps_sv.tactile.gps%26thumb%3D2%26w%3D203%26h%3D100%26yaw%3D319.91595%26pitch%3D0%26thumbfov%3D100!7i13312!8i6656
;;;;;;;;;;;;;;;;;;
kt206-heathside;;bar;;51.3040038333;-0.219459684;open;;Heathside;Brighton Road;Burgh Heath;Tadworth;Surrey;KT20 6BW;;https://whatpub.com/img/REI/35/heathside-burgh-heath/298/224/1;https://whatpub.com/pubs/REI/35/heathside-burgh-heath;;https://www.google.co.uk/maps/@51.3042037,-0.2198354,3a,88.2y,127.71h,94.09t/data=!3m6!1e1!3m4!1sBD855XtxbnsTFwEHXb56Vw!2e0!7i13312!8i6656
kt206-kingswood-arms;;;;51.2949636934;-0.2126428498;open;;Kingswood Arms;Waterhouse Lane;Kingswood;Tadworth;Surrey;KT20 6EB;;https://whatpub.com/img/REI/217/kingswood-arms-kingswood/298/224/1000001;https://whatpub.com/pubs/REI/217/kingswood-arms-kingswood;;https://www.google.co.uk/maps/@51.2948533,-0.2125947,3a,90y,349.5h,95.15t/data=!3m6!1e1!3m4!1s-1zDupSeiyiJYn5onzNFKA!2e0!7i13312!8i6656
kt206-fox;;;;51.2699202322;-0.2111636116;open;;Fox on the Hill;Brighton Road;Lower Kingswood;Tadworth;Surrey;KT20 6SU;Fox Hotel|Fox ;https://whatpub.com/img/REI/242/fox-on-the-hill-lower-kingswood/298/224/1;https://whatpub.com/pubs/REI/242/fox-on-the-hill-lower-kingswood;;https://www.google.co.uk/maps/@51.2698678,-0.2113305,3a,90y,71.42h,91.92t/data=!3m6!1e1!3m4!1sXGWTQp2d3tHZLhMtAQn3Kw!2e0!7i13312!8i6656
;;;;;;;;;;;;;;;;;;
kt207-mint-arms;;;;51.2642998305;-0.2132208659;gone;2005;Mint Arms;83 Buckland Road;Lower Kingswood;Tadworth;Surrey;KT20 7EF;;https://whatpub.com/img/REI/243/mint-arms-lower-kingswood/298/224/1;https://whatpub.com/pubs/REI/243/mint-arms-lower-kingswood;;https://www.google.co.uk/maps/@51.2645415,-0.2133211,3a,75y,157.67h,97.84t/data=!3m7!1e1!3m5!1sEClDEQozomC3khQvVU6TlQ!2e0!5s20120901T000000!7i13312!8i6656
kt207-sportsman;;;;51.2641613676;-0.2243882431;open;;Sportsman;Mogador Road;Mogador;Tadworth;Surrey;KT20 7ES;;https://whatpub.com/img/REI/253/sportsman-mogador/298/224/1;https://whatpub.com/pubs/REI/253/sportsman-mogador;;https://www.google.co.uk/maps/@51.2640785,-0.2244762,3a,75y,41.81h,88.15t/data=!3m6!1e1!3m4!1soiHP_oegN4chcI0_pC3nWg!2e0!7i13312!8i6656
kt207-chequers;;;;51.2808804714;-0.2491986765;open;;Chequers;Chequers Lane;Walton-on-the- Hill;Tadworth;Surrey;KT20 7SF;;https://whatpub.com/img/REI/377/chequers-walton-on-the--hill/298/224/1000001;https://whatpub.com/pubs/REI/377/chequers-walton-on-the--hill;;https://www.google.co.uk/maps/@51.280879,-0.249492,3a,75y,90.27h,95.1t/data=!3m6!1e1!3m4!1sISPv9sD_iyHvqmnzZV69BA!2e0!7i13312!8i6656
kt207-fox-hound;;;;51.2831361239;-0.2460296466;open;;Fox & Hounds;Walton Street;Walton-on-the- Hill;Tadworth;Surrey;KT20 7RU;;https://whatpub.com/img/REI/378/fox-hounds-walton-on-the--hill/298/224/1;https://whatpub.com/pubs/REI/378/fox-hounds-walton-on-the--hill;;https://www.google.co.uk/maps/@51.2830729,-0.2458681,3a,75y,310.47h,87.14t/data=!3m6!1e1!3m4!1seOVMJSwyIYF7ANHDsOdx2Q!2e0!7i13312!8i6656
kt207-blue-ball;;;;51.2834741686;-0.2411359562;open;;Blue Ball;Deans Lane;Walton-on-the- Hill;Tadworth;Surrey;KT20 7UE;;https://whatpub.com/img/REI/376/blue-ball-walton-on-the--hill/298/224/1;https://whatpub.com/pubs/REI/376/blue-ball-walton-on-the--hill;;https://www.google.co.uk/maps/@51.2836223,-0.2409512,3a,75y,220.85h,88.93t/data=!3m6!1e1!3m4!1sj-IYj66h-W4sZw9mivsB_g!2e0!7i13312!8i6656
kt207-bell;;;;51.2872705001;-0.2423898889;open;;Bell;Withybed Corner;Walton-on-the- Hill;Tadworth;Surrey;KT20 7UJ;;https://whatpub.com/img/REI/375/bell-walton-on-the--hill/298/224/1;https://whatpub.com/pubs/REI/375/bell-walton-on-the--hill;;
kt207-hand-in-hand;;;;51.2543630106;-0.2776689841;open;;Tree on Box Hill;Boxhill Road;Boxhill;Tadworth;Surrey;KT20 7PS;Hand in Hand ;https://whatpub.com/img/REI/29/tree-on-box-hill-boxhill/298/224/1;https://whatpub.com/pubs/REI/29/tree-on-box-hill-boxhill;;https://www.google.co.uk/maps/@51.2541397,-0.2775382,3a,58.4y,348.44h,93.03t/data=!3m6!1e1!3m4!1s3i9md1wr9Myl7lK9zMUQ8w!2e0!7i13312!8i6656
;;;;;;;;;;;;;;;;;;
;;;;;;;;;;;;;;;;;;
kt211-leg-mutton-cauliflower;;;;51.3091532584;-0.2996657796;open;;Leg of Mutton & Cauliflower;48 The Street;;Ashtead;Surrey;KT21 1AZ;;https://whatpub.com/img/KIN/7009/leg-of-mutton-cauliflower-ashtead/298/224/1999823;https://whatpub.com/pubs/KIN/7009/leg-of-mutton-cauliflower-ashtead;;https://www.google.co.uk/maps/@51.3092343,-0.2998574,3a,52.3y,106.99h,90.7t/data=!3m6!1e1!3m4!1sXKZ1B_jgwtc3PkbrKJEbOg!2e0!7i13312!8i6656
kt212-brewery-inn;;;;51.309377097;-0.2999930091;open;;Brewery Inn;15 The Street;;Ashtead;Surrey;KT21 2AD;;https://whatpub.com/img/KIN/6920/brewery-inn-ashtead/298/224/22642;https://whatpub.com/pubs/KIN/6920/brewery-inn-ashtead;;https://www.google.co.uk/maps/@51.3093157,-0.2997029,3a,33.4y,289.66h,90.47t/data=!3m6!1e1!3m4!1sHvrpYaz-XLFvndWg4re55Q!2e0!7i13312!8i6656
kt212-woodman;;;;51.3143012684;-0.307991357;open;;Woodman;238 Barnett Wood Lane;;Ashtead;Surrey;KT21 2DA;;https://whatpub.com/img/KIN/7125/woodman-ashtead/298/224/26153;https://whatpub.com/pubs/KIN/7125/woodman-ashtead;;https://www.google.co.uk/maps/@51.3145381,-0.3080118,3a,43.9y,184.04h,91.98t/data=!3m6!1e1!3m4!1ssSYgPC4zyBrbInmoRALtEw!2e0!7i13312!8i6656
;;;;;;;;;;;;;;;;;;
;;;;;;;;;;;;;;;;;;
kt220-star;;;;51.3268163768;-0.327664019;open;;Star;Leatherhead Road;Leatherhead Common;Leatherhead;Surrey;KT22 0DP;;https://whatpub.com/img/KIN/7097/star-leatherhead-common/298/224/26335;https://whatpub.com/pubs/KIN/7097/star-leatherhead-common;;https://www.google.co.uk/maps/@51.3266965,-0.3274663,3a,75y,322.42h,84.96t/data=!3m6!1e1!3m4!1so6gkTWGxQwzCzUX-z80AfA!2e0!7i13312!8i6656
kt220-bear;;;;51.3281722825;-0.3548710062;open;;Bear;Leatherhead Road;Oxshott;Leatherhead;Surrey;KT22 0JE;;https://whatpub.com/img/KIN/6906/bear-oxshott/298/224/22186;https://whatpub.com/pubs/KIN/6906/bear-oxshott;;https://www.google.co.uk/maps/@51.3280883,-0.3545043,3a,51.3y,289.72h,95.09t/data=!3m6!1e1!3m4!1s9Nm5QupBMp_v4fgoH98lBg!2e0!7i13312!8i6656
kt220-victoria;;;;51.3318580814;-0.3564199812;open;;Victoria;High Street;Oxshott;Leatherhead;Surrey;KT22 0JR;;https://whatpub.com/img/KIN/7110/victoria-oxshott/298/224/2005679;https://whatpub.com/pubs/KIN/7110/victoria-oxshott;;https://www.google.co.uk/maps/@51.3316772,-0.3563529,3a,75y,5.28h,101.46t/data=!3m6!1e1!3m4!1sIQMUGZAnKHZy7yumNUzf2g!2e0!7i13312!8i6656
;;;;;;;;;;;;;;;;;;
kt227-penny-black;;;;51.2954811115;-0.330153109;open;;Penny Black;5 North Street;;Leatherhead;Surrey;KT22 7AX;;https://whatpub.com/img/KIN/7047/penny-black-leatherhead/298/224/52618;https://whatpub.com/pubs/KIN/7047/penny-black-leatherhead;;https://www.google.co.uk/maps/@51.2955743,-0.3299897,3a,75y,217.31h,90.01t/data=!3m6!1e1!3m4!1s4lTlW4eTnLY8KhShRjZZ2A!2e0!7i13312!8i6656
kt227-bull-inn;;;;51.2961704349;-0.3314861682;bone;1925;Bull Inn ;North Street ;;Leatherhead;Surrey;;;https://photos.francisfrith.com/frith/leatherhead-bull-hotel-1905_53245.jpg;http://www.closedpubs.co.uk/surrey/leatherhead_bull.html;;https://www.google.co.uk/maps/@51.296432,-0.3311698,3a,75y,47h,91.22t/data=!3m6!1e1!3m4!1sy-qq1HDULJQhTg0ohUrpmA!2e0!7i13312!8i6656
kt227-new-bull-hotel;;;;51.2957846839;-0.331612232;gone;1990s ;New Bull Hotel;41 North Street ;;Leatherhead;Surrey;;;http://legacymedia.localworld.co.uk/275797/Article/images/14984875/3483521.png;http://www.closedpubs.co.uk/surrey/leatherhead_newbull.html;;https://www.google.co.uk/maps/@51.2960393,-0.3315808,3a,75y,167.34h,91.47t/data=!3m6!1e1!3m4!1sN6FP1GJRqV4DTS0_aZzJ5w!2e0!7i13312!8i6656
kt227-royal-oak;;;;51.3086577918;-0.3325261927;gone;2017;Royal Oak;265 Kingston Road;;Leatherhead;Surrey;KT22 7PJ;;https://whatpub.com/img/KIN/7077/royal-oak-leatherhead/298/224/42531;https://whatpub.com/pubs/KIN/7077/royal-oak-leatherhead;;https://www.google.co.uk/maps/@51.3087249,-0.3322718,3a,51.5y,239.26h,91.98t/data=!3m6!1e1!3m4!1smzgc6CKDpfoZXGllFZ9UqA!2e0!7i13312!8i6656
kt227-plough;;;;51.302935645;-0.3298366083;open;;Plough;93 Kingston Road;;Leatherhead;Surrey;KT22 7SP;;https://whatpub.com/img/KIN/7049/plough-leatherhead/298/224/42530;https://whatpub.com/pubs/KIN/7049/plough-leatherhead;;https://www.google.co.uk/maps/@51.3031189,-0.3295369,3a,36.4y,223.9h,95.72t/data=!3m6!1e1!3m4!1s8gnxMSQqDVBtuo91G3RETw!2e0!7i13312!8i6656
kt227-railway-arms;;;;51.3024971272;-0.3298902525;gone;2002;Railway Arms ;85 Kingston Road ;;Leatherhead;Surrey;KT22 7SP ;;;http://www.closedpubs.co.uk/surrey/leatherhead_railwayarms.html;;https://www.google.co.uk/maps/@51.3024231,-0.329653,3a,75y,297.7h,87.07t/data=!3m6!1e1!3m4!1sSYz5Aan8vd9txAiO3mi4nQ!2e0!7i13312!8i6656
;;;;;;;;;;;;;;;;;;
kt228-edmund-tylney;;;;51.2953041669;-0.3274534656;open;;Edmund Tylney;30-34 High Street;;Leatherhead;Surrey;KT22 8AW;;https://whatpub.com/img/KIN/6956/edmund-tylney-leatherhead/298/224/40246;https://whatpub.com/pubs/KIN/6956/edmund-tylney-leatherhead;;https://www.google.co.uk/maps/@51.2954217,-0.3272702,3a,27.3y,243.84h,96.31t/data=!3m6!1e1!3m4!1sAF1QipP97jVl2ON8AdtBoDqnZwSGLvc6vleVgEf4Ks-E!2e10!7i13312!8i6656
kt228-dukes-head;;;;51.2956052239;-0.3270417465;open;;Duke’s Head;57 High Street;;Leatherhead;Surrey;KT22 8AG;;https://whatpub.com/img/KIN/6954/dukes-head-leatherhead/298/224/40245;https://whatpub.com/pubs/KIN/6954/dukes-head-leatherhead;;https://www.google.co.uk/maps/@51.2954914,-0.3269627,3a,48.1y,356.3h,101.24t/data=!3m8!1e1!3m6!1sAF1QipNd7AWTTcrg-5mHTV_TiSfRmDAWuQwQGraRATDi!2e10!3e11!6shttps:%2F%2Flh5.googleusercontent.com%2Fp%2FAF1QipNd7AWTTcrg-5mHTV_TiSfRmDAWuQwQGraRATDi%3Dw203-h100-k-no-pi-0-ya26.588015-ro-0-fo100!7i8704!8i4352
kt228-running-horse;;;;51.2944232071;-0.3320715583;open;;Running Horse;38 Bridge Street;;Leatherhead;Surrey;KT22 8BZ;;https://whatpub.com/img/KIN/7083/running-horse-leatherhead/298/224/22127;https://whatpub.com/pubs/KIN/7083/running-horse-leatherhead;;https://www.google.co.uk/maps/@51.2942948,-0.3320083,3a,75y,356.92h,92.37t/data=!3m6!1e1!3m4!1sY35jQ7gziFRHbWIwCpLxow!2e0!7i13312!8i6656
kt228-blue-bird;;bar;;51.295529751;-0.327183905;bone;;Blue Bird ;53-55 High Street ;;Leatherhead;Surrey;;;http://www.closedpubs.co.uk/surrey/pics/leatherhead_bluebird.jpg;http://www.closedpubs.co.uk/surrey/leatherhead_bluebird.html;;https://www.google.co.uk/maps/@51.2954914,-0.3269627,3a,50y,308.65h,102.75t/data=!3m8!1e1!3m6!1sAF1QipNd7AWTTcrg-5mHTV_TiSfRmDAWuQwQGraRATDi!2e10!3e11!6shttps:%2F%2Flh5.googleusercontent.com%2Fp%2FAF1QipNd7AWTTcrg-5mHTV_TiSfRmDAWuQwQGraRATDi%3Dw203-h100-k-no-pi-0-ya26.588015-ro-0-fo100!7i8704!8i4352
kt228-kings-head-1;;;;51.2952798475;-0.3278933479;bone;;King’s Head [1];High Street ;;Leatherhead;Surrey;;;https://photos.francisfrith.com/frith/leatherhead-high-street-1906_54877.jpg;http://www.closedpubs.co.uk/surrey/leatherhead_kingshead.html;;
kt228-kings-head-2;;;;51.2952647535;-0.3280797628;bone;1960s ;King’s Head [2];High Street ;;Leatherhead;Surrey;;;/img/pub/leatherhead-kings-head-2a.png;http://www.closedpubs.co.uk/surrey/leatherhead_kingshead.html;;
kt228-prince-wales;;;;51.2960563871;-0.3282889751;gone;1980s;Prince of Wales ;Lower Fairfield Road ;;Leatherhead;Surrey;;;https://i.pinimg.com/originals/1b/6b/e6/1b6be6c778cdc0aaf34f4ba9bc8f646e.jpg|/img/pub/leatherhead-prince-of-wales-a.png;;;
kt228-swan-hotel;;;;51.2952865571;-0.3294879225;bone;1930s;Swan Hotel ;High Street ;;Leatherhead;Surrey;;;https://photos.francisfrith.com/frith/leatherhead-bridge-street-the-swan-hotel-1888_21342.jpg|http://www.leatherheadlocalhistory.org.uk/Leatherhead%20High%20Street.jpg;http://www.closedpubs.co.uk/surrey/leatherhead_swan.html;;https://www.google.co.uk/maps/@51.2951368,-0.3298119,3a,75y,45.29h,96.11t/data=!3m6!1e1!3m4!1s5_8glVsa7U2aSFv5JpJrkg!2e0!7i13312!8i6656
;;;;;;;;;;;;;;;;;;
kt229-rising-sun-1;;;;51.2917424889;-0.3376123336;bone;1930s;Rising Sun [1];Guildford Road ;;Leatherhead;Surrey;;;http://www.closedpubs.co.uk/surrey/pics/fetcham_risingsun.jpg|/img/pub/leatherhead-rising-sun-1a.png|https://photos.francisfrith.com/frith/leatherhead-fetcham-road-1906_54884.jpg;http://www.closedpubs.co.uk/surrey/fetcham_risingsun.html;;https://www.google.co.uk/maps/@51.2914851,-0.3375755,3a,41.5y,352.23h,91.67t/data=!3m6!1e1!3m4!1s9q0eUKN1BnelI5LRZdSclA!2e0!7i13312!8i6656
kt229-rising-sun-2;;;;51.2914120531;-0.3385806111;gone;1990s ;Rising Sun [2];Guildford Road ;;Leatherhead;Surrey;KT22 9DJ ;;https://photos.francisfrith.com/frith/leatherhead-rising-sun-c1965_l26096.jpg;http://www.closedpubs.co.uk/surrey/fetcham_risingsun2.html;;https://www.google.co.uk/maps/@51.2916695,-0.3381839,3a,78.2y,219.91h,96.55t/data=!3m6!1e1!3m4!1sioRalikPf4LRsculLIA3Gw!2e0!7i13312!8i6656
kt229-bell;;;;51.2911319348;-0.3548602773;open;;Bell;Bell Lane;Fetcham;Leatherhead;Surrey;KT22 9ND;;https://whatpub.com/img/KIN/6908/bell-fetcham/298/224/22121;https://whatpub.com/pubs/KIN/6908/bell-fetcham;;https://www.google.co.uk/maps/@51.2913157,-0.3546588,3a,47.5y,208.95h,96.71t/data=!3m6!1e1!3m4!1sNtUQ3Y9J9rRrvUVfbwHoGw!2e0!7i13312!8i6656
;;;;;;;;;;;;;;;;;;
;;;;;;;;;;;;;;;;;;
kt233-windsor-castle;;;;51.2787849389;-0.3876771046;open;;Olde Windsor Castle;Little Bookham Street;Little Bookham;Leatherhead;Surrey;KT23 3AA;;https://whatpub.com/img/KIN/7042/olde-windsor-castle-little-bookham/200/150;https://whatpub.com/pubs/KIN/7042/olde-windsor-castle-little-bookham;;https://www.google.co.uk/maps/@51.2788641,-0.387293,3a,52.1y,260.98h,88.68t/data=!3m7!1e1!3m5!1s-RH-yO4qYzFHYJmDXuRKdw!2e0!6s%2F%2Fgeo1.ggpht.com%2Fcbk%3Fpanoid%3D-RH-yO4qYzFHYJmDXuRKdw%26output%3Dthumbnail%26cb_client%3Dmaps_sv.tactile.gps%26thumb%3D2%26w%3D203%26h%3D100%26yaw%3D88.75758%26pitch%3D0%26thumbfov%3D100!7i13312!8i6656
kt233-bookham-grange-hotel;;hotel;;51.289647452;-0.3901487616;open;;Bookham Grange Hotel;Little Bookham Common;Little Bookham;Leatherhead;Surrey;KT23 3HS;;https://whatpub.com/img/KIN/6918/bookham-grange-hotel-little-bookham/298/224/42532;https://whatpub.com/pubs/KIN/6918/bookham-grange-hotel-little-bookham;;https://www.google.co.uk/maps/@51.2898364,-0.3905152,3a,75y,140.11h,85.62t/data=!3m6!1e1!3m4!1sWHMPKmXocdkFoxHfTLStzA!2e0!7i13312!8i6656
kt233-fox-hounds;;;;;;bone;after 1892;Fox & Hounds ;;Little Bookham;Leatherhead;Surrey;;;;http://www.closedpubs.co.uk/surrey/littlebookham_foxhounds.html;;
kt233-childs-hall;;;;51.2774997221;-0.3851705816;bone;1890s;Child’s Hall ;Lower Road ;Little Bookham;Leatherhead;Surrey;;;http://www.closedpubs.co.uk/surrey/pics/greatbookham_childshall.jpg;http://www.closedpubs.co.uk/surrey/greatbookham_childshall.html;;https://www.google.co.uk/maps/@51.2773663,-0.3848171,3a,54.7y,307.89h,86.51t/data=!3m6!1e1!3m4!1s8o6wl2cqM43aQUrgN196jQ!2e0!7i13312!8i6656
;;;;;;;;;;;;;;;;;;
kt234-preston-cross-hotel;;hotel;;51.2762966854;-0.3874424127;gone;;Preston Cross Hotel & Country Club;Rectory Lane;Great Bookham;Leatherhead;Surrey;KT23 4DY;;https://whatpub.com/img/KIN/7055/preston-cross-hotel-country-club-great-bookham/298/224/22124;https://whatpub.com/pubs/KIN/7055/preston-cross-hotel-country-club-great-bookham;;https://www.google.co.uk/maps/@51.2763386,-0.3867247,3a,50.4y,257.77h,96.89t/data=!3m7!1e1!3m5!1srCTzMD6hukyJ32oRhHKDaQ!2e0!6s%2F%2Fgeo0.ggpht.com%2Fcbk%3Fpanoid%3DrCTzMD6hukyJ32oRhHKDaQ%26output%3Dthumbnail%26cb_client%3Dmaps_sv.tactile.gps%26thumb%3D2%26w%3D203%26h%3D100%26yaw%3D228.41396%26pitch%3D0%26thumbfov%3D100!7i13312!8i6656
kt234-royal-oak;;;;51.2786565861;-0.373722241;open;;Royal Oak;16 High Street;Great Bookham;Leatherhead;Surrey;KT23 4AG;;https://whatpub.com/img/KIN/7078/royal-oak-great-bookham/200/150;https://whatpub.com/pubs/KIN/7078/royal-oak-great-bookham;;https://www.google.co.uk/maps/@51.2787184,-0.3735932,3a,75y,259.65h,91.06t/data=!3m6!1e1!3m4!1sTdKJRhXbrj_m6YK-zvLC7w!2e0!7i13312!8i6656
kt234-crown;;;;51.2791804797;-0.3738194711;open;;Old Crown;1 High Street;Great Bookham;Leatherhead;Surrey;KT23 4AA;;https://whatpub.com/img/KIN/7035/old-crown-great-bookham/298/224/22123;https://whatpub.com/pubs/KIN/7035/old-crown-great-bookham;;https://www.google.co.uk/maps/@51.2792653,-0.3740479,3a,75y,101.94h,90.2t/data=!3m6!1e1!3m4!1sctZMN4V0sswOhDaJdo0dVw!2e0!7i13312!8i6656
kt234-anchor;;;;51.2816387986;-0.3683484352;open;;Anchor;161 Lower Road;Great Bookham;Leatherhead;Surrey;KT23 4AH;;https://whatpub.com/img/KIN/6892/anchor-great-bookham/298/224/22122;https://whatpub.com/pubs/KIN/6892/anchor-great-bookham;;https://www.google.co.uk/maps/@51.28177,-0.3686353,3a,41.3y,113.47h,94.48t/data=!3m6!1e1!3m4!1shByoxht6pNmcXv8bFdnvMg!2e0!7i13312!8i6656
kt234-kings-arms;;;;51.2798234894;-0.3750854744;bone;;King’s Arms ;Church Street ;Great Bookham;Leatherhead;Surrey;;;http://www.closedpubs.co.uk/surrey/pics/greatbookham_kingsarms.jpg;http://www.closedpubs.co.uk/surrey/greatbookham_kingsarms.html;;https://www.google.co.uk/maps/@51.2798186,-0.3752436,3a,56.2y,100.55h,93.58t/data=!3m6!1e1!3m4!1siFfs3RazdxDnbova3P97pA!2e0!7i13312!8i6656
kt234-saracen;;;;51.2773118021;-0.3722611097;bone;1890s;Saracen ;;Great Bookham;Leatherhead;Surrey;;White Hart|Saracen & Ring;http://www.closedpubs.co.uk/surrey/pics/greatbookham_saracenring.jpg;http://www.closedpubs.co.uk/surrey/greatbookham_saracenring.html;;https://www.google.co.uk/maps/@51.2770721,-0.372263,3a,55.1y,3.97h,94.27t/data=!3m6!1e1!3m4!1s9Wi0Fhi14C0EBQM-s3A3CA!2e0!7i13312!8i6656
;;;;;;;;;;;;;;;;;;
;;;;;;;;;;;;;;;;;;
kt245-plough;;;;51.2726353667;-0.4018566026;open;;Plough;Orestan Lane;Effingham ;Leatherhead;Surrey;KT24 5SW ;;https://photos.francisfrith.com/frith/effingham-the-plough-c1955_e26017.jpg;https://whatpub.com/pubs/SHB/440/plough-inn-effingham;;https://www.google.co.uk/maps/@51.2725547,-0.4017032,3a,75y,322.91h,87.42t/data=!3m6!1e1!3m4!1s5T4YZYE6hThKy0Y64voGNA!2e0!7i13312!8i6656
kt245-sir-douglas-haig;;;;51.2722284424;-0.4001721753;open;;Sir Douglas Haig;The Street;Effingham ;Leatherhead;Surrey;KT24 5LU;Blucher Hotel;https://photos.francisfrith.com/frith/effingham-sir-douglas-haig-hotel-c1965_e26068.jpg|https://whatpub.com/img/SHB/573/sir-douglas-haig-effingham/200/150;https://whatpub.com/pubs/SHB/573/sir-douglas-haig-effingham;;https://www.google.co.uk/maps/@51.2724442,-0.400478,3a,42y,138.45h,94.74t/data=!3m6!1e1!3m4!1sMjpshMBs_h-TiWMxZnMXrw!2e0!7i13312!8i6656
kt245-blacksmiths-arms;;;;51.2723047934;-0.3996960832;bone;c1905;Blacksmith’s Arms ;Church Street ;Effingham ;Leatherhead;Surrey;;;http://www.closedpubs.co.uk/surrey/pics/effingham_blacksmithsarms.jpg;http://www.closedpubs.co.uk/surrey/effingham_blacksmithsarms.html;;https://www.google.co.uk/maps/@51.2722462,-0.3995096,3a,75y,306.85h,90.04t/data=!3m6!1e1!3m4!1sC-xlCmB9d9DU4lhJbkEcdw!2e0!7i13312!8i6656
kt245-prince-blucher;;;;51.2676765182;-0.3979459432;bone;1904;Prince Blucher ;;Effingham ;Leatherhead;Surrey;;Horse & Jockey ;http://www.closedpubs.co.uk/surrey/pics/effingham_princeblucher.jpg;http://www.closedpubs.co.uk/surrey/effingham_princeblucher.html;;https://www.google.co.uk/maps/@51.2677462,-0.3980623,3a,89.8y,128.34h,85.87t/data=!3m6!1e1!3m4!1sSfOExwcSXz6JvzX15fAoPQ!2e0!7i13312!8i6656
kt245-lord-howard-effingham;;;;51.2929635712;-0.4211953309;gone;;Lord Howard of Effingham;Forest Road;Effingham Junction;Leatherhead;Surrey;KT24 5HL;;https://i.pinimg.com/736x/84/06/8c/84068cfdd408d395f4e92c32fe4ecfac--surrey-the-lord.jpg;https://whatpub.com/pubs/SHB/374/lord-howard-effingham-junction;;https://www.google.co.uk/maps/@51.2929793,-0.4205792,3a,52y,262.22h,87.38t/data=!3m6!1e1!3m4!1ssS6-I8M22r9N6KyqYxukFg!2e0!7i13312!8i6656
;;;;;;;;;;;;;;;;;;
kt246-duke-wellington;;;;51.2628975598;-0.4317216589;open;;Duke of Wellington;Guildford Road;East Horsley;Leatherhead;Surrey;KT24 6AA;;https://whatpub.com/img/SHB/181/duke-of-wellington-east-horsley/200/150;https://whatpub.com/pubs/SHB/181/duke-of-wellington-east-horsley;;https://www.google.co.uk/maps/@51.2627852,-0.4314686,3a,75y,314.81h,86.76t/data=!3m6!1e1!3m4!1sFDOnd66TJAFhUAdYgbw98w!2e0!7i13312!8i6656
kt246-railway-hotel;;;;51.2781389797;-0.4361218241;dead;1989;Railway Hotel ;Ockham Road ;East Horsley;Leatherhead;Surrey;;;http://www.closedpubs.co.uk/surrey/pics/easthorsley_railway.jpg;http://www.closedpubs.co.uk/surrey/easthorsley_railway.html;;https://www.google.co.uk/maps/@51.2783344,-0.4357608,3a,43.3y,222.55h,93.1t/data=!3m6!1e1!3m4!1sXDJCH-yZoMbaN8Lq52Vkrw!2e0!7i13312!8i6656
kt246-king-william-iv;;;;51.2651457038;-0.45654148;open;;King William IV;83 The Street;West Horsley;Leatherhead;Surrey;KT24 6BG;;https://whatpub.com/img/SHB/350/king-william-iv-west-horsley/200/150;https://whatpub.com/pubs/SHB/350/king-william-iv-west-horsley;;https://www.google.co.uk/maps/@51.2649555,-0.4562187,3a,45.6y,318.75h,90.25t/data=!3m6!1e1!3m4!1scPSoEOwhVGuc-_JcCyR_HA!2e0!7i13312!8i6656
kt246-barley-mow;;;;51.2707886564;-0.4539464428;open;;Barley Mow;181 The Street;West Horsley;Leatherhead;Surrey;KT24 6HR;;https://whatpub.com/img/SHB/39/barley-mow-west-horsley/200/150;https://whatpub.com/pubs/SHB/39/barley-mow-west-horsley;;https://www.google.co.uk/maps/@51.2707374,-0.4535237,3a,42.5y,287.93h,88.41t/data=!3m6!1e1!3m4!1sBqlcb-KjFEt2AOiAjW2e0A!2e0!7i13312!8i6656
kt246-red-lion;;;;51.2630964507;-0.4561525637;bone;1860;Red Lion ;Cranmore Lane ;West Horsley;Leatherhead;Surrey;;;;http://www.closedpubs.co.uk/surrey/westhorsley_redlion.html;;https://www.google.co.uk/maps/@51.2632084,-0.4559727,3a,75y,220.34h,83.29t/data=!3m7!1e1!3m5!1sckjVXU1Mo4QlpSiKv4gxlA!2e0!6s%2F%2Fgeo0.ggpht.com%2Fcbk%3Fpanoid%3DckjVXU1Mo4QlpSiKv4gxlA%26output%3Dthumbnail%26cb_client%3Dmaps_sv.tactile.gps%26thumb%3D2%26w%3D203%26h%3D100%26yaw%3D33.082756%26pitch%3D0%26thumbfov%3D100!7i13312!8i6656
;;;;;;;;;;;;;;;;;;
;;;;;;;;;;;;;;;;;;
rh11-red-lion;;;;51.240286;-0.177303;open;;Red Lion;48 Linkfield Lane;;Redhill;Surrey;RH1 1DP;;http://www.closedpubs.co.uk/surrey/pics/redhill_dragon.jpg|https://whatpub.com/img/REI/312/red-lion-redhill/298/224/1;https://whatpub.com/pubs/REI/312/red-lion-redhill;;https://www.google.co.uk/maps/@51.240169,-0.1771646,3a,75y,305.35h,90.03t/data=!3m6!1e1!3m4!1shE83nLaRLNxatwaWTXzqVA!2e0!7i13312!8i6656
rh11-dragon;;;;51.239289;-0.171039;dead;2012;Dragon;39 Holland Close;;Redhill;Surrey;RH1 1HT;;https://whatpub.com/img/REI/287/dragon-redhill/298/224/1;http://www.closedpubs.co.uk/surrey/redhill_dragon.html|https://whatpub.com/pubs/REI/287/dragon-redhill;;https://www.google.co.uk/maps/@51.2391751,-0.1708923,3a,75y,324.54h,88.07t/data=!3m6!1e1!3m4!1snlf8yxkaXZUUzQvXeTmkrw!2e0!7i13312!8i6656
rh11-sun;;;;51.241406;-0.168376;open;;Sun;17-21 London Road;;Redhill;Surrey;RH1 1LY;;https://whatpub.com/img/REI/317/sun-redhill/298/224/1000001;https://whatpub.com/pubs/REI/317/sun-redhill;;https://www.google.co.uk/maps/@51.2414218,-0.1680514,3a,90y,284.97h,93.61t/data=!3m6!1e1!3m4!1szNN2TIDkfsttTuvLZXddtg!2e0!7i13312!8i6656
rh11-harlequin-theatre;;bar;;51.240858;-0.167825;open;;Harlequin Theatre;Warwick Quadrant, London Road;;Redhill;Surrey;RH1 1NN;;https://whatpub.com/img/REI/294/harlequin-theatre-redhill/298/224/1000001;https://whatpub.com/pubs/REI/294/harlequin-theatre-redhill;;https://www.google.co.uk/maps/@51.241344,-0.16814,3a,75y,161.65h,94.46t/data=!3m6!1e1!3m4!1sfFg42ygRspsGr8Yojv1fXQ!2e0!7i13312!8i6656
rh11-abbot;;;;51.240038;-0.167141;limbo;2017;Abbot;14 Station Road;;Redhill;Surrey;RH1 1NZ;;https://whatpub.com/img/REI/284/abbot-redhill/298/224/1000001;https://whatpub.com/pubs/REI/284/abbot-redhill;;https://www.google.co.uk/maps/@51.2400764,-0.166955,3a,75y,270.68h,93.74t/data=!3m6!1e1!3m4!1sMu1fgF_rhHsq0rC0tiuhXA!2e0!7i13312!8i6656
rh11-qs-entertainment;;bar;;51.240249;-0.169139;open;;Brooklyn Bar & Billiards;9 Queensway;;Redhill;Surrey;RH1 1QT;Q's Entertainment;;https://whatpub.com/pubs/REI/504/qs-entertainment-redhill;;
rh11-tower;;;;51.239166;-0.168895;limbo;;Eagle's Nest;33 High Street;;Redhill;Surrey;RH1 1RD;Tower|Crocks|Office|Dog & Duck;https://photos.francisfrith.com/frith/redhill-high-street-c1955_r17008.jpg|https://whatpub.com/img/REI/286/eagles-nest-redhill/298/224/1000001;https://whatpub.com/pubs/REI/286/eagles-nest-redhill;;https://www.google.co.uk/maps/@51.2390561,-0.1688142,3a,75y,357.57h,86.99t/data=!3m6!1e1!3m4!1siQc5iVFzmYT0txUU5kmejQ!2e0!7i13312!8i6656
rh11-cromwell;;bar;;51.239002;-0.169904;dead;2010;Cromwell;Unit 8 Cromwell Road;;Redhill;Surrey;RH1 1RT;;https://whatpub.com/img/REI/308/cromwell-redhill/298/224/1;https://whatpub.com/pubs/REI/308/cromwell-redhill;;https://www.google.co.uk/maps/@51.2391421,-0.16961,3a,75y,184.96h,82.11t/data=!3m6!1e1!3m4!1sx47ehN9oZ-kNB3e3BvyPpw!2e0!7i13312!8i6656
rh11-joes;;bar;;51.238539;-0.169063;dead;2010s;Hobo's;4-5 Berkeley House, 51 High Street;;Redhill;Surrey;RH1 1RX;Joe’s;;https://whatpub.com/pubs/REI/296/hobos-redhill;;
rh11-frankie-bennys;;bar;;51.238979;-0.168473;dead;2016;Frankie & Benny's;46-48 High Street;;Redhill;Surrey;RH1 1SH;;https://whatpub.com/img/REI/395/frankie-bennys-redhill/298/224/1;https://whatpub.com/pubs/REI/395/frankie-bennys-redhill;;https://www.google.co.uk/maps/@51.2389228,-0.1687445,3a,75y,79.34h,93.1t/data=!3m6!1e1!3m4!1sPZRsQno8xR2aOIfCkFzTnA!2e0!7i13312!8i6656
rh11-wheatsheaf;;;;51.240328;-0.168419;open;;Junction;1 High Street;;Redhill;Surrey;RH1 1RD;Wheatsheaf;https://photos.francisfrith.com/frith/redhill-station-road-1906_55039.jpg|https://photos.francisfrith.com/frith/redhill-high-street-1906_55034.jpg|https://whatpub.com/img/REI/309/junction-redhill/298/224/1000001;https://whatpub.com/pubs/REI/309/junction-redhill;;
rh11-huntsman;;;;51.2401;-0.1686;bone;after 1910;Huntsman  ;High Street (next to Wheatsheaf) ;;Redhill;Surrey;;;;http://www.closedpubs.co.uk/surrey/redhill_huntsman.html;;
rh11-somers-arms;;;;51.2403;-0.1774;gone;1970s;Somers Arms;;Reffels Bridge;Redhill;Surrey;;;;http://www.closedpubs.co.uk/surrey/redhill_somersarms.html|https://whatpub.com/pubs/REI/314/somers-arms-redhill;;
rh11-monson-arms;;;;51.246795;-0.179482;gone;1991;Monson Arms;Green Lane;Batts Hill;Redhill;Surrey;;;https://photos.francisfrith.com/frith/redhill-monson-arms-c1960_r17039.jpg;https://whatpub.com/pubs/REI/302/monson-arms-redhill;;https://www.google.co.uk/maps/@51.2468322,-0.179172,3a,75y,263.49h,92.28t/data=!3m6!1e1!3m4!1s9_vr019P67Xf1ztXpgVApQ!2e0!7i13312!8i6656
rh11-sultan;;;;51.241038;-0.167818;gone;1970s;Sultan;London Road;;Redhill;Surrey;;;;https://whatpub.com/pubs/REI/316/sultan-redhill;;
rh11-south-eastern;;;;51.240402;-0.167413;gone;1977;South Eastern;9 Station Road;;Redhill;Surrey;;;;https://whatpub.com/pubs/REI/315/south-eastern-redhill;;
rh11-locomotive;;;;51.241384;-0.166945;gone;1980s;Locomotive;21 Ladbroke Road;;Redhill;Surrey;;;http://www.closedpubs.co.uk/surrey/pics/redhill_locomotive.jpg;http://www.closedpubs.co.uk/surrey/redhill_locomotive.html|https://whatpub.com/pubs/REI/300/locomotive-redhill;;
rh11-bell;;;1;51.242721;-0.172671;bone;1958;Bell ;39 North Street ;;Redhill;Surrey;;;;http://www.closedpubs.co.uk/surrey/redhill_bell.html;;
rh11-sussex-arms;;;;;;bone;1960;Sussex Arms ;Station Road ;;Redhill;Surrey;;;;http://www.closedpubs.co.uk/surrey/redhill_sussexarms.html;;
rh11-thimble-nutmeg-grater;;;;;;bone;1909;Thimble & Nutmeg Grater ;Warwick Road ;;Redhill;Surrey;;;;http://www.closedpubs.co.uk/surrey/redhill_thimblenutmeggrater.html;;
rh11-warwick-hotel;;;;51.2406;-0.17;bone;1969;Warwick Hotel ;Station Road ;;Redhill;Surrey;;;;http://www.closedpubs.co.uk/surrey/redhill_warwickhotel.html;;
rh11-warwick-shades;;;;;;bone;;Warwick Shades ;Station Road ;;Redhill;Surrey;;;;http://www.closedpubs.co.uk/surrey/redhill_warwickshades.html;;
rh11-british-workman;;;;51.2387;-0.169;bone;;British Workman ;47 High Street ;;Redhill;Surrey;;;;http://www.closedpubs.co.uk/surrey/redhill_britishworkman.html;;
rh11-star;;;;51.2388;-0.1714;bone;1900s;Star  ;1 Observatory Road ;;Redhill;Surrey;;;;http://www.closedpubs.co.uk/surrey/redhill_star.html;;
rh11-queens-arms;;;;51.2412;-0.1683;bone;1972;Queens Arms ;13 London Road ;;Redhill;Surrey;;;;http://www.closedpubs.co.uk/surrey/redhill_queensarms.html;;
rh11-railway-belle;;;;;;bone;1910;Railway Belle ;London Road ;;Redhill;Surrey;;;;http://www.closedpubs.co.uk/surrey/redhill_railwaybelle.html;;
rh11-royal-oak;;;;51.2386;-0.1691;bone;1955;Royal Oak ;49 High Street ;;Redhill;Surrey;;;;http://www.closedpubs.co.uk/surrey/redhill_royaloak.html;;
;;;;;;;;;;;;;;;;;;
rh12-holmthorpe-arms;;;1;51.2489;-0.1581;bone;1884;Holmethorpe Arms ;;Holmethorpe ;Redhill;Surrey;;;;http://www.closedpubs.co.uk/surrey/redhill_holmethorpearms.html;;
rh12-jolly-brickmakers;;;;51.253739;-0.157712;open;;Jolly Brickmakers;58-60 Frenches Road;;Redhill;Surrey;RH1 2JD;;https://whatpub.com/img/REI/298/jolly-brickmakers-redhill/298/224/1;https://whatpub.com/pubs/REI/298/jolly-brickmakers-redhill;;https://www.google.co.uk/maps/@51.2533701,-0.1579077,3a,90y,93.97h,90.77t/data=!3m6!1e1!3m4!1sGsDBNXtESh97TjNA9eDptw!2e0!7i13312!8i6656
rh12-gatton-point;;;;51.253135;-0.165044;gone;1997;Gatton Point;171 London Road;;Redhill;Surrey;RH1 2JH;;;https://whatpub.com/pubs/REI/292/gatton-point-redhill;;https://www.google.co.uk/maps/@51.2532239,-0.1646817,3a,75y,254.36h,97.28t/data=!3m6!1e1!3m4!1sRDaUS7_AAAY0ziccYxwKcA!2e0!7i13312!8i6656
rh12-bricklayers-arms;;;1;51.253803;-0.164713;bone;1891;Bricklayers Arms ;on Gatton Point ;;Redhill;Surrey;;;;http://www.closedpubs.co.uk/surrey/redhill_bricklayersarms.html;;
;;;;;;;;;;;;;;;;;;
rh13-rookwood-house-hotel;;hotel;;51.26158;-0.153098;gone;2004;Rookwood House Hotel;13 London Road South ;Merstham ;Redhill;Surrey;RH1 3AZ ;;;https://whatpub.com/pubs/REI/249/rookwood-house-hotel-merstham;;https://www.google.co.uk/maps/@51.2615813,-0.153577,3a,75y,90.88h,91.92t/data=!3m6!1e1!3m4!1sZfagAMduxjBe0vodBJhA-w!2e0!7i13312!8i6656
rh13-railway-arms;;;;51.265348;-0.152517;open;;Railway Arms;London Road North ;Merstham ;Redhill;Surrey;RH1 3BG ;;https://whatpub.com/img/REI/248/railway-arms-merstham/298/224/1;https://whatpub.com/pubs/REI/248/railway-arms-merstham;;https://www.google.co.uk/maps/@51.2653257,-0.1521304,3a,50.3y,285.8h,93.17t/data=!3m6!1e1!3m4!1stY7oyV_2E_8cC6xfDBpVNg!2e0!7i13312!8i6656
rh13-jolliffe-arms;;;;51.272976;-0.151495;dead;late 1990s;Shepherd's Pen;229 London Road North ;Merstham ;Redhill;Surrey;RH1 3BN ;Jolliffe Arms|Detroits;http://www.closedpubs.co.uk/surrey/pics/merstham_jolliffearms.jpg|http://www.closedpubs.co.uk/surrey/pics/merstham_jolliffearms2.jpg|https://whatpub.com/img/REI/250/shepherds-pen-merstham/298/224/1;http://www.closedpubs.co.uk/surrey/merstham_jolliffearms.html|https://whatpub.com/pubs/REI/250/shepherds-pen-merstham;;https://www.google.co.uk/maps/@51.2728742,-0.1517117,3a,70.1y,61.28h,93.17t/data=!3m6!1e1!3m4!1sZooP2tJDtMQsGlnC8H9Y7Q!2e0!7i13312!8i6656
rh13-feathers;;;;51.264899;-0.152535;open;;Feathers;42 High Street ;Merstham ;Redhill;Surrey;RH1 3EA ;;https://whatpub.com/img/REI/245/feathers-merstham/298/224/1;https://whatpub.com/pubs/REI/245/feathers-merstham;;https://www.google.co.uk/maps/@51.2650281,-0.1524738,3a,75y,175.13h,97.68t/data=!3m6!1e1!3m4!1sorptBbjzs4pCr6naDGoqPw!2e0!7i13312!8i6656
rh13-iron-horse;;;;51.260384;-0.145693;gone;2009;Iron Horse;27a Bletchingley Road ;Merstham ;Redhill;Surrey;RH1 3HU ;;http://www.closedpubs.co.uk/surrey/pics/merstham_ironhorse.jpg|https://whatpub.com/img/REI/246/iron-horse-merstham/298/224/1;http://www.closedpubs.co.uk/surrey/merstham_ironhorse.html|https://whatpub.com/pubs/REI/246/iron-horse-merstham;;https://www.google.co.uk/maps/@51.2601052,-0.1455303,3a,75y,0.18h,90.65t/data=!3m7!1e1!3m5!1svW-cHRr1cxmMxkYOnoaFsQ!2e0!6s%2F%2Fgeo1.ggpht.com%2Fcbk%3Fpanoid%3DvW-cHRr1cxmMxkYOnoaFsQ%26output%3Dthumbnail%26cb_client%3Dmaps_sv.tactile.gps%26thumb%3D2%26w%3D203%26h%3D100%26yaw%3D37.254543%26pitch%3D0%26thumbfov%3D100!7i13312!8i6656
rh13-griffin;;;;51.257009;-0.148409;open;;Limes;58 Albury Road ;Merstham ;Redhill;Surrey;RH1 3LJ ;Griffin;https://whatpub.com/img/REI/247/limes-merstham/298/224/1;https://whatpub.com/pubs/REI/247/limes-merstham;;https://www.google.co.uk/maps/@51.25721,-0.1480955,3a,52y,230.79h,87.36t/data=!3m6!1e1!3m4!1sOY0aVcVwB1sMcXjUen8Zcw!2e0!7i13312!8i6656
rh13-cottage-content;;;;51.2636;-0.1524;bone;1960s;Cottage of Content ;High Street ;Merstham ;Redhill;Surrey;;;;http://www.closedpubs.co.uk/surrey/merstham_cottageofcontent.html;;
;;;;;;;;;;;;;;;;;;
rh14-home-cottage;;;;51.239099;-0.1646;open;;Home Cottage;3 Redstone Hill;;Redhill;Surrey;RH1 4AW;;https://whatpub.com/img/REI/297/home-cottage-redhill/298/224/1000001;https://whatpub.com/pubs/REI/297/home-cottage-redhill;;https://www.google.co.uk/maps/@51.2391089,-0.1649042,3a,48.9y,112.21h,96.71t/data=!3m6!1e1!3m4!1sfULSRfd-dEDqOuDQIU6a6w!2e0!7i13312!8i6656
rh14-lakers-hotel;;;;51.238755;-0.165616;open;;Toby Carvery Redhill;2 Redstone Hill;;Redhill;Surrey;RH1 4BL;;https://whatpub.com/img/REI/318/toby-carvery-redhill-redhill/298/224/1000001;https://whatpub.com/pubs/REI/318/toby-carvery-redhill-redhill;;https://www.google.co.uk/maps/@51.2388054,-0.1653194,3a,75y,219.31h,92.62t/data=!3m6!1e1!3m4!1sJ-WE7W5Lx-WQftKYVGhUOw!2e0!7i13312!8i6656
rh14-nutfield-priory-hotel;;;;51.236023;-0.140656;open;;Nutfield Priory Hotel;Nutfield Road ;Nutfield ;Redhill;Surrey;RH1 4EL ;;https://whatpub.com/img/REI/419/nutfield-priory-hotel-nutfield/298/224/1;https://whatpub.com/pubs/REI/419/nutfield-priory-hotel-nutfield;;https://www.google.co.uk/maps/@51.2358274,-0.1423607,3a,75y,144.81h,105.19t/data=!3m6!1e1!3m4!1sAF1QipOz82oWkXT3GOPLcUd5DeJ7PESWGE2d9oFKUck5!2e10!7i8704!8i4352
rh14-inn-on-pond;;;;51.247629;-0.135316;open;;Inn On The Pond;Nutfield Marsh Road ;Nutfield Marsh ;Redhill;Surrey;RH1 4EU ;;https://whatpub.com/img/REI/265/inn-on-the-pond-nutfield-marsh/298/224/1;https://whatpub.com/pubs/REI/265/inn-on-the-pond-nutfield-marsh;;https://www.google.co.uk/maps/@51.2476586,-0.135499,3a,75y,127.84h,87.69t/data=!3m6!1e1!3m4!1sqKMTL9qpZyLuIktmcri8Fg!2e0!7i13312!8i6656
rh14-queens-head;;;;51.239129;-0.126777;open;;Queen's Head;13 High Street ;Nutfield ;Redhill;Surrey;RH1 4HH ;;https://whatpub.com/img/REI/264/queens-head-nutfield/298/224/1;https://whatpub.com/pubs/REI/264/queens-head-nutfield;;https://www.google.co.uk/maps/@51.2394285,-0.126805,3a,38.2y,181.17h,97.95t/data=!3m6!1e1!3m4!1sy-otigeK3QpvvpALAuIosg!2e0!7i13312!8i6656
rh14-william-iv;;;;51.242868;-0.107713;open;;William IV;Little Common Lane ;Bletchingley ;Redhill;Surrey;RH1 4QF ;;https://whatpub.com/img/REI/25/william-iv-bletchingley/298/224/1;https://whatpub.com/pubs/REI/25/william-iv-bletchingley;;https://www.google.co.uk/maps/@51.2429512,-0.1075185,3a,75y,257.93h,90.71t/data=!3m6!1e1!3m4!1s4kMPPHw4lH4ziGdvdlBsYQ!2e0!7i13312!8i6656
;;;;;;;;;;;;;;;;;;
rh15-prince-albert;;;;51.212844;-0.170655;dead;1990s ;Prince Albert;108 Horley Road;Earlswood;Redhill;Surrey;RH1 5AA;;https://whatpub.com/img/REI/311/prince-albert-redhill/298/224/1;https://whatpub.com/pubs/REI/311/prince-albert-redhill;;https://www.google.co.uk/maps/@51.2129686,-0.1699131,3a,41.1y,257.35h,92.38t/data=!3m6!1e1!3m4!1sk1jGfklDQCxmeVi4H1ha0A!2e0!7i13312!8i6656
rh15-causeway;;;;51.21743;-0.170616;gone;2006;Causeway;1 Horley Road;Earlswood;Redhill;Surrey;RH1 5AL;Nag's Head;https://whatpub.com/img/REI/285/causeway-redhill/298/224/1;https://whatpub.com/pubs/REI/285/causeway-redhill;;
rh15-nags-head;1;;;51.21743;-0.170616;gone;1996;Nag's Head;1 Horley Road;Earlswood;Redhill;Surrey;RH1 5AL;;;https://whatpub.com/pubs/REI/303/nags-head-redhill;;
rh15-bridge-hotel;;;1;51.223906;-0.168918;bone;;Bridge Hotel ;Asylum Arch Road ;;Redhill;Surrey;;;;http://www.closedpubs.co.uk/surrey/redhill_bridge.html;;
rh15-mill-house;;;;51.205683;-0.167073;open;;Mill House;15 Brighton Road ;Salfords ;Redhill;Surrey;RH1 5BT ;;https://whatpub.com/img/REI/350/mill-house-salfords/298/224/1;https://whatpub.com/pubs/REI/350/mill-house-salfords;;https://www.google.co.uk/maps/@51.2057413,-0.1670952,3a,75y,144.05h,95.61t/data=!3m6!1e1!3m4!1syKiS5YRFHkpGE4foJVSf1Q!2e0!7i13312!8i6656
rh15-general-napier;1;;;51.202268;-0.167208;gone;1997;General Napier;54 Brighton Road ;Salfords ;Redhill;Surrey;RH1 5BZ ;;;https://whatpub.com/pubs/REI/348/general-napier-salfords;;https://www.google.co.uk/maps/@51.2023716,-0.1668476,3a,75y,253.57h,88.19t/data=!3m6!1e1!3m4!1sTum-yOYtILs2xqbSO1_tyg!2e0!7i13312!8i6656
rh15-miller-carter;;;;51.202268;-0.167208;open;;Miller & Carter;54 Brighton Road ;Salfords ;Redhill;Surrey;RH1 5DA ;General Napier;https://whatpub.com/img/REI/349/miller-carter-salfords/298/224/1000001;https://whatpub.com/pubs/REI/349/miller-carter-salfords;;https://www.google.co.uk/maps/@51.2023716,-0.1668476,3a,75y,253.57h,88.19t/data=!3m6!1e1!3m4!1sTum-yOYtILs2xqbSO1_tyg!2e0!7i13312!8i6656
rh15-station;;;;51.225813;-0.132044;open;;Station;South Station Approach, The Avenue ;South Nutfield ;Redhill;Surrey;RH1 5RY ;;https://whatpub.com/img/REI/361/station-south-nutfield/298/224/1;https://whatpub.com/pubs/REI/361/station-south-nutfield;;https://www.google.co.uk/maps/@51.2257647,-0.1323238,3a,74.2y,56.53h,91.31t/data=!3m6!1e1!3m4!1smMOJmQ_pmbKZKmCwBF-xSQ!2e0!7i13312!8i6656
rh15-propeller-bar;;bar;;51.2163;-0.1446;open;;Propeller Bar;Redhill Aerodrome, Kings Mill Lane ;South Nutfield ;Redhill;Surrey;RH1 5YP ;;https://whatpub.com/img/REI/466/propeller-bar-south-nutfield/298/224/1;https://whatpub.com/pubs/REI/466/propeller-bar-south-nutfield;;
;;;;;;;;;;;;;;;;;;
rh16-hatch;;;;51.237581;-0.182567;open;2017;Hatch;44 Hatchlands Road;;Redhill;Surrey;RH1 6AT;Foresters Arms ;https://photos.francisfrith.com/frith/redhill-shaws-corner-c1960_r17041.jpg|https://whatpub.com/img/REI/295/hatch-redhill/298/224/1|http://www.closedpubs.co.uk/surrey/pics/redhill_hatch.jpg;http://www.closedpubs.co.uk/surrey/redhill_hatch.html|https://whatpub.com/pubs/REI/295/hatch-redhill;;https://www.google.co.uk/maps/@51.2374078,-0.182187,3a,63.4y,315.24h,92.04t/data=!3m6!1e1!3m4!1sqSw0gPi91aX5AWHABHVBoA!2e0!7i13312!8i6656
rh16-rising-sun;;;;;;bone;1910;Rising Sun ;Whitepost Hill ;;Redhill;Surrey;;;http://www.closedpubs.co.uk/surrey/pics/redhill_risingsun.jpg;http://www.closedpubs.co.uk/surrey/redhill_risingsun.html;;
rh16-white-lion;;;;51.237476;-0.175838;open;;White Lion;40 Linkfield Street;;Redhill;Surrey;RH1 6BY;;https://whatpub.com/img/REI/319/white-lion-redhill/298/224/1000001;https://whatpub.com/pubs/REI/319/white-lion-redhill;;https://www.google.co.uk/maps/@51.2374713,-0.1759533,3a,75y,117.71h,90.7t/data=!3m6!1e1!3m4!1sSK2eAQLaGcZU6MAnU6dOVA!2e0!7i13312!8i6656
rh16-marquis-granby;;;;51.232722;-0.17087;open;;Marquis of Granby;8 Hooley Lane;;Redhill;Surrey;RH1 6ET;;https://whatpub.com/img/REI/301/marquis-of-granby-redhill/298/224/1;https://whatpub.com/pubs/REI/301/marquis-of-granby-redhill;;https://www.google.co.uk/maps/@51.2324671,-0.170922,3a,49.3y,9.1h,97.88t/data=!3m6!1e1!3m4!1s0w7AgH5ULLHKQ6vlJJQnhA!2e0!7i13312!8i6656
rh16-flying-scud;;;;51.228095;-0.174061;gone;2009;Flying Scud;90 Woodlands Road;Earlswood;Redhill;Surrey;RH1 6HB;;http://www.closedpubs.co.uk/surrey/pics/redhill_flyingscud.jpg|https://whatpub.com/img/REI/289/flying-scud-redhill/298/224/1;http://www.closedpubs.co.uk/surrey/redhill_flyingscud.html|https://whatpub.com/pubs/REI/289/flying-scud-redhill;;https://www.google.co.uk/maps/@51.2279872,-0.1742554,3a,53.8y,49.66h,92.2t/data=!3m6!1e1!3m4!1svGuONzEqy5KfQ3L5ylNgbg!2e0!7i13312!8i6656
rh16-joshua-tree;;;;51.225903;-0.171856;open;;Joshua Tree;30 Common Road;Earlswood;Redhill;Surrey;RH1 6HJ;;https://whatpub.com/img/REI/299/joshua-tree-redhill/298/224/1;https://whatpub.com/pubs/REI/299/joshua-tree-redhill;;https://www.google.co.uk/maps/@51.2258442,-0.1718729,3a,90y,38.17h,95.23t/data=!3m6!1e1!3m4!1swJkBV9FVDRTUOMLbk96o8g!2e0!7i13312!8i6656
rh16-old-chestnut;;;;51.227606;-0.171502;open;;Old Chestnut;12 Station Approach West;Earlswood;Redhill;Surrey;RH1 6HP;;https://whatpub.com/img/REI/306/old-chestnut-redhill/298/224/1000001;https://whatpub.com/pubs/REI/306/old-chestnut-redhill;;https://www.google.co.uk/maps/@51.2277881,-0.1717383,3a,49y,141.51h,89.37t/data=!3m6!1e1!3m4!1sVSDfSZmHZsyqT-tXyFr2Xw!2e0!7i13312!8i6656
rh16-golf-club;;bar;;51.223418;-0.18556;open;;Redhill & Reigate Golf Club;Clarence Lodge, Pendleton Road;;Redhill;Surrey;RH1 6LB;;;https://whatpub.com/pubs/REI/500/redhill-reigate-golf-bar-venue-redhill;;https://www.google.co.uk/maps/@51.2240208,-0.186628,3a,26.7y,0.22h,93.85t/data=!3m6!1e1!3m4!1svcv9niPdHm5HRsjvV2s5Jw!2e0!7i13312!8i6656
rh16-old-oak;;;;51.227044;-0.187422;open;;Old Oak;40 Somerset Road;Meadvale;Redhill;Surrey;RH1 6LT;;https://whatpub.com/img/REI/307/old-oak-redhill/298/224/1000001;http://www.closedpubs.co.uk/surrey/reigate_shipinn.html|https://whatpub.com/pubs/REI/307/old-oak-redhill;;https://www.google.co.uk/maps/@51.227,-0.1871438,3a,75y,286.04h,95.8t/data=!3m6!1e1!3m4!1svTkS3OaQxvoGYyxmU7NuWQ!2e0!7i13312!8i6656
rh16-ship-inn;;;;51.22779;-0.189112;gone;2007;Ship Inn;23 Copse Road;Meadvale;Redhill;Surrey;RH1 6NW;;http://www.closedpubs.co.uk/surrey/pics/redhill_ship.JPG|http://www.closedpubs.co.uk/surrey/pics/reigate_ship.jpg|https://whatpub.com/img/REI/313/ship-inn-redhill/298/224/1;http://www.closedpubs.co.uk/surrey/redhill_ship.html|https://whatpub.com/pubs/REI/313/ship-inn-redhill;;https://www.google.co.uk/maps/@51.2280127,-0.1891071,3a,75y,169.32h,86.12t/data=!3m6!1e1!3m4!1s48DUo6wG4HhqbQMZvNpDjw!2e0!7i13312!8i6656
rh16-garibaldi;;;;51.233775;-0.174982;open;;Garibaldi;29 Mill Street;;Redhill;Surrey;RH1 6PA;;https://whatpub.com/img/REI/290/garibaldi-redhill/298/224/1;https://whatpub.com/pubs/REI/290/garibaldi-redhill;;https://www.google.co.uk/maps/@51.2336789,-0.1750887,3a,46.7y,39.23h,97.49t/data=!3m6!1e1!3m4!1sXUWbi4xx1SY7LWJJxd8gxQ!2e0!7i13312!8i6656
rh16-garland;;;;51.23693;-0.1697;open;;Garland;5 Brighton Road;;Redhill;Surrey;RH1 6PP;;https://whatpub.com/img/REI/291/garland-redhill/298/224/1;https://whatpub.com/pubs/REI/291/garland-redhill;;https://www.google.co.uk/maps/@51.2369584,-0.1694711,3a,75y,261.62h,96.33t/data=!3m6!1e1!3m4!1sRmGs_8c1S0uEPXzMdFQGSQ!2e0!7i13312!8i6656
rh16-new-inn;;;;51.232746;-0.172444;dead;1997;New Inn;147 Brighton Road;;Redhill;Surrey;RH1 6PS;;https://photos.francisfrith.com/frith/redhill-brighton-road-1915_67828.jpg|https://photos.francisfrith.com/frith/redhill-brighton-road-c1955_r17026.jpg|https://photos.francisfrith.com/frith/redhill-garlands-road-1906_55044.jpg|http://www.closedpubs.co.uk/surrey/pics/redhill_newinn.jpg|https://whatpub.com/img/REI/304/new-inn-redhill/298/224/1;http://www.closedpubs.co.uk/surrey/redhill_newinn.html|https://whatpub.com/pubs/REI/304/new-inn-redhill;;https://www.google.co.uk/maps/@51.232529,-0.1723667,3a,37.7y,0.62h,90.95t/data=!3m6!1e1!3m4!1sV23xTsULxGhIVlRGznbzwA!2e0!7i13312!8i6656
rh16-plough-inn;;;;51.228401;-0.17634;open;;Plough Inn;11 Church Road;St Johns;Redhill;Surrey;RH1 6QE;;https://whatpub.com/img/REI/310/plough-inn-redhill/298/224/1000001;http://www.closedpubs.co.uk/surrey/redhill_plough.html|https://whatpub.com/pubs/REI/310/plough-inn-redhill;;https://www.google.co.uk/maps/@51.2284981,-0.1761472,3a,75y,254.51h,87.45t/data=!3m6!1e1!3m4!1sjrktUCNEcTGaPi9jpeMxwA!2e0!7i13312!8i6656
rh16-pendleton;;;;51.228432;-0.178344;open;;Pendleton in St Johns;26 Pendleton Road;St Johns;Redhill;Surrey;RH1 6QF;;https://whatpub.com/img/REI/288/pendleton-in-st-johns-redhill/298/224/1;https://whatpub.com/pubs/REI/288/pendleton-in-st-johns-redhill;;https://www.google.co.uk/maps/@51.228444,-0.1785978,3a,75y,105.37h,95.17t/data=!3m6!1e1!3m4!1s-2zHB1EJ92cpjyDspH20Aw!2e0!7i13312!8i6656
rh16-brickmakers-arms;;;;;;bone;1930s;Brickmakers Arms ;Kings Avenue ;;Redhill;Surrey;;;;http://www.closedpubs.co.uk/surrey/redhill_brickmakersarms.html;;
rh16-fountain;;;;51.228734;-0.177429;bone;;Fountain  ;87 St Johns Road (now Fountain Road) ;;Redhill;Surrey;;;;http://www.closedpubs.co.uk/surrey/redhill_fountain.html;;https://www.google.co.uk/maps/@51.2288435,-0.1774234,3a,75y,176.15h,91.43t/data=!3m6!1e1!3m4!1sXGHnDR2qdjES2L6YXa8ZZA!2e0!7i13312!8i6656
rh16-greyhound;;;;51.233807;-0.171256;gone;2007;Greyhound;82 Brighton Road;;Redhill;Surrey;RH1 6QP;;http://www.closedpubs.co.uk/surrey/pics/redhill_greyhound.jpg|https://whatpub.com/img/REI/293/greyhound-redhill/298/224/1;http://www.closedpubs.co.uk/surrey/redhill_greyhound.html|https://whatpub.com/pubs/REI/293/greyhound-redhill;;https://www.google.co.uk/maps/@51.2338564,-0.1715296,3a,51.6y,97.93h,92.51t/data=!3m6!1e1!3m4!1s2UfLhLmjIDI5ZXTjQH_DQA!2e0!7i13312!8i6656
rh16-noahs-ark;;;;51.228814;-0.174032;gone;1977;Noah's Ark;100 Brighton Road;;Redhill;Surrey;;;;https://whatpub.com/pubs/REI/305/noahs-ark-redhill;;
rh16-britannia;;;;;;bone;1960;Britannia  ;18 Brighton Road ;;Redhill;Surrey;;;;http://www.closedpubs.co.uk/surrey/redhill_britannia.html;;
rh16-firs;;;;51.2324;-0.1728;bone;1846;Firs ;Brighton Road ;;Redhill;Surrey;;;http://www.closedpubs.co.uk/surrey/pics/redhill_firs.jpg;http://www.closedpubs.co.uk/surrey/redhill_firs.html;;
rh16-sheep-shearers;;;;;;bone;c1881;Sheep Shearers ;corner of Pendleton Road and Somerset Road ;;Redhill;Surrey;;;;http://www.closedpubs.co.uk/surrey/redhill_sheepshearers.html;;
rh16-ship-anchor;;;;51.234175;-0.171042;bone;c1912;Ship & Anchor ;72 Brighton Road ;;Redhill;Surrey;;;;http://www.closedpubs.co.uk/surrey/redhill_shipanchor.html;;
;;;;;;;;;;;;;;;;;;
;;;;;;;;;;;;;;;;;;
rh20-cafe-rouge;;bar;;51.237936;-0.205618;open;;Cafe Rouge;1 Church Street;;Reigate;Surrey;RH2 0AA;;https://whatpub.com/img/REI/330/cafe-rouge-reigate/298/224/1;https://whatpub.com/pubs/REI/330/cafe-rouge-reigate;;https://www.google.co.uk/maps/@51.2377558,-0.2055605,3a,75y,349.64h,92.58t/data=!3m6!1e1!3m4!1sVGjHNjUNCR3hnTND5bqSBQ!2e0!7i13312!8i6656
rh20-number9;;bar;;51.237928;-0.205045;open;;Number 9;9a Church Street;;Reigate;Surrey;RH2 0AA;;https://whatpub.com/img/REI/451/number-9-reigate/298/224/1;https://whatpub.com/pubs/REI/451/number-9-reigate;;https://www.google.co.uk/maps/@51.2378457,-0.2050123,3a,59.7y,349.48h,96.5t/data=!3m6!1e1!3m4!1sbiGrvH5BzhR5zVgwJmL0IA!2e0!7i13312!8i6656
rh20-whispers;;bar;;51.238085;-0.203607;open;;Mishiko;39-41 Church Street;;Reigate;Surrey;RH2 0AD;J J Whispers|Tickled Ivory ;https://whatpub.com/img/REI/343/mishiko-reigate/298/224/1;https://whatpub.com/pubs/REI/343/mishiko-reigate;;https://www.google.co.uk/maps/@51.2379881,-0.2036005,3a,75y,326.68h,93.38t/data=!3m6!1e1!3m4!1stvKtGjSEKTNd2OYCoIzHBw!2e0!7i13312!8i6656
rh20-white-hart;;;;51.237743;-0.204766;dead;2007;White Hart;12 Church Street;;Reigate;Surrey;RH2 0AN;Forset & Firkin ;https://whatpub.com/img/REI/345/white-hart-reigate/298/224/1|http://www.closedpubs.co.uk/surrey/pics/reigate_whitehart.JPG;http://www.closedpubs.co.uk/surrey/reigate_whitehart.html|https://whatpub.com/pubs/REI/345/white-hart-reigate;;https://www.google.co.uk/maps/@51.2378636,-0.2048465,3a,75y,150.22h,92.77t/data=!3m6!1e1!3m4!1sHkF04V9sXhhWhctqs8O1yg!2e0!7i13312!8i6656
rh20-prince-wales;;;;51.241941;-0.202883;open;;Prince of Wales;2 Holmesdale Road;;Reigate;Surrey;RH2 0BQ;;https://whatpub.com/img/REI/337/prince-of-wales-reigate/298/224/1000001;https://whatpub.com/pubs/REI/337/prince-of-wales-reigate;;https://www.google.co.uk/maps/@51.2420666,-0.2030648,3a,52.5y,136.2h,93.74t/data=!3m6!1e1!3m4!1sgvb532eTNlzLkJp8sajBCQ!2e0!7i13312!8i6656
rh20-roe-deer;;;;51.241027;-0.196042;open;;Roe Deer;50 Croydon Road;;Reigate;Surrey;RH2 0NH;;https://whatpub.com/img/REI/335/roe-deer-reigate/298/224/1000002;https://whatpub.com/pubs/REI/335/roe-deer-reigate;;https://www.google.co.uk/maps/@51.241063,-0.196229,3a,54.8y,86.82h,93.64t/data=!3m6!1e1!3m4!1sLnWM_HIX2woccAJZhbrkYw!2e0!7i13312!8i6656
rh20-eagle;;;;51.240876;-0.196196;bone;1956;Eagle  ;48 Croydon Road ;;Reigate;Surrey;;;/img/pub/reigate-eagle-map.png;http://www.closedpubs.co.uk/surrey/reigate_eagle.html;;https://www.google.co.uk/maps/@51.2409744,-0.1963816,3a,75y,131.44h,98.36t/data=!3m6!1e1!3m4!1sqRELbBbCo4YKOEWKHJ1KwA!2e0!7i13312!8i6656
rh20-railway-hotel;;;;51.242421;-0.20487;gone;1980s;Railway Hotel;Holmesdale Road;;Reigate;Surrey;;;https://whatpub.com/img/REI/340/railway-hotel-reigate/298/224/1;https://whatpub.com/pubs/REI/340/railway-hotel-reigate;;https://www.google.co.uk/maps/@51.2422846,-0.2048073,3a,90y,359.72h,94.92t/data=!3m6!1e1!3m4!1sypulZN7UR9sjytT7l_HplA!2e0!7i13312!8i6656
rh20-robin-hood;;;;51.241624;-0.200372;bone;1936;Robin Hood ;46 Holmesdale Road ;;Reigate;Surrey;;;;http://www.closedpubs.co.uk/surrey/reigate_robinhoood.html;;
rh20-plough;;;;51.237725;-0.205295;bone;c1770;Plough  ;2 Church Street ;;Reigate;Surrey;;;;http://www.closedpubs.co.uk/surrey/reigate_plough.html;;
rh20-warren-arms;;;;51.24247;-0.200097;bone;c1914;Warren Arms ;16 Warren Road ;;Reigate;Surrey;;;http://www.closedpubs.co.uk/surrey/pics/reigate_warrenarms.jpg;http://www.closedpubs.co.uk/surrey/reigate_warrenarms.html;;
;;;;;;;;;;;;;;;;;;
rh27-cullenders;;bar;;51.237393;-0.205353;open;;Cullenders;13 Bell Street;;Reigate;Surrey;RH2 7AD;;https://whatpub.com/img/REI/492/cullenders-reigate/298/224/1;https://whatpub.com/pubs/REI/492/cullenders-reigate;;https://www.google.co.uk/maps/@51.2373639,-0.2055082,3a,75y,76.67h,90.3t/data=!3m6!1e1!3m4!1ssMKEm4wzKANusCACW43jtw!2e0!7i13312!8i6656
rh27-bell-inn;;;;51.237213;-0.20536;open;;Bell Inn;21 Bell Street;;Reigate;Surrey;RH2 7AD;;https://whatpub.com/img/REI/325/bell-inn-reigate/298/224/1;https://whatpub.com/pubs/REI/325/bell-inn-reigate;;https://www.google.co.uk/maps/@51.2372008,-0.2054401,3a,75y,82.14h,95.58t/data=!3m6!1e1!3m4!1swPvod83hltnD_QYBrlZ-RQ!2e0!7i13312!8i6656
rh27-gamekeeper;;bar;;51.235126;-0.204151;open;;Joules;85 Bell Street;;Reigate;Surrey;RH2 7AN;Gamekeeper|Castle|Priory;http://www.closedpubs.co.uk/surrey/pics/reigate_priory.JPG|https://whatpub.com/img/REI/338/joules-reigate/298/224/1;http://www.closedpubs.co.uk/surrey/reigate_priory.html|https://whatpub.com/pubs/REI/338/joules-reigate;;https://www.google.co.uk/maps/@51.2348936,-0.204174,3a,75y,76.83h,92.46t/data=!3m6!1e1!3m4!1snuabQIhdrJKZOewU3c3T-A!2e0!7i13312!8i6656
rh27-cobbles;;bar;;51.237331;-0.207217;gone;1980s;Cobbles;Old Brewery Yard, 16 Bell Street;;Reigate;Surrey;RH2 7BG;;https://whatpub.com/img/REI/444/cobbles-reigate/298/224/1;https://whatpub.com/pubs/REI/444/cobbles-reigate;;
rh27-artichoke;;;;;;bone;;Artichoke ;Bell Street ;;Reigate;Surrey;;;;http://www.closedpubs.co.uk/surrey/reigate_artichoke.html;;
rh27-britannia-man-owar;;;;;;bone;;Britannia Man O'War ;Bell Street ;;Reigate;Surrey;;;;http://www.closedpubs.co.uk/surrey/reigate_britannia.html;;
rh27-grapes-inn;;;;51.237232;-0.205647;bone;1910;Grapes Inn ;8-10 Bell Street ;;Reigate;Surrey;;Bricklayers Arms |Bunch Of Grapes;http://www.closedpubs.co.uk/surrey/pics/reigate_grapes.JPG;http://www.closedpubs.co.uk/surrey/reigate_grapes.html;;
rh27-seven-dials;;;;51.236472;-0.205055;bone;;Seven Dials ;39 Bell Street ;;Reigate;Surrey;;;;http://www.closedpubs.co.uk/surrey/reigate_sevendials.html;;
rh27-ship;;;;51.236549;-0.205076;bone;;Ship ;37 Bell Street ;;Reigate;Surrey;;;;http://www.closedpubs.co.uk/surrey/reigate_ship2.html;;
rh27-white-hart-hotel;;;;;;bone;1933;White Hart Commercial Hotel ;Bell Street ;;Reigate;Surrey;;;;http://www.closedpubs.co.uk/surrey/reigate_whitehart2.html;;
rh27-desert-rat;;;;51.234104;-0.202043;open;;Venture Bar & Grill;11 Lesbourne Road;;Reigate;Surrey;RH2 7JP;Desert Rat;https://whatpub.com/img/REI/344/venture-bar-grill-reigate/298/224/1000001;https://whatpub.com/pubs/REI/344/venture-bar-grill-reigate;;https://www.google.co.uk/maps/@51.2341689,-0.2020027,3a,90y,172.75h,91.86t/data=!3m6!1e1!3m4!1sjQS1zKN_7BlNlQX97YT7mA!2e0!7i13312!8i6656
rh27-reigate-brewery;;;;51.232955;-0.197504;gone;1987;Reigate Brewery;46 Glovers Road;;Reigate;Surrey;RH2 7LA;;;https://whatpub.com/pubs/REI/397/reigate-brewery-reigate;;https://www.google.co.uk/maps/@51.2328285,-0.1985372,3a,81.8y,154.48h,99.41t/data=!3m6!1e1!3m4!1s2vbTWfZN0AWhZAsh-Pyfzg!2e0!7i13312!8i6656
rh27-five-bells;;;;;;bone;c1775;Five Bells ;Chart Lane ;;Reigate;Surrey;;;;http://www.closedpubs.co.uk/surrey/reigate_fivebells.html;;
rh27-angel;;;;51.224347;-0.199129;limbo;2015;Angel;1a Woodhatch Road;Woodhatch;Reigate;Surrey;RH2 7LJ;;https://photos.francisfrith.com/frith/reigate-the-angel-c1955_r20010.jpg|http://www.closedpubs.co.uk/surrey/pics/reigate_angel.jpg|https://whatpub.com/img/REI/321/angel-reigate/200/150;http://www.closedpubs.co.uk/surrey/reigate_angel.html|https://whatpub.com/pubs/REI/321/angel-reigate;;https://www.google.co.uk/maps/@51.2241882,-0.1992578,3a,51.3y,19.81h,95.09t/data=!3m6!1e1!3m4!1s80WYBpxf0YsXSkwkPmqgJw!2e0!7i13312!8i6656
;;;;;;;;;;;;;;;;;;
rh28-labour-in-vain;;;;51.237335;-0.21094;bone;1756;Labour In Vain ;14 Park Lane ;;Reigate;Surrey;;;;http://www.closedpubs.co.uk/surrey/reigate_labourinvain.html;;
rh28-beehive;;;;51.219608;-0.200889;open;;Beehive;90 Doversgreen Road;Woodhatch;Reigate;Surrey;RH2 8EG;;https://whatpub.com/img/REI/324/beehive-reigate/298/224/1;https://whatpub.com/pubs/REI/324/beehive-reigate;;https://www.google.co.uk/maps/@51.219783,-0.2003236,3a,50.1y,254.7h,87.86t/data=!3m6!1e1!3m4!1sUzvHGDhpSNS4TwtXea23VQ!2e0!7i13312!8i6656
rh28-barley-mow;;;;51.226232;-0.210656;open;;Barley Mow;3 Eastnor Road;South Park;Reigate;Surrey;RH2 8NE;;https://photos.francisfrith.com/frith/reigate-eastnor-road-south-park-1908_61149.jpg|https://whatpub.com/img/REI/322/barley-mow-reigate/298/224/1;https://whatpub.com/pubs/REI/322/barley-mow-reigate;;https://www.google.co.uk/maps/@51.2262385,-0.21082,3a,75y,93.21h,93.47t/data=!3m6!1e1!3m4!1s6T_LFK6bdzEYiwp1UEjNyA!2e0!7i13312!8i6656
rh28-holmsdale;;;;51.226756;-0.209633;gone;1900s;Holmesdale;Priory Road;;Reigate;Surrey;;;;https://whatpub.com/pubs/REI/332/holmesdale-reigate;;
rh28-bottlehouse;;;;;;bone;after C18;Bottlehouse  ;Flanchford Road ;;Reigate;Surrey;;;;http://www.closedpubs.co.uk/surrey/reigate_bottlehouse.html;;
rh28-skimmington-castle;;;;51.2332485334;-0.2287159874;open;;Skimmington Castle;Bonny's Road;Reigate Heath;Reigate;Surrey;RH2 8RL;;https://whatpub.com/img/REI/347/skimmington-castle-reigate-heath/298/224/1;https://whatpub.com/pubs/REI/347/skimmington-castle-reigate-heath;;https://www.google.co.uk/maps/@51.234333,-0.2286974,3a,19.7y,182.73h,95.23t/data=!3m6!1e1!3m4!1sD1NbLxLUMkz4NMzmh-K4lw!2e0!7i13312!8i6656
rh28-seven-stars;;;;51.2105381887;-0.257662387;open;;Seven Stars;Bunce Common Road;Dawes Green;Reigate;Surrey;RH2 8NP;;https://whatpub.com/img/REI/232/seven-stars-leigh/298/224/1;https://whatpub.com/pubs/REI/232/seven-stars-leigh;;https://www.google.co.uk/maps/@51.2106753,-0.2571546,3a,21.5y,245.76h,93.05t/data=!3m6!1e1!3m4!1s3apROMigXd81Ie62nRmC3w!2e0!7i13312!8i6656
rh28-plough;;;;51.2082865344;-0.2498960508;open;;Plough;Church Road;Leigh;Reigate;Surrey;RH2 8NJ;;https://whatpub.com/img/REI/231/plough-leigh/298/224/1;https://whatpub.com/pubs/REI/231/plough-leigh;;https://www.google.co.uk/maps/@51.208087,-0.2498295,3a,54.4y,2.53h,87.85t/data=!3m6!1e1!3m4!1s1l5ONBdYVTTD6KnDbpMWtg!2e0!7i13312!8i6656
rh28-three-horseshoes;;;;51.2018418269;-0.2129727629;open;;Three Horseshoes;Ironsbottom;Sidlow Bridge;Reigate;Surrey;RH2 8PT;;https://whatpub.com/img/REI/354/three-horseshoes-inn-sidlow-bridge/298/224/1;https://whatpub.com/pubs/REI/354/three-horseshoes-inn-sidlow-bridge;;https://www.google.co.uk/maps/@51.2017891,-0.2131196,3a,75y,83.04h,85.33t/data=!3m6!1e1!3m4!1sxDLT0tCXVwNKhpHlbw8iSA!2e0!7i13312!8i6656
;;;;;;;;;;;;;;;;;;
rh29-cage;;bar;;51.237246;-0.207507;open;;Cage;3 Cage Yard, High Street;;Reigate;Surrey;RH2 9AB;;https://whatpub.com/img/REI/331/cage-reigate/298/224/1;https://whatpub.com/pubs/REI/331/cage-reigate;;https://www.google.co.uk/maps/@51.2376254,-0.207277,3a,75y,183.49h,86.6t/data=!3m6!1e1!3m4!1swweOe9FHQpVh9WkQ1H6_Og!2e0!7i13312!8i6656
rh29-puccinos;;bar;;51.237784;-0.209496;dead;2008;Puccino's;65 High Street;;Reigate;Surrey;RH2 9AE;;https://whatpub.com/img/REI/339/puccinos-reigate/298/224/1;https://whatpub.com/pubs/REI/339/puccinos-reigate;;https://www.google.co.uk/maps/@51.2379368,-0.209572,3a,67.3y,171.58h,100.76t/data=!3m6!1e1!3m4!1slH4QP1GJeJFBnFtmwb9ssA!2e0!7i13312!8i6656
rh29-bulls-head;;;;51.237721;-0.209208;open;;Bull's Head;55 High Street;;Reigate;Surrey;RH2 9AE;;https://whatpub.com/img/REI/329/bulls-head-reigate/298/224/1000001;https://whatpub.com/pubs/REI/329/bulls-head-reigate;;https://www.google.co.uk/maps/@51.237827,-0.209058,3a,75y,166.71h,93.51t/data=!3m6!1e1!3m4!1sRoAP-myYDUCRkXBmnE0ijw!2e0!7i13312!8i6656
rh29-red-cross-inn;;;;51.23818;-0.209763;open;;Red Cross Inn;96 High Street;;Reigate;Surrey;RH2 9AP;;https://photos.francisfrith.com/frith/reigate-the-red-cross-c1955_r20091.jpg|https://whatpub.com/img/REI/341/red-cross-inn-reigate/298/224/1000001;https://whatpub.com/pubs/REI/341/red-cross-inn-reigate;;https://www.google.co.uk/maps/@51.2382023,-0.2101054,3a,48.6y,104.5h,98.48t/data=!3m6!1e1!3m4!1slbwMBNVhlcRVNAR3XvHKhw!2e0!7i13312!8i6656
rh29-market-stores;;;;51.237851;-0.205908;open;;Market Stores;2 High Street;;Reigate;Surrey;RH2 9AY;;https://whatpub.com/img/REI/333/market-stores-reigate/298/224/1;https://whatpub.com/pubs/REI/333/market-stores-reigate;;https://www.google.co.uk/maps/@51.2377037,-0.2057545,3a,90y,340.48h,99.2t/data=!3m6!1e1!3m4!1sPc3mirA6F2dWOufxCZbgoA!2e0!7i13312!8i6656
rh29-pilgrim-brewery;;;;51.23793;-0.211062;open;;Pilgrim Brewery;West Street;;Reigate;Surrey;RH2 9BL;;https://whatpub.com/img/REI/336/pilgrim-brewery-reigate/298/224/1;https://whatpub.com/pubs/REI/336/pilgrim-brewery-reigate;;
rh29-blue-anchor;;;;51.23857;-0.211754;open;;Blue Anchor;27 West Street;;Reigate;Surrey;RH2 9BL;;https://whatpub.com/img/REI/327/blue-anchor-reigate/298/224/1000001;https://whatpub.com/pubs/REI/327/blue-anchor-reigate;;https://www.google.co.uk/maps/@51.2386821,-0.2116895,3a,75y,200.24h,87.19t/data=!3m6!1e1!3m4!1sHXTMXkt6OVZhu-vhyPgW0g!2e0!7i13312!8i6656
rh29-four-hops;;bar;;51.2384117714;-0.2105815722;open;;Four Hops;12 West Street;;Reigate;Surrey;RH2 9BS;;;https://whatpub.com/pubs/REI/513/four-hops-reigate;;https://www.google.co.uk/maps/@51.238328,-0.2106512,3a,75y,35.89h,91.23t/data=!3m7!1e1!3m5!1sDCmANH67V6Ct1Xju-GHeWg!2e0!6s%2F%2Fgeo3.ggpht.com%2Fcbk%3Fpanoid%3DDCmANH67V6Ct1Xju-GHeWg%26output%3Dthumbnail%26cb_client%3Dmaps_sv.tactile.gps%26thumb%3D2%26w%3D203%26h%3D100%26yaw%3D104.87977%26pitch%3D0%26thumbfov%3D100!7i13312!8i6656
rh29-red-lion;;;;;;bone;;Red Lion ;West Street ;;Reigate;Surrey;;;;http://www.closedpubs.co.uk/surrey/reigate_redlion.html;;
rh29-admiral-inn;;;;51.24289;-0.212016;open;;Admiral Inn;109a Nutley Lane;;Reigate;Surrey;RH2 9EF;;https://whatpub.com/img/REI/320/admiral-inn-reigate/298/224/1000002;https://whatpub.com/pubs/REI/320/admiral-inn-reigate;;https://www.google.co.uk/maps/@51.2427391,-0.2118735,3a,75y,346h,94.65t/data=!3m6!1e1!3m4!1sq8Yt-eWHNJ8uPV2Xu_is0A!2e0!7i13312!8i6656
rh29-nutley-hall;;;;51.239188;-0.211013;gone;2013;Nutley Hall;8 Nutley Lane;;Reigate;Surrey;RH2 9HS;;https://whatpub.com/img/REI/334/nutley-hall-reigate/298/224/1;https://whatpub.com/pubs/REI/334/nutley-hall-reigate;;https://www.google.co.uk/maps/@51.2393094,-0.211165,3a,75y,123.61h,91.17t/data=!3m6!1e1!3m4!1sc5h7q1knshUvPRFcZPtncQ!2e0!7i13312!8i6656
rh29-pear-tree;;;;;;bone;1910;Pear Tree ;Nutley Lane ;;Reigate;Surrey;;;;http://www.closedpubs.co.uk/surrey/reigate_peartree.html;;
rh29-prince-wales;;;;51.239844;-0.211201;bone;1968;Prince of Wales ;32 Nutley Lane ;;Reigate;Surrey;;;http://www.closedpubs.co.uk/surrey/pics/reigate_princeofwales.jpg;http://www.closedpubs.co.uk/surrey/reigate_princeofwales.html;;
rh29-white-horse;;;;;;bone;after 1861;White Horse ;Albert Road South ;;Reigate;Surrey;;;;http://www.closedpubs.co.uk/surrey/reigate_whitehorse.html;;
rh29-batchelors;;bar;;51.23827;-0.209759;gone;1994;Batchelor's;6 London Road;;Reigate;Surrey;RH2 9HY;;https://whatpub.com/img/REI/323/batchelors-reigate/298/224/1;https://whatpub.com/pubs/REI/323/batchelors-reigate;;https://www.google.co.uk/maps/@51.2383968,-0.2098483,3a,53.5y,92.49h,87.64t/data=!3m6!1e1!3m4!1s4EXn2A42jpgm9C26Wq66FQ!2e0!7i13312!8i6656
rh29-albion-inn;;;;51.2387778531;-0.2096427991;bone;1967;Albion Inn ;13 London Road ;;Reigate;Surrey;;;http://www.closedpubs.co.uk/surrey/pics/reigate_albion.jpg;http://www.closedpubs.co.uk/surrey/reigate_albion.html;;https://www.google.co.uk/maps/@51.2386484,-0.2096226,3a,75y,349h,91.95t/data=!3m6!1e1!3m4!1se_wStf9SUJn1c_qYX70tbQ!2e0!7i13312!8i6656
rh29-bats-balls;;;;51.238839;-0.2093;bone;1910;Bats & Balls ;16 London Road ;;Reigate;Surrey;;Cricketers  ;;http://www.closedpubs.co.uk/surrey/reigate_batsballs.html;;https://www.google.co.uk/maps/@51.2387888,-0.2095304,3a,79.1y,77.58h,98.27t/data=!3m6!1e1!3m4!1svLFQ68myum9WJ2mifzuxKg!2e0!7i13312!8i6656
rh29-three-pigeons;;;;;;bone;;Three Pigeons ;London Road ;;Reigate;Surrey;;;;http://www.closedpubs.co.uk/surrey/reigate_threepigeons.html;;
rh29-black-horse;;;;51.240329;-0.220998;open;;Black Horse;93 West Street;;Reigate;Surrey;RH2 9JZ;;https://whatpub.com/img/REI/326/black-horse-reigate/298/224/1;https://whatpub.com/pubs/REI/326/black-horse-reigate;;https://www.google.co.uk/maps/@51.2404077,-0.2210464,3a,61.3y,166.55h,90.64t/data=!3m6!1e1!3m4!1s3lKfSFY4g1Km1YSkfFNSfQ!2e0!7i13312!8i6656
rh29-reigate-manor-hotel;;hotel;;51.249583;-0.202729;open;;Reigate Manor Hotel;Reigate Hill;;Reigate;Surrey;RH2 9PF;Reigate Hill Hotel;https://photos.francisfrith.com/frith/reigate-reigate-hill-hotel-1935_r20001.jpg|https://whatpub.com/img/REI/342/reigate-manor-hotel-reigate/298/224/1;https://whatpub.com/pubs/REI/342/reigate-manor-hotel-reigate;;https://www.google.co.uk/maps/@51.2499574,-0.2021369,3a,49y,228.85h,92.65t/data=!3m6!1e1!3m4!1ssqjK56JXja9p_a3Nf2vcZg!2e0!7i13312!8i6656
rh29-yew-tree;;;;51.25065;-0.201971;open;;Yew Tree;99 Reigate Hill;;Reigate;Surrey;RH2 9PJ;;https://photos.francisfrith.com/frith/reigate-the-yew-tree-inn-1890_26020a.jpg|https://photos.francisfrith.com/frith/reigate-hill-1906_54136.jpg|https://photos.francisfrith.com/frith/reigate-the-yew-tree-and-reigate-hill-c1955_r20043.jpg|https://whatpub.com/img/REI/346/yew-tree-reigate/298/224/1000001;https://whatpub.com/pubs/REI/346/yew-tree-reigate;;https://www.google.co.uk/maps/@51.2504395,-0.2018361,3a,75y,336.82h,94.34t/data=!3m6!1e1!3m4!1sSnAeJcIxTQzRZ4sPucFl4Q!2e0!7i13312!8i6656
rh29-rifle-volunteer;;;;51.250521;-0.201508;bone;1907;Rifle Volunteer ;88 Reigate Hill ;;Reigate;Surrey;;;https://photos.francisfrith.com/frith/reigate-the-yew-tree-inn-1890_26020a.jpg|http://www.closedpubs.co.uk/surrey/pics/reigate_riflevolunteer.jpg;http://www.closedpubs.co.uk/surrey/reigate_riflevolunteer.html;;
rh29-bridge-house-hotel;;hotel;;51.254942;-0.194494;open;;Bridge House Hotel;Reigate Hill;;Reigate;Surrey;RH2 9RP;;https://whatpub.com/img/REI/328/bridge-house-hotel-reigate/298/224/1;https://whatpub.com/pubs/REI/328/bridge-house-hotel-reigate;;https://www.google.co.uk/maps/@51.2552012,-0.1934506,3a,55y,237.68h,100.82t/data=!3m6!1e1!3m4!1sCZilGvNHy3521h3mv8pf6g!2e0!7i13312!8i6656
rh29-anchor;;;;51.237826;-0.208429;bone;c1750;Anchor  ;60-62 High Street ;;Reigate;Surrey;;;;http://www.closedpubs.co.uk/surrey/reigate_anchor.html;;https://www.google.co.uk/maps/@51.2377266,-0.2084248,3a,75y,342.62h,98.05t/data=!3m6!1e1!3m4!1slSMuWvDuTULIdzQPC9Qwyw!2e0!7i13312!8i6656
rh29-chequers;;;;51.237556;-0.207708;bone;1823;Chequers  ;43 High Street ;;Reigate;Surrey;;;;http://www.closedpubs.co.uk/surrey/reigate_chequers.html;;https://www.google.co.uk/maps/@51.237675,-0.2076996,3a,75y,174h,90t/data=!3m7!1e1!3m5!1sfQ2SAMXKLQuH8XehBywzXA!2e0!6s%2F%2Fgeo0.ggpht.com%2Fcbk%3Fpanoid%3DfQ2SAMXKLQuH8XehBywzXA%26output%3Dthumbnail%26cb_client%3Dsearch.TACTILE.gps%26thumb%3D2%26w%3D96%26h%3D64%26yaw%3D174.00383%26pitch%3D0%26thumbfov%3D100!7i13312!8i6656
rh29-crown-inn;;;;51.2375032716;-0.2064751102;bone;1900;Crown Inn ;13-17 High Street ;;Reigate;Surrey;;;;http://www.closedpubs.co.uk/surrey/reigate_crown.html;;https://www.google.co.uk/maps/@51.2376183,-0.2066053,3a,75y,141.03h,92.88t/data=!3m6!1e1!3m4!1sUe0PqEugkRXGfhZKvAdc_A!2e0!7i13312!8i6656
rh29-george;;;;51.237523;-0.207453;bone;mid C18;George  ;31-39 High Street ;;Reigate;Surrey;;;;http://www.closedpubs.co.uk/surrey/reigate_george.html;;
rh29-green-man;;;;51.237763;-0.209501;bone;;Green Man ;65 High Street ;;Reigate;Surrey;;;http://www.closedpubs.co.uk/surrey/pics/reigate_greenman.JPG;http://www.closedpubs.co.uk/surrey/reigate_greenman.html;;
rh29-greyhound;;;;51.237738;-0.207098;bone;end C17;Greyhound  ;32 High Street ;;Reigate;Surrey;;;http://www.closedpubs.co.uk/surrey/pics/reigate_greyhound.jpg;http://www.closedpubs.co.uk/surrey/reigate_greyhound.html;;
rh29-hautboy-fiddle;;;;51.237729;-0.206842;bone;1786;Hautboy & Fiddle ;24 High Street ;;Reigate;Surrey;;;;http://www.closedpubs.co.uk/surrey/reigate_hautboyfiddle.html;;
rh29-public-hall-inn;;;;;;bone;;Public Hall Inn ;High Street ;;Reigate;Surrey;;;;http://www.closedpubs.co.uk/surrey/reigate_publichall.html;;
rh29-queens-arms;;;;51.237802;-0.206088;bone;;Queens Arms ;4a High Street ;;Reigate;Surrey;;White Horse ;;http://www.closedpubs.co.uk/surrey/reigate_queensarms.html;;
rh29-rose-crown;;;;51.237776;-0.207739;bone;;Rose & Crown ;42-44 High Street ;;Reigate;Surrey;;;;http://www.closedpubs.co.uk/surrey/reigate_rosecrown.html;;https://www.google.co.uk/maps/@51.237675,-0.2076996,3a,60y,359.74h,92.45t/data=!3m6!1e1!3m4!1sfQ2SAMXKLQuH8XehBywzXA!2e0!7i13312!8i6656
rh29-swan-hotel;;;;51.237495;-0.205995;bone;1937;Swan Hotel ;7 High Street ;;Reigate;Surrey;;;https://photos.francisfrith.com/frith/reigate-market-place-1886_18954.jpg;http://www.closedpubs.co.uk/surrey/reigate_swan.html;;https://www.google.co.uk/maps/@51.2376283,-0.2061266,3a,75y,174.09h,91.14t/data=!3m6!1e1!3m4!1sqlezz-56Gw2tQz3zDTSjNw!2e0!7i13312!8i6656
;;;;;;;;;;;;;;;;;;
;;;;;;;;;;;;;;;;;;
rh37-hartsfield-manor;;hotel;;51.2374285429;-0.2643209723;open;;Hartsfield Manor;Sandy Lane;;Betchworth;Surrey;RH3 7AA;;https://whatpub.com/img/REI/493/hartsfield-manor-betchworth/298/224/1;https://whatpub.com/pubs/REI/493/hartsfield-manor-betchworth;;
rh37-jolly-farmer;;;;51.2430589458;-0.2403326346;open;;Pheasant at Buckland;Reigate Road;Buckland;Betchworth;Surrey;RH3 7BG;Jolly Farmer ;https://whatpub.com/img/REI/34/pheasant-at-buckland-buckland/298/224/1;https://whatpub.com/pubs/REI/34/pheasant-at-buckland-buckland;;https://www.google.co.uk/maps/@51.2433249,-0.2403751,3a,50.6y,169.02h,90.45t/data=!3m7!1e1!3m5!1sW4zvfdBMWYEbUnYOw0gXag!2e0!6s%2F%2Fgeo3.ggpht.com%2Fcbk%3Fpanoid%3DW4zvfdBMWYEbUnYOw0gXag%26output%3Dthumbnail%26cb_client%3Dmaps_sv.tactile.gps%26thumb%3D2%26w%3D203%26h%3D100%26yaw%3D209.03949%26pitch%3D0%26thumbfov%3D100!7i13312!8i6656
rh37-harvesters-arms;;;;;;bone;1890s;Harvesters Arms;;Buckland;Betchworth;Surrey;;;;https://pubshistory.com/SurreyPubs/Betchworth/HarvestersArms.shtml;;
rh37-red-lion;;;;51.2402295567;-0.2629731609;open;;Red Lion;Old Road;;Betchworth;Surrey;RH3 7DS;;https://whatpub.com/img/REI/19/red-lion-betchworth/298/224/1;https://whatpub.com/pubs/REI/19/red-lion-betchworth;;
rh37-dolphin;;;;51.2336482461;-0.2661448744;open;;Dolphin;The Street;;Betchworth;Surrey;RH3 7DW;;https://whatpub.com/img/REI/18/dolphin-inn-betchworth/298/224/1;https://whatpub.com/pubs/REI/18/dolphin-inn-betchworth;;https://www.google.co.uk/maps/@51.2336845,-0.2664156,3a,75y,101.86h,94.88t/data=!3m6!1e1!3m4!1sLHSEOdUgHkksWC63Ydyszw!2e0!7i13312!8i6656
rh37-barley-mow-1;;;;;;bone;after 1918;Barleymow;;;Betchworth;Surrey;;;http://www.goodnessgracious.co.uk/newsite/scripts/resizetofit.php?image=archive/Betchworth/BET_253_the_old_Barley_Mow_28-4.jpg&w=550&h=500;;;
rh37-barley-mow-2;;;;51.2400349427;-0.2836232759;open;;Arkle Manor;Reigate Road;;Betchworth;Surrey;RH3 7HB ;Barley Mow ;https://whatpub.com/img/REI/17/arkle-manor-betchworth/298/224/1;https://whatpub.com/pubs/REI/17/arkle-manor-betchworth;;https://www.google.co.uk/maps/@51.2403434,-0.2841571,3a,45.1y,139.22h,94.04t/data=!3m7!1e1!3m5!1sVSEmBxP41mav_SwGFlBxHA!2e0!6s%2F%2Fgeo1.ggpht.com%2Fcbk%3Fpanoid%3DVSEmBxP41mav_SwGFlBxHA%26output%3Dthumbnail%26cb_client%3Dmaps_sv.tactile.gps%26thumb%3D2%26w%3D203%26h%3D100%26yaw%3D261.54428%26pitch%3D0%26thumbfov%3D100!7i13312!8i6656
rh37-spotted-cow;;;;51.2208927027;-0.2822381312;gone;late 1990s;Spotted Cow;80 Middle Street;Strood Green;Betchworth;Surrey;RH3 7HU;;https://whatpub.com/img/REI/365/spotted-cow-strood-green/298/224/1;https://whatpub.com/pubs/REI/365/spotted-cow-strood-green;;https://www.google.co.uk/maps/@51.2207277,-0.2818024,3a,70.1y,309.63h,87.89t/data=!3m6!1e1!3m4!1sOS8giPW8725AnQ5kh0MO9w!2e0!7i13312!8i6656
rh37-royal-oak;;;;51.2330773047;-0.2868419276;open;;Royal Oak;Brockham Green ;Brockham;Betchworth;Surrey;RH3 7JS ;;https://whatpub.com/img/REI/33/royal-oak-brockham/298/224/1;https://whatpub.com/pubs/REI/33/royal-oak-brockham;;https://www.google.co.uk/maps/@51.2326856,-0.2868236,3a,24.9y,1.79h,90.94t/data=!3m6!1e1!3m4!1sru_fKplVfEscuvWnKykkvg!2e0!7i13312!8i6656
rh37-dukes-head;;;;51.2329315166;-0.2856125811;open;;Inn on the Green;Brockham Green ;Brockham;Betchworth;Surrey;RH3 7JS ;Duke’s Head;https://whatpub.com/img/REI/32/inn-on-the-green-brockham/298/224/1;https://whatpub.com/pubs/REI/32/inn-on-the-green-brockham;;https://www.google.co.uk/maps/@51.2328044,-0.2857513,3a,60y,38.15h,90t/data=!3m6!1e1!3m4!1sXHevOwoV5Fsv0NDe6IzsLQ!2e0!7i13312!8i6656
;;;;;;;;;;;;;;;;;;
;;;;;;;;;;;;;;;;;;
rh41-kings-head;;;;51.2316497283;-0.3328455644;bone;C18;King's Head;3-11 High Street;;Dorking;Surrey;RH4 1AR ;Lower Chequers Inn ;https://whatpub.com/img/REI/92/courtyard-cafe-bar-dorking/298/224/1;https://whatpub.com/pubs/REI/92/courtyard-cafe-bar-dorking;;https://www.google.co.uk/maps/@51.2316007,-0.3328123,3a,89.8y,321.71h,83.36t/data=!3m6!1e1!3m4!1s4vVGE_QrrJhamy8Mni0tWQ!2e0!7i13312!8i6656
rh41-white-horse-hotel;;hotel;;51.2324422954;-0.3303120851;open;;White Horse Hotel;74-77 High Street;;Dorking;Surrey;RH4 1BE ;;https://whatpub.com/img/REI/107/white-horse-hotel-dorking/298/224/1;https://whatpub.com/pubs/REI/107/white-horse-hotel-dorking;;https://www.google.co.uk/maps/@51.2325861,-0.3305374,3a,55.8y,123.61h,88.48t/data=!3m6!1e1!3m4!1sL_bmaMty4IJooVzt6qefug!2e0!7i13312!8i6656
rh41-bell;;;;51.2316932292;-0.3341085358;gone;1979;Bell;57 West Street;;Dorking;Surrey;RH4 1BS ;;http://www.closedpubs.co.uk/surrey/pics/dorking_bell.JPG;https://whatpub.com/pubs/REI/83/bell-dorking;;https://www.google.co.uk/maps/@51.2316313,-0.3340766,3a,89.8y,344.08h,89.31t/data=!3m6!1e1!3m4!1stVYvvFDiLBRpW5WNJo6OZQ!2e0!7i13312!8i6656
rh41-kings-arms;;;;51.2318232427;-0.3354686277;open;;King's Arms;45 West Street;;Dorking;Surrey;RH4 1BU ;;https://whatpub.com/img/REI/91/kings-arms-dorking/200/150;https://whatpub.com/pubs/REI/91/kings-arms-dorking;;https://www.google.co.uk/maps/@51.2317689,-0.3353705,3a,75y,326.98h,92.3t/data=!3m6!1e1!3m4!1s1eqeoM72tWU89oZuUfyPmQ!2e0!7i13312!8i6656
rh41-star;;;;51.2318822856;-0.3367144271;open;;Star;36 West Street;;Dorking;Surrey;RH4 1BU ;;https://whatpub.com/img/REI/103/star-inn-dorking/200/150;https://whatpub.com/pubs/REI/103/star-inn-dorking;;https://www.google.co.uk/maps/@51.2319965,-0.3368601,3a,51.4y,136.5h,96.63t/data=!3m6!1e1!3m4!1sAK0BcYcGKE8xfn_f1TVxvg!2e0!7i13312!8i6656
rh41-old-house-at-home;;;;51.2316890538;-0.3361724853;open;;Old House at Home;24 West Street;;Dorking;Surrey;RH4 1BY ;;https://whatpub.com/img/REI/96/old-house-dorking/200/150;https://whatpub.com/pubs/REI/96/old-house-dorking;;https://www.google.co.uk/maps/@51.2317714,-0.3360084,3a,51.9y,232.78h,96.01t/data=!3m6!1e1!3m4!1s4Etz_57UO8T_6k6gPAYhDA!2e0!7i13312!8i6656
rh41-cobbets;;bar;;51.231677;-0.335922;open;;Cobbett's;23 West Street;;Dorking;Surrey;RH4 1BY;;https://whatpub.com/img/REI/450/cobbetts-dorking/298/224/1;https://whatpub.com/pubs/REI/450/cobbetts-dorking;;https://www.google.co.uk/maps/@51.2317714,-0.3360084,3a,56.2y,150.5h,90.39t/data=!3m7!1e1!3m5!1s4Etz_57UO8T_6k6gPAYhDA!2e0!6s%2F%2Fgeo0.ggpht.com%2Fcbk%3Fpanoid%3D4Etz_57UO8T_6k6gPAYhDA%26output%3Dthumbnail%26cb_client%3Dmaps_sv.tactile.gps%26thumb%3D2%26w%3D203%26h%3D100%26yaw%3D222.65979%26pitch%3D0%26thumbfov%3D100!7i13312!8i6656
rh41-malthouse;;;;51.2339394975;-0.3320269636;dead;2008;Malthouse;29 Mill Lane;;Dorking;Surrey;RH4 1DX ;Evening Star;http://www.closedpubs.co.uk/surrey/pics/dorking_malthouse.JPG|https://whatpub.com/img/REI/94/malthouse-dorking/298/224/1;https://whatpub.com/pubs/REI/94/malthouse-dorking;;https://www.google.co.uk/maps/@51.2341148,-0.3317597,3a,55.2y,221.77h,92.86t/data=!3m6!1e1!3m4!1saJuaH1uPSRQnlRqCHZ9yrQ!2e0!7i13312!8i6656
rh41-pilgrim;;;;51.2359065707;-0.3382907253;limbo;;Pilgrim;Station Road ;;Dorking;Surrey;RH4 1HF ;Station Inn|Railway Hotel;https://whatpub.com/img/REI/97/pilgrim-dorking/298/224/1;https://whatpub.com/pubs/REI/97/pilgrim-dorking;;https://www.google.co.uk/maps/@51.2357358,-0.3383209,3a,75y,3.19h,93.13t/data=!3m7!1e1!3m5!1s6hKU2XtFN7WfVluAAZWZxg!2e0!5s20100901T000000!7i13312!8i6656
rh41-dorking-brewery;;bar;;51.236059;-0.340491;open;;Dorking Brewery;Engine Shed, Dorking West Station Yard, Station Rd;;Dorking;Surrey;RH4 1HF;;https://whatpub.com/img/REI/429/dorking-brewery-dorking/298/224/1;https://whatpub.com/pubs/REI/429/dorking-brewery-dorking;;https://www.google.co.uk/maps/@51.2359875,-0.3396438,3a,15y,280.22h,90.09t/data=!3m6!1e1!3m4!1smvRgzHHNGUUaQDQ1iCTdMw!2e0!7i13312!8i6656
rh41-watermill;;;;51.2381772655;-0.3123322418;open;;Watermill;Reigate Road;;Dorking;Surrey;RH4 1NN ;;https://whatpub.com/img/REI/105/watermill-inn-dorking/298/224/1000001;https://whatpub.com/pubs/REI/105/watermill-inn-dorking;;https://www.google.co.uk/maps/@51.237892,-0.3126047,3a,45.5y,28.25h,88.37t/data=!3m6!1e1!3m4!1sHRIZ0LaLbbb0lVXYA1UNSA!2e0!7i13312!8i6656
rh41-punchbowl;;;;51.2362670345;-0.3180691939;dead;1988;Punch Bowl;Reigate Road;;Dorking;Surrey;RH4 1QB ;;http://www.closedpubs.co.uk/surrey/pics/dorking_punchbowl.jpg|https://photos.francisfrith.com/frith/dorking-punch-bowl-inn-1928_81427.jpg;https://whatpub.com/pubs/REI/100/punchbowl-dorking;;https://www.google.co.uk/maps/@51.2366195,-0.3178748,3a,33.9y,200.1h,92.3t/data=!3m6!1e1!3m4!1sL2e0H73J3e5akaHbflvPJg!2e0!7i13312!8i6656
rh41-surrey-yeoman;;;;51.2331657058;-0.328902465;limbo;;Surrey Yeoman;220-222 High Street;;Dorking;Surrey;RH4 1QR ;;https://whatpub.com/img/REI/104/surrey-yeoman-dorking/298/224/1000001;https://whatpub.com/pubs/REI/104/surrey-yeoman-dorking;;https://www.google.co.uk/maps/@51.2332453,-0.3289806,3a,75y,140.24h,89.9t/data=!3m6!1e1!3m4!1sRB7AMFxlVsavpYzCQ52gBg!2e0!7i13312!8i6656
rh41-applejacks;;bar;;51.233812;-0.327967;dead;;Office;272 High Street;;Dorking;Surrey;RH4 1QT;Applejacks|Arthur's|R4s ;https://whatpub.com/img/REI/95/office-dorking/298/224/1;https://whatpub.com/pubs/REI/95/office-dorking;;https://www.google.co.uk/maps/@51.2338397,-0.3281251,3a,50.6y,111.39h,86.46t/data=!3m6!1e1!3m4!1s7546TVuENllLjRP_ITEycg!2e0!7i13312!8i6656
rh41-dorking-halls;;bar;;51.234588;-0.325647;open;;Dorking Halls;Reigate Road;;Dorking;Surrey;RH4 1SG;;https://whatpub.com/img/REI/88/dorking-halls-dorking/298/224/1;https://whatpub.com/pubs/REI/88/dorking-halls-dorking;;https://www.google.co.uk/maps/@51.2349116,-0.3258417,3a,54.7y,144.95h,90.1t/data=!3m6!1e1!3m4!1s6VrvNHJegBKALWkEpBFi8Q!2e0!7i13312!8i6656
rh41-lincoln-arms;;;;51.2398798198;-0.3248564753;open;;Lincoln Arms;Station Approach;;Dorking;Surrey;RH4 1TF ;Star and Garter;https://whatpub.com/img/REI/93/lincoln-arms-hotel-dorking/298/224/1;https://whatpub.com/pubs/REI/93/lincoln-arms-hotel-dorking;;https://www.google.co.uk/maps/@51.2399702,-0.3252059,3a,52.4y,100.89h,94.19t/data=!3m6!1e1!3m4!1sMvgga9pMTc2oQGCpODSyFw!2e0!7i13312!8i6656
rh41-burgundy-black;;bar;;51.233324;-0.331566;open;;Burgundy & Black;12 St Martin's Walk;;Dorking;Surrey;RH4 1UT;;https://whatpub.com/img/REI/462/burgundy-black-dorking/298/224/1;https://whatpub.com/pubs/REI/462/burgundy-black-dorking;;https://www.google.co.uk/maps/@51.2333949,-0.3322483,3a,17.3y,97.34h,94.5t/data=!3m6!1e1!3m4!1s0Rxkad0q6nshj1qzUmQbvw!2e0!7i13312!8i6656
rh41-black-horse;;;;51.2325835833;-0.3308362161;bone;;Black Horse;29 High Street;;Dorking;Surrey;;;;http://www.closedpubs.co.uk/surrey/dorking_blackhorse.html;;https://www.google.co.uk/maps/@51.232503,-0.3307248,3a,75y,325.99h,92.24t/data=!3m6!1e1!3m4!1sEmQvSMEUUQ5wXXB8M-EQRw!2e0!7i13312!8i6656
rh41-george;;;;51.2318894098;-0.3321433458;bone;;George;High Street;;Dorking;Surrey;;;http://www.closedpubs.co.uk/surrey/pics/dorking_george.jpg;http://www.closedpubs.co.uk/surrey/dorking_george.html;;https://www.google.co.uk/maps/@51.2318099,-0.3321317,3a,75y,285.47h,95.18t/data=!3m6!1e1!3m4!1slvHDPndHSROePx4s1hysHQ!2e0!7i13312!8i6656
rh41-gun;;;;51.2318654999;-0.3332627962;bone;;Gun;1 North Street;;Dorking;Surrey;;;http://www.closedpubs.co.uk/surrey/pics/dorking_gun.jpg;http://www.closedpubs.co.uk/surrey/dorking_gun.html;;https://www.google.co.uk/maps/@51.231946,-0.3332057,3a,75y,196.85h,92.02t/data=!3m6!1e1!3m4!1sBlRtHVdwtt66qyuIV0kRmw!2e0!7i13312!8i6656
rh41-old-kings-head;;;;51.2317958091;-0.3330589403;bone;;Old King's Head;26 North Street;;Dorking;Surrey;;;;;;https://www.google.co.uk/maps/@51.2315805,-0.3330595,3a,39.9y,359.8h,94.86t/data=!3m6!1e1!3m4!1sNqnn1LD-3d3V9e2Cw-cm5Q!2e0!7i13312!8i6656
rh41-queens-arms;;;;51.231662558;-0.3332143683;bone;;Queen's Arms;West Street;;Dorking;Surrey;;;;http://www.closedpubs.co.uk/surrey/dorking_queensarms.html;;https://www.google.co.uk/maps/@51.2315774,-0.3330601,3a,75y,310.81h,92.12t/data=!3m6!1e1!3m4!1sI7ujkvLpFXchPZesXOKH5A!2e0!7i13312!8i6656
rh41-ram;;;;51.2328568746;-0.3294574128;bone;1950s;Ram;68 High Street;;Dorking;Surrey;;;http://www.closedpubs.co.uk/surrey/pics/dorking_ram.jpg;http://www.closedpubs.co.uk/surrey/dorking_ram.html;;https://www.google.co.uk/maps/@51.232854,-0.3297643,3a,60y,93.22h,91.17t/data=!3m6!1e1!3m4!1sUxk4NyofyWQQ9OvM9DLa4A!2e0!7i13312!8i6656
rh41-red-lion-hotel;;;;51.2321645986;-0.3310153845;bone;1964;Red Lion Hotel;81 High Street;;Dorking;Surrey;;Cardinal's Cap;https://photos.francisfrith.com/frith/dorking-high-street-1907_57634.jpg;http://www.closedpubs.co.uk/surrey/dorking_redlion.html;;https://www.google.co.uk/maps/@51.232231,-0.3312512,3a,75y,136.24h,89.17t/data=!3m7!1e1!3m5!1sVyEcFMqSXoKzlSkwyvjhTQ!2e0!6s%2F%2Fgeo3.ggpht.com%2Fcbk%3Fpanoid%3DVyEcFMqSXoKzlSkwyvjhTQ%26output%3Dthumbnail%26cb_client%3Dmaps_sv.tactile.gps%26thumb%3D2%26w%3D203%26h%3D100%26yaw%3D70.198654%26pitch%3D0%26thumbfov%3D100!7i13312!8i6656
rh41-rock;;;;51.2319296488;-0.331668372;bone;;Rock;89 High Street;;Dorking;Surrey;;;;http://www.closedpubs.co.uk/surrey/dorking_rock.html;;
rh41-rose-crown;;;;51.2316085409;-0.3344837995;bone;;Rose & Crown;10 West Street;;Dorking;Surrey;;;;http://www.closedpubs.co.uk/surrey/dorking_rosecrown.html;;https://www.google.co.uk/maps/@51.2316956,-0.3345849,3a,54.8y,136.58h,93.89t/data=!3m6!1e1!3m4!1stEWB3o06_bbFi2b7_0i6bQ!2e0!7i13312!8i6656
rh41-sun;;;;51.2324377936;-0.3311168052;bone;1971;Sun;26 High Street;;Dorking;Surrey;;;;http://www.closedpubs.co.uk/surrey/dorking_sun.html;;https://www.google.co.uk/maps/@51.2323831,-0.3309606,3a,78.1y,315.67h,92.78t/data=!3m6!1e1!3m4!1s_9k2Sc4b90pJ0_7Bmjsn-w!2e0!7i13312!8i6656
rh41-three-tuns;;;;51.2324923443;-0.3310142907;bone;c1950;Three Tuns;27 High Street;;Dorking;Surrey;;;https://photos.francisfrith.com/frith/dorking-quicks-high-street-1937_87851x.jpg;http://www.closedpubs.co.uk/surrey/dorking_threetuns.html;;https://www.google.co.uk/maps/@51.2323831,-0.3309606,3a,55.9y,359.05h,92.67t/data=!3m6!1e1!3m4!1s_9k2Sc4b90pJ0_7Bmjsn-w!2e0!7i13312!8i6656
rh41-wheatsheaf;;;;51.2317886524;-0.3323750841;bone;;Wheatsheaf;8 High Street;;Dorking;Surrey;;;http://www.closedpubs.co.uk/surrey/pics/dorking_wheatsheaf.jpg;http://www.closedpubs.co.uk/surrey/dorking_wheatsheaf.html;;
;;;;;;;;;;;;;;;;;;
rh42-white-hart;;;;51.2325245966;-0.3291615303;open;;White Hart;5 Dene Street;;Dorking;Surrey;RH4 2DR ;;https://whatpub.com/img/REI/106/white-hart-dorking/298/224/1;https://whatpub.com/pubs/REI/106/white-hart-dorking;;https://www.google.co.uk/maps/@51.2324245,-0.3291371,3a,75y,356.5h,89.73t/data=!3m6!1e1!3m4!1s4_cfjnIToddnmr4W3RZ9Pw!2e0!7i13312!8i6656
rh42-jolly-butchers;;;;51.2320146847;-0.328787219;open;;Red Bar & Lounge;45 Dene Street;;Dorking;Surrey;RH4 2DW ;Beehive|Jolly Butchers;http://www.closedpubs.co.uk/surrey/pics/dorking_beehive.JPG|https://whatpub.com/img/REI/81/red-bar-lounge-dorking/298/224/1;https://whatpub.com/pubs/REI/81/red-bar-lounge-dorking;;https://www.google.co.uk/maps/@51.2320482,-0.3285711,3a,75y,256.42h,85.12t/data=!3m6!1e1!3m4!1sn2sI3To_V-a9OT5mzxSUJQ!2e0!7i13312!8i6656
rh42-white-lion;;;;51.2314129224;-0.3333008616;bone;;White Lion;78 South Street;;Dorking;Surrey;;;https://photos.francisfrith.com/frith/dorking-south-street-1907_57635.jpg;http://www.closedpubs.co.uk/surrey/dorking_whitelion.html;;https://www.google.co.uk/maps/@51.2314203,-0.3331185,3a,75y,269.3h,89.03t/data=!3m6!1e1!3m4!1so_7HW1ITF_b8iLPDfF9Stg!2e0!7i13312!8i6656
rh42-bulls-head;;;;51.2312393693;-0.3332322845;open;;Bull's Head;11 South Street;;Dorking;Surrey;RH4 2DY ;;https://whatpub.com/img/REI/461/bulls-head-dorking/200/150;https://whatpub.com/pubs/REI/461/bulls-head-dorking;;https://www.google.co.uk/maps/@51.2312086,-0.3334178,3a,41y,67.91h,93.68t/data=!3m6!1e1!3m4!1swSaxOpP8kd9anUPZi7ISUw!2e0!7i13312!8i6656
rh42-little-dudley-house;;bar;;51.228689;-0.334455;open;;Little Dudley House;77 South Street;;Dorking;Surrey;RH4 2EU;;https://whatpub.com/img/REI/447/little-dudley-house-dorking/298/224/1;https://whatpub.com/pubs/REI/447/little-dudley-house-dorking;;https://www.google.co.uk/maps/@51.2287197,-0.3345946,3a,75y,78.28h,91.31t/data=!3m6!1e1!3m4!1s52eKWoe9UzVM93LEnshZ8Q!2e0!7i13312!8i6656
rh42-spotted-dog;;;;51.230963831;-0.3341571096;open;;Spotted Dog;42 South Street;;Dorking;Surrey;RH4 2HQ ;;https://whatpub.com/img/REI/102/spotted-dog-dorking/200/150;https://whatpub.com/pubs/REI/102/spotted-dog-dorking;;https://www.google.co.uk/maps/@51.2308477,-0.3340773,3a,75y,351.08h,91.89t/data=!3m6!1e1!3m4!1sEDBPkijzbTNR27vjd1KVEA!2e0!7i13312!8i6656
rh42-bush;;;;51.2231749451;-0.3324224403;gone;2012;Bush;10 Horsham Road;;Dorking;Surrey;RH4 2JL ;;http://www.closedpubs.co.uk/surrey/pics/dorking_bush.jpg|https://whatpub.com/img/REI/85/bush-dorking/298/224/1;https://whatpub.com/pubs/REI/85/bush-dorking;;https://www.google.co.uk/maps/@51.2231281,-0.3322291,3a,75y,293.3h,85.51t/data=!3m6!1e1!3m4!1sAbXTmlywKbX0-g-QEsuCag!2e0!7i13312!8i6656
rh42-queens-head;;;;51.227292386;-0.3349798291;open;;Queen's Head;1 Horsham Road;;Dorking;Surrey;RH4 2JS ;;https://whatpub.com/img/REI/101/queens-head-dorking/200/150;https://whatpub.com/pubs/REI/101/queens-head-dorking;;https://www.google.co.uk/maps/@51.227203,-0.3351105,3a,75y,48.17h,94.4t/data=!3m6!1e1!3m4!1sSkJUKxPSPMrYPcPmq0R5Fg!2e0!7i13312!8i6656
rh42-cricketers;;;;51.2285936562;-0.3345485649;open;;Cricketers;81 South Street;;Dorking;Surrey;RH4 2JU ;;https://whatpub.com/img/REI/87/cricketers-dorking/200/150;https://whatpub.com/pubs/REI/87/cricketers-dorking;;https://www.google.co.uk/maps/@51.2287197,-0.3345946,3a,75y,152.66h,91.72t/data=!3m6!1e1!3m4!1s52eKWoe9UzVM93LEnshZ8Q!2e0!7i13312!8i6656
rh42-south-street-wine-bar;;bar;;51.229679;-0.334562;open;;South Street Wine Bar;43 South Street;;Dorking;Surrey;RH4 2JX;;https://whatpub.com/img/REI/422/south-street-wine-bar-dorking/298/224/1000001;https://whatpub.com/pubs/REI/422/south-street-wine-bar-dorking;;https://www.google.co.uk/maps/@51.2296551,-0.3346023,3a,42.6y,55.64h,92.42t/data=!3m6!1e1!3m4!1sKe38y0DGf8WrPb89jgQ5Uw!2e0!7i13312!8i6656
rh42-ceylon-tavern;;bar;;51.22941;-0.334572;limbo;;Genghis;53-55 South Street;;Dorking;Surrey;RH4 2JX;Ceylon Tavern;https://whatpub.com/img/REI/415/genghis-dorking/298/224/1;https://whatpub.com/pubs/REI/415/genghis-dorking;;https://www.google.co.uk/maps/@51.2294581,-0.3345987,3a,75y,63.14h,87.02t/data=!3m6!1e1!3m4!1scU7cpp99KH3vz1tGt4zExw!2e0!7i13312!8i6656
rh42-rialto;;bar;;51.230125;-0.334259;open;;Rialto Lounge & Kitchen;33 South Street;;Dorking;Surrey;RH4 2JZ;;http://www.lacartes.com/images/business/9850/29512/m/53196.jpg;https://whatpub.com/pubs/REI/496/rialto-lounge-kitchen-dorking;;https://www.google.co.uk/maps/@51.2300705,-0.3344011,3a,90y,116.61h,88.67t/data=!3m6!1e1!3m4!1sV0kxnHq1ILYpxe0BS7F4WA!2e0!7i13312!8i6656
rh42-windmill;;;;51.2179772389;-0.329072332;gone;2004;Windmill;Horsham Road;;Dorking;Surrey;RH4 2LL ;;http://www.closedpubs.co.uk/surrey/pics/dorking_windmill.jpg|https://whatpub.com/img/REI/109/windmill-dorking/298/224/1;https://whatpub.com/pubs/REI/109/windmill-dorking;;https://www.google.co.uk/maps/@51.2179296,-0.3289115,3a,89.8y,263.19h,89.3t/data=!3m6!1e1!3m4!1sCiOOPLprLLpfvldQjhWFXA!2e0!7i13312!8i6656
;;;;;;;;;;;;;;;;;;
rh43-arundel-arms;;;;51.2301902877;-0.3372782761;gone;1986;Arundel Arms;22 Howard Road;;Dorking;Surrey;;;http://www.closedpubs.co.uk/surrey/pics/dorking_arundelarms.JPG|https://whatpub.com/img/REI/82/arundel-arms-dorking/298/224/1;https://whatpub.com/pubs/REI/82/arundel-arms-dorking;;https://www.google.co.uk/maps/@51.230175,-0.3370713,3a,75y,269.8h,91.47t/data=!3m7!1e1!3m5!1s93mncSvAe58W8jWgR_RmQg!2e0!6s%2F%2Fgeo2.ggpht.com%2Fcbk%3Fpanoid%3D93mncSvAe58W8jWgR_RmQg%26output%3Dthumbnail%26cb_client%3Dmaps_sv.tactile.gps%26thumb%3D2%26w%3D203%26h%3D100%26yaw%3D119.28106%26pitch%3D0%26thumbfov%3D100!7i13312!8i6656
rh43-falkland-arms;;;;51.2249600882;-0.3353500276;open;;Falkland Arms;60 Falkland Road;;Dorking;Surrey;RH4 3AD ;;https://whatpub.com/img/REI/89/falkland-arms-dorking/200/150;https://whatpub.com/pubs/REI/89/falkland-arms-dorking;;https://www.google.co.uk/maps/@51.2249245,-0.3350063,3a,50.1y,277.83h,95.93t/data=!3m6!1e1!3m4!1sMITRB-0w5o5BUrd6UPphpg!2e0!7i13312!8i6656
rh43-prince-wales;;;;51.2247118608;-0.334100768;open;;Prince of Wales;55 Hampstead Road;;Dorking;Surrey;RH4 3AH ;;https://whatpub.com/img/REI/98/prince-of-wales-dorking/200/150;https://whatpub.com/pubs/REI/98/prince-of-wales-dorking;;https://www.google.co.uk/maps/@51.2245965,-0.3339795,3a,55.9y,340.82h,93.35t/data=!3m6!1e1!3m4!1srPWaa31VlOcV324Emd_awg!2e0!7i13312!8i6656
rh43-cricketers;;;;51.2245346228;-0.368099661;dead;2007;Cricketers;7 Guildford Road;Westcott;Dorking;Surrey;RH4 3NW;;https://whatpub.com/img/REI/384/cricketers-westcott/298/224/1;http://www.closedpubs.co.uk/surrey/westcott_cricketers.html|https://whatpub.com/pubs/REI/384/cricketers-westcott;;https://www.google.co.uk/maps/@51.2246099,-0.3683017,3a,48.9y,90.08h,88.32t/data=!3m6!1e1!3m4!1sl5zPfgqWNVkXpZ0hDvb3qQ!2e0!7i13312!8i6656
rh43-prince-wales-w;;;;51.2257062594;-0.3637397303;open;;Prince of Wales;Guildford Road;Westcott;Dorking;Surrey;RH4 3QE;;https://whatpub.com/img/REI/386/prince-of-wales-westcott/200/150;https://whatpub.com/pubs/REI/386/prince-of-wales-westcott;;https://www.google.co.uk/maps/@51.2255701,-0.3635301,3a,52.1y,321.75h,90.23t/data=!3m6!1e1!3m4!1s3INvJKLcvsyOWZcJBmz6Ig!2e0!7i13312!8i6656
rh43-crown;;;;51.2255441638;-0.3627714528;open;2011;Crown ;Guildford Road;Westcott;Dorking;Surrey;RH4 3QG ;;https://whatpub.com/img/REI/385/bertram-bees-westcott/298/224/1;https://whatpub.com/pubs/REI/385/bertram-bees-westcott;;https://www.google.co.uk/maps/@51.2256148,-0.3630267,3a,49.5y,106.26h,95.29t/data=!3m6!1e1!3m4!1sleKpX1zqnYNmL-1iS66wtw!2e0!7i13312!8i6656
rh43-bricklayers-arms;;;;51.22516;-0.36688;bone;;Bricklayer’s Arms ;Guildford Road;Westcott;Dorking;Surrey;;;http://www.closedpubs.co.uk/surrey/pics/westcott_bricklayersarms.jpg|https://photos.francisfrith.com/frith/westcott-the-village-1922_71741.jpg;http://www.closedpubs.co.uk/surrey/westcott_bricklayersarms.html;;https://www.google.co.uk/maps/@51.2253348,-0.3666861,3a,64.2y,200.04h,100.44t/data=!3m6!1e1!3m4!1sRYdrkcWBJ3Lmcaqc5NhStg!2e0!7i13312!8i6656
rh43-cabin;;;;51.22661;-0.36457;bone;;Cabin ;St John’s Road ;Westcott;Dorking;Surrey;;;https://photos.francisfrith.com/frith/westcott-c1950_w60015.jpg;http://www.closedpubs.co.uk/surrey/westcott_cabin.html;;https://www.google.co.uk/maps/@51.2267345,-0.3644093,3a,75y,234.13h,91.15t/data=!3m6!1e1!3m4!1s-7RPi4uXCKwX3GkY1RvbGw!2e0!7i13312!8i6656
rh43-uncle-toms-cabin;;;;;;bone;;Uncle Tom’s Cabin ;Westcott Street ;Westcott;Dorking;Surrey;;;;http://www.closedpubs.co.uk/surrey/westcott_uncletomscabin.html;;
;;;;;;;;;;;;;;;;;;
;;;;;;;;;;;;;;;;;;
rh54-royal-oak;;;;51.2183558909;-0.3152062924;open;;Royal Oak;Chart Lane South ;Stonebridge ;Dorking;Surrey;RH5 4DJ ;;https://whatpub.com/img/REI/363/royal-oak-stonebridge/200/150;https://whatpub.com/pubs/REI/363/royal-oak-stonebridge;;https://www.google.co.uk/maps/@51.2182879,-0.3150384,3a,75y,289.02h,85.04t/data=!3m6!1e1!3m4!1s1QJTAuwQS5C4edw2uAZl-A!2e0!7i13312!8i6656
rh54-plough;;;;51.2073824974;-0.3113546027;gone;2009;Plough;Blackbrook Road ;Blackbrook;Dorking;Surrey;RH5 4DS ;;https://whatpub.com/img/REI/20/plough-blackbrook/298/224/1;https://whatpub.com/pubs/REI/20/plough-blackbrook;;https://www.google.co.uk/maps/@51.2071795,-0.3115026,3a,66.7y,21.95h,88.19t/data=!3m6!1e1!3m4!1s4YmpKbZLoMah-SqZr2eEZg!2e0!7i13312!8i6656
rh54-norfolk-arms;;;;51.2023392863;-0.3292438415;bone;1960s;Norfolk Arms;Horsham Road;Mid Holmwood;Dorking;Surrey;;;http://www.closedpubs.co.uk/surrey/pics/midholmwood_norfolkarms.JPG|https://photos.francisfrith.com/frith/south-holmwood-norfolk-arms-1924_75528.jpg|https://photos.francisfrith.com/frith/south-holmwood-norfolk-arms-c1965_s157020.jpg;http://www.closedpubs.co.uk/surrey/midholmwood_norfolkarms.html;;https://www.google.co.uk/maps/@51.2024255,-0.3290335,3a,75y,224.79h,91.06t/data=!3m6!1e1!3m4!1s0fF56FiALCDqtmOU9Cb7WQ!2e0!7i13312!8i6656
rh54-old-nags-head;;;;;;bone;1830s;Old Nag's Head;Horsham Road;Mid Holmwood;Dorking;Surrey;;;http://www.closedpubs.co.uk/surrey/pics/midholmwood_oldnagshead.JPG;http://www.closedpubs.co.uk/surrey/midholmwood_oldnagshead.html;;https://www.google.co.uk/maps/@51.2028949,-0.3290025,3a,26.8y,39.18h,87.74t/data=!3m6!1e1!3m4!1sbiP28sJgZvevs5oFYg6cpw!2e0!7i13312!8i6656
rh54-holly-laurel;;;;51.1940784112;-0.3256469992;dead;;Holly & Laurel;Horsham Road;South Holmwood;Dorking;Surrey;RH5 4NG ;Sawyer’s Arms;http://www.closedpubs.co.uk/surrey/pics/southholmwood_hollylaurel.JPG|https://photos.francisfrith.com/frith/south-holmwood-the-village-c1955_s157009.jpg|https://photos.francisfrith.com/frith/south-holmwood-holly-and-laurel-hotel-c1955_s157006.jpg;http://www.closedpubs.co.uk/surrey/southholmwood_hollylaurel.html|https://whatpub.com/pubs/REI/360/holly-laurel-south-holmwood;;https://www.google.co.uk/maps/@51.1943824,-0.325654,3a,89.9y,266.58h,90.78t/data=!3m6!1e1!3m4!1sWBGuptmE6qhxI8Zn8hiTWQ!2e0!7i13312!8i6656
rh54-surrey-hills-hotel;;hotel;;51.169711;-0.316694;dead;2012 (but hotel remains open);Surrey Hills Hotel bar;Horsham Road;Capel;Dorking;Surrey;RH5 4PG;;https://whatpub.com/img/REI/40/surrey-hills-hotel-capel/298/224/1;https://whatpub.com/pubs/REI/40/surrey-hills-hotel-capel;;https://www.google.co.uk/maps/@51.170012,-0.3172997,3a,43.4y,135.57h,98.19t/data=!3m6!1e1!3m4!1s4yRq-MqwqhHUPhuo8-_40A!2e0!7i13312!8i6656
rh54-white-hart;;;;51.1800863221;-0.3174357642;gone;1991;White Hart;Old Horsham Road ;Beare Green;Dorking;Surrey;RH5 4QY ;;https://photos.francisfrith.com/frith/beare-green-the-white-hart-1924_75499a.jpg|https://photos.francisfrith.com/frith/beare-green-white-hart-inn-c1965_b41015.jpg;https://whatpub.com/pubs/REI/16/white-hart-beare-green;;https://www.google.co.uk/maps/@51.1801685,-0.3179117,3a,75y,77.31h,96.28t/data=!3m6!1e1!3m4!1sExPiNA_9wJscyPIXKqQC2g!2e0!7i13312!8i6656
rh54-dukes-head;;;;51.1750369183;-0.315569979;open;;Duke's Head;Horsham Road;Beare Green;Dorking;Surrey;RH5 4QP ;;https://whatpub.com/img/REI/15/dukes-head-beare-green/298/224/1;https://whatpub.com/pubs/REI/15/dukes-head-beare-green;;https://www.google.co.uk/maps/@51.174957,-0.3159088,3a,49.7y,54.87h,90.56t/data=!3m6!1e1!3m4!1sy3DtdVbccZueCyKlUBJUWg!2e0!7i13312!8i6656
rh54-henfold-lakes;;bar;;51.182695644;-0.3008419329;limbo;2015;Henfold Lakes;Henfold Lane;Beare Green;Dorking;Surrey;RH5 4RW;;https://whatpub.com/img/REI/449/henfold-lakes-beare-green/298/224/1;https://whatpub.com/pubs/REI/449/henfold-lakes-beare-green;;
;;;;;;;;;;;;;;;;;;
rh55-golf-club;;bar;;51.143116;-0.287353;open;;Rusper Golf Club;Rusper Road ;Newdigate;Dorking;Surrey;RH5 5BX ;;https://whatpub.com/img/REI/505/rusper-golf-club-newdigate/298/224/1;https://whatpub.com/pubs/REI/505/rusper-golf-club-newdigate;;
rh55-six-bells;;;;51.1650432572;-0.2890414165;open;;Six Bells;Village Street ;Newdigate;Dorking;Surrey;RH5 5DH ;;https://whatpub.com/img/REI/260/six-bells-newdigate/298/224/1000001;https://whatpub.com/pubs/REI/260/six-bells-newdigate;;https://www.google.co.uk/maps/@51.1650785,-0.2888299,3a,74.5y,273.63h,91.5t/data=!3m6!1e1!3m4!1srYZREWgdmRYWjMgdT1-vlQ!2e0!7i13312!8i6656
rh55-surrey-oaks;;;;51.1791546598;-0.2771902111;open;;Surrey Oaks;Parkgate Road, Parkgate;Newdigate;Dorking;Surrey;RH5 5DZ;;https://whatpub.com/img/REI/261/surrey-oaks-newdigate/298/224/1;https://whatpub.com/pubs/REI/261/surrey-oaks-newdigate;;https://www.google.co.uk/maps/@51.1790873,-0.276908,3a,52.4y,300.49h,91.39t/data=!3m6!1e1!3m4!1spttaj3qHEUbp33nWC5UU9Q!2e0!7i13312!8i6656
rh55-crown;;;;51.1535240317;-0.3201377419;open;;Crown;98 The Street;Capel;Dorking;Surrey;RH5 5JY;;https://whatpub.com/img/REI/38/crown-capel/298/224/1;https://whatpub.com/pubs/REI/38/crown-capel;;https://www.google.co.uk/maps/@51.1534169,-0.3198377,3a,51.7y,296.58h,95.83t/data=!3m6!1e1!3m4!1s6KYE4ssO75T5a3hlNKMScQ!2e0!7i13312!8i6656
rh55-kings-head;;;;51.1556320025;-0.3208243874;gone;1986;King's Head;The Street;Capel;Dorking;Surrey;;;https://photos.francisfrith.com/frith/capel-the-king-s-head-c1955_c20024.jpg;https://whatpub.com/pubs/REI/39/kings-head-capel;;https://www.google.co.uk/maps/@51.1556939,-0.3204809,3a,75y,265.42h,92.31t/data=!3m6!1e1!3m4!1soUhYkMDhPBFJky9hRzqkXg!2e0!7i13312!8i6656
rh55-jolly-farmer;;;;51.1506252035;-0.3210148229;bone;;Jolly Farmer ;177 The Street ;Capel;Dorking;Surrey;;;;http://www.closedpubs.co.uk/surrey/capel_jollyfarmer.html;;https://www.google.co.uk/maps/@51.1507099,-0.3218191,3a,24.2y,105.09h,88.32t/data=!3m6!1e1!3m4!1suNIuK2ndYFiwnuz055h_7A!2e0!7i13312!8i6656
rh55-gatton-manor;;hotel;;51.138794;-0.388292;open;;Gatton Manor;Standon Lane;Ockley;Dorking;Surrey;RH5 5PQ;;https://whatpub.com/img/REI/268/gatton-manor-ockley/298/224/1;https://whatpub.com/pubs/REI/268/gatton-manor-ockley;;https://www.google.co.uk/maps/@51.138634,-0.3886128,3a,90y,9.9h,87.45t/data=!3m6!1e1!3m4!1sC0bK_z5nsgWNsSV22VYdNg!2e0!7i13312!8i6656
rh55-punchbowl;;;;51.124594;-0.382355;open;;Punchbowl;Oakwood Hill Lane ;Okewood Hill ;Dorking;Surrey;RH5 5PU ;;https://whatpub.com/img/REI/266/punchbowl-okewood-hill/298/224/1000001;https://whatpub.com/pubs/REI/266/punchbowl-okewood-hill;;https://www.google.co.uk/maps/@51.1245265,-0.382295,3a,75y,334.78h,92.08t/data=!3m6!1e1!3m4!1slgIbm1YMsXN_zXAWhJI9bA!2e0!7i13312!8i6656
rh55-scarlett-arms;;;;51.131432;-0.402269;open;;Scarlett Arms;Walliswood Green Road;Walliswood;Dorking;Surrey;RH5 5RD;;https://whatpub.com/img/REI/374/scarlett-arms-walliswood/298/224/1;https://whatpub.com/pubs/REI/374/scarlett-arms-walliswood;;https://www.google.co.uk/maps/@51.1315528,-0.4024364,3a,49.8y,128.41h,84.81t/data=!3m6!1e1!3m4!1srYASSuGb_PFRKq17zJI8AQ!2e0!7i13312!8i6656
rh55-parrot;;;;51.1597534599;-0.3940916169;open;;Parrot;Horsham Road;Forest Green;Dorking;Surrey;RH5 5RZ;;https://whatpub.com/img/REI/177/parrot-inn-forest-green/298/224/1;https://whatpub.com/pubs/REI/177/parrot-inn-forest-green;;https://www.google.co.uk/maps/@51.1599302,-0.3945067,3a,52.4y,116.68h,90.28t/data=!3m6!1e1!3m4!1sJhE6Kl8R3RkXJRU8uJH4TQ!2e0!7i13312!8i6656
rh55-red-lion;;;;51.1495618619;-0.3603091849;open;;Inn on the Green;Stane Street;Ockley;Dorking;Surrey;RH5 5TD;Red Lion ;https://whatpub.com/img/REI/269/inn-on-the-green-ockley/298/224/1000001;https://whatpub.com/pubs/REI/269/inn-on-the-green-ockley;;https://www.google.co.uk/maps/@51.14969,-0.3603743,3a,75y,168.24h,96.43t/data=!3m6!1e1!3m4!1sWeVwP14bneAkZSPA2xAqqA!2e0!7i13312!8i6656
rh55-old-school-house;;;;51.1431114635;-0.3654778017;gone;2015;Old School House;Stane Street;Ockley;Dorking;Surrey;RH5 5TH;;https://whatpub.com/img/REI/271/old-school-house-ockley/298/224/1;https://whatpub.com/pubs/REI/271/old-school-house-ockley;;https://www.google.co.uk/maps/@51.1430885,-0.3650266,3a,51.4y,276.01h,90.43t/data=!3m6!1e1!3m4!1srk2qWXo6O_IiEz50EsN4_g!2e0!7i13312!8i6656
rh55-cricketers-arms;;;;51.1452215926;-0.3637343659;open;;Cricketer’s Arms;Stane Street;Ockley;Dorking;Surrey;RH5 5TP;;https://whatpub.com/img/REI/267/cricketers-arms-ockley/298/224/1;https://whatpub.com/pubs/REI/267/cricketers-arms-ockley;;https://www.google.co.uk/maps/@51.1451121,-0.3636056,3a,75y,330.1h,85.56t/data=!3m6!1e1!3m4!1s828-xGbOKRjsW4JsTt-G2w!2e0!7i13312!8i6656
rh55-kings-arms;;;;51.1524220614;-0.358265343;gone;2012;King's Arms;Stane Street;Ockley;Dorking;Surrey;RH5 5TS;;https://whatpub.com/img/REI/270/kings-arms-inn-ockley/298/224/1;https://whatpub.com/pubs/REI/270/kings-arms-inn-ockley;;https://www.google.co.uk/maps/@51.1523903,-0.3584662,3a,75y,72.15h,92.86t/data=!3m7!1e1!3m5!1s9lvKMfxeTnq1jh2I04itaA!2e0!6s%2F%2Fgeo3.ggpht.com%2Fcbk%3Fpanoid%3D9lvKMfxeTnq1jh2I04itaA%26output%3Dthumbnail%26cb_client%3Dmaps_sv.tactile.gps%26thumb%3D2%26w%3D203%26h%3D100%26yaw%3D162.24774%26pitch%3D0%26thumbfov%3D100!7i13312!8i6656
rh55-brewery-arms;;;;51.1433352697;-0.3650017096;bone;;Brewery Arms ;Stane Street;Ockley;Dorking;Surrey;;;http://www.closedpubs.co.uk/surrey/pics/ockley_brewersarms.jpg;http://www.closedpubs.co.uk/surrey/ockley_brewersarms.html;;https://www.google.co.uk/maps/@51.1433604,-0.3648399,3a,90y,264.03h,92.09t/data=!3m6!1e1!3m4!1sbDg7CgS0Xo71uC5CdJ5Dnw!2e0!7i13312!8i6656
;;;;;;;;;;;;;;;;;;
rh56-beehive;;;;51.2474836562;-0.3239356968;bone;1876;Beehive;London Road;;Dorking;Surrey;;;http://www.closedpubs.co.uk/surrey/pics/dorking_beehive2.jpg;http://www.closedpubs.co.uk/surrey/dorking_beehive2.html;;https://www.google.co.uk/maps/@51.2474026,-0.3242468,3a,51.6y,67.5h,91.52t/data=!3m6!1e1!3m4!1sAnAmojoR4s7Kag8YX8IexA!2e0!7i13312!8i6656
rh56-surrey-hills-brewery;;bar;;51.247903;-0.332328;open;;Surrey Hills Brewery;Denbies Wine Estate, London Road;;Dorking;Surrey;RH5 6AA;;https://whatpub.com/img/REI/453/surrey-hills-brewery-dorking/298/224/1;https://whatpub.com/pubs/REI/453/surrey-hills-brewery-dorking;;https://www.google.co.uk/maps/@51.2475218,-0.3309934,3a,75y,299.89h,90t/data=!3m7!1e1!3m5!1sCEvh3vk9yMhCOM37gR1vCQ!2e0!6s%2F%2Fgeo1.ggpht.com%2Fcbk%3Fpanoid%3DCEvh3vk9yMhCOM37gR1vCQ%26output%3Dthumbnail%26cb_client%3Dmaps_sv.tactile.gps%26thumb%3D2%26w%3D203%26h%3D100%26yaw%3D312.5587%26pitch%3D0%26thumbfov%3D100!7i13312!8i6656
rh56-stepping-stones;;;;51.2529405986;-0.3245504205;open;;Stepping Stones;Westhumble Street ;Westhumble;Dorking;Surrey;RH5 6BS ;;https://whatpub.com/img/REI/388/stepping-stones-westhumble/200/150;https://whatpub.com/pubs/REI/388/stepping-stones-westhumble;;https://www.google.co.uk/maps/@51.2529938,-0.3243698,3a,89.9y,235.47h,89.81t/data=!3m6!1e1!3m4!1swBO4apFDxAir4aJTfgHKog!2e0!7i13312!8i6656
rh56-burford-bridge-hotel;;hotel;;51.2546467106;-0.3217926648;open;;Burford Bridge Hotel;Old London Road;Westhumble;Dorking;Surrey;RH5 6BX;Fox & Hounds|Hare & Hounds;https://whatpub.com/img/REI/387/mercure-burford-bridge-hotel-westhumble/298/224/1;https://whatpub.com/pubs/REI/387/mercure-burford-bridge-hotel-westhumble;;https://www.google.co.uk/maps/@51.254557,-0.3220298,3a,89.9y,54.14h,86.84t/data=!3m6!1e1!3m4!1siNA7ucfnJmLsw6sWb6dZyQ!2e0!7i13312!8i6656
rh56-running-horses;;;;51.2677612854;-0.3241317444;open;;Running Horses;Old London Road ;Mickleham;Dorking;Surrey;RH5 6DU ;;https://photos.francisfrith.com/frith/mickleham-the-running-horse-inn-1897_39002.jpg|https://whatpub.com/img/KIN/7084/running-horses-mickleham/298/224/22130;https://whatpub.com/pubs/KIN/7084/running-horses-mickleham;;https://www.google.co.uk/maps/@51.2678247,-0.3238774,3a,75y,252.03h,90.79t/data=!3m6!1e1!3m4!1sBOYWUZSbUHaVfyRRb3EK8A!2e0!7i13312!8i6656
rh56-king-william-iv;;;;51.2714990615;-0.3193683001;open;;King William IV;4 Byttom Hill ;Mickleham;Dorking;Surrey;RH5 6EL ;;https://photos.francisfrith.com/frith/mickleham-delivery-cart-1904_52576x.jpg|https://whatpub.com/img/KIN/6997/king-william-iv-mickleham/200/150;https://whatpub.com/pubs/KIN/6997/king-william-iv-mickleham;;https://www.google.co.uk/maps/@51.271578,-0.3195064,3a,75y,107.11h,98.88t/data=!3m6!1e1!3m4!1s2K2GNxfHiaiPTav_Ht5rdw!2e0!7i13312!8i6656
rh56-royal-oak;;;;51.2615623838;-0.3207036866;bone;1760s;Royal Oak ;;Mickleham;Dorking;Surrey;;;http://www.closedpubs.co.uk/surrey/pics/mickleham_royaloak.jpg;http://www.closedpubs.co.uk/surrey/mickleham_royaloak.html;;https://www.google.co.uk/maps/@51.2616471,-0.320416,3a,75y,220.53h,87.31t/data=!3m6!1e1!3m4!1skHBb-jDblaPmC8LS6Ffr1g!2e0!7i13312!8i6656
rh56-plough;;;;51.184263148;-0.3539209175;open;;Plough;Coldharbour Lane ;Coldharbough;Dorking;Surrey;RH5 6HD ;;https://whatpub.com/img/REI/64/plough-inn-coldharbour/200/150;https://whatpub.com/pubs/REI/64/plough-inn-coldharbour;;https://www.google.co.uk/maps/@51.1843328,-0.3540104,3a,90y,107.97h,83.74t/data=!3m6!1e1!3m4!1sMrGSdhbSO_F-jPVl1VIswA!2e0!7i13312!8i6656
rh56-wotton-house;;hotel;;51.2109095338;-0.3956902054;open;;Wotton House;Guildford Road;Wotton;Dorking;Surrey;RH5 6HS;;https://whatpub.com/img/REI/459/wotton-house-wotton/200/150;https://whatpub.com/pubs/REI/459/wotton-house-wotton;;
rh56-abinger-hatch;;;;51.2019661914;-0.4043577625;open;;Abinger Hatch;Abinger Lane;Abinger Common;Dorking;Surrey;RH5 6HZ;;https://whatpub.com/img/REI/1/abinger-hatch-abinger-common/200/150;https://whatpub.com/pubs/REI/1/abinger-hatch-abinger-common;;https://www.google.co.uk/maps/@51.2017916,-0.4046169,3a,54.4y,48.58h,95.18t/data=!3m6!1e1!3m4!1sxAXPU6TCFnXvyPdJNN_NoQ!2e0!7i13312!8i6656
rh56-stephan-langton;;;;51.1982283617;-0.386975707;open;;Stephan Langton;Friday Street;Friday Street;Dorking;Surrey;RH5 6JR;;https://whatpub.com/img/REI/178/stephan-langton-inn-friday-street/200/150;https://whatpub.com/pubs/REI/178/stephan-langton-inn-friday-street;;https://www.google.co.uk/maps/@51.1984775,-0.38706,3a,75y,138.62h,89.17t/data=!3m6!1e1!3m4!1sit1Iogts3xiwoaBsGALz2w!2e0!7i13312!8i6656
rh56-kings-head;;;;51.1854234921;-0.4109828188;open;;King's Head;Pitland Street;Holmbury St Mary;Dorking;Surrey;RH5 6NP;;https://whatpub.com/img/REI/194/kings-head-holmbury-st-mary/298/224/1;https://whatpub.com/pubs/REI/194/kings-head-holmbury-st-mary;;https://www.google.co.uk/maps/@51.1854788,-0.4111105,3a,75y,101.28h,93.74t/data=!3m6!1e1!3m4!1sfhJXuwkgWso7jbc_yTEg8g!2e0!7i13312!8i6656
rh56-royal-oak;;;;51.1887261198;-0.4139828709;open;;Royal Oak;The Glade, Felday Road;Holmbury St Mary;Dorking;Surrey;RH5 6PF;;https://whatpub.com/img/REI/195/royal-oak-holmbury-st-mary/298/224/1;https://whatpub.com/pubs/REI/195/royal-oak-holmbury-st-mary;;https://www.google.co.uk/maps/@51.1890474,-0.4138007,3a,42.8y,194.85h,89.99t/data=!3m6!1e1!3m4!1sVBI1-JfR-2pczCEnLAV60g!2e0!7i13312!8i6656
rh56-volunteer;;;;51.2022250047;-0.4193083955;open;;Volunteer;Water Lane;Sutton Abinger;Dorking;Surrey;RH5 6PR;;https://whatpub.com/img/REI/366/volunteer-sutton-abinger/200/150;https://whatpub.com/pubs/REI/366/volunteer-sutton-abinger;;https://www.google.co.uk/maps/@51.2021135,-0.4191347,3a,53y,336.92h,87.08t/data=!3m6!1e1!3m4!1sh0jioWbF2h0PX5ILkNB5rQ!2e0!7i13312!8i6656
rh56-wotton-hatch;;;;51.216850636;-0.3890544203;open;;Wotton Hatch;Guildford Road;Wotton;Dorking;Surrey;RH5 6QQ;;https://whatpub.com/img/REI/393/wotton-hatch-wotton/200/150;https://whatpub.com/pubs/REI/393/wotton-hatch-wotton;;https://www.google.co.uk/maps/@51.2168867,-0.389323,3a,75y,98.17h,92.69t/data=!3m6!1e1!3m4!1sBP5J7cIRkeX8FMfdSlQ_Rg!2e0!7i13312!8i6656
rh56-abinger-arms;;;;51.2161668434;-0.4328119782;dead;2012;Abinger Arms;Guildford Road;Abinger Hammer;Dorking;Surrey;RH5 6RZ;;https://whatpub.com/img/REI/2/abinger-arms-abinger-hammer/298/224/1;https://whatpub.com/pubs/REI/2/abinger-arms-abinger-hammer;;https://www.google.co.uk/maps/@51.216308,-0.4333769,3a,75y,331.83h,91.25t/data=!3m6!1e1!3m4!1s-bCofk2ezpUlYBXOJX1VhQ!2e0!7i13312!8i6656
rh56-ranmore-arms;;;;51.23956;-0.40808;gone;c2000;Ranmore Arms ;Crocknorth Road ;Ranmore Common ;Dorking;Surrey;RH5 6SX ;;http://www.closedpubs.co.uk/surrey/pics/ranmorecommon_ranmorearms.JPG;http://www.closedpubs.co.uk/surrey/ranmorecommon_ranmorearms.html;;https://www.google.co.uk/maps/@51.23874,-0.4083158,3a,54.7y,9.23h,95.06t/data=!3m6!1e1!3m4!1sTorhGe65dk83c4ww6taqfQ!2e0!7i13312!8i6656
rh56-fox;;;;51.2420371954;-0.3694528355;bone;;Fox ;Fox Lane ;Ranmore Common ;Dorking;Surrey;;;http://www.closedpubs.co.uk/surrey/pics/ranmorecommon_fox.jpg;http://www.closedpubs.co.uk/surrey/ranmorecommon_fox.html;;https://www.google.co.uk/maps/@51.2417195,-0.3696958,3a,39.3y,23.98h,90.48t/data=!3m6!1e1!3m4!1s1MJvk6I2IuG5M31TsxgiUg!2e0!7i13312!8i6656
;;;;;;;;;;;;;;;;;;
;;;;;;;;;;;;;;;;;;
rh60-airport-inn;;hotel;;51.166647;-0.178203;open;;Airport Inn;Longbridge Roundabout ;;Horley;Surrey;RH6 0AB ;;https://whatpub.com/img/REI/206/airport-inn-horley/298/224/1;https://whatpub.com/pubs/REI/206/airport-inn-horley;;https://www.google.co.uk/maps/@51.1670518,-0.1777866,3a,75y,202.39h,89.69t/data=!3m6!1e1!3m4!1s9Ta8GVX33-7Hb6tTHlEoqw!2e0!7i13312!8i6656
rh60-holiday-inn;;hotel;;51.167938;-0.180298;open;;Holiday Inn;Povey Cross Road ;;Horley;Surrey;RH6 0BA ;;https://whatpub.com/img/REI/208/holiday-inn-gatwick-airport-horley/298/224/1;https://whatpub.com/pubs/REI/208/holiday-inn-gatwick-airport-horley;;
rh60-travelodge;;hotel;;51.165842;-0.178521;open;;Travelodge;Povey Cross Road ;;Horley;Surrey;RH6 0BE ;;https://whatpub.com/img/REI/211/travelodge-horley/298/224/1;https://whatpub.com/pubs/REI/211/travelodge-horley;;
rh60-greyhound;;;;51.1546427992;-0.219981375;open;;Greyhound;12 The Street;Charlwood;Horley;Surrey;RH6 0BY;;https://whatpub.com/img/REI/55/greyhound-charlwood/298/224/1000001;https://whatpub.com/pubs/REI/55/greyhound-charlwood;;https://www.google.co.uk/maps/@51.1545917,-0.2201139,3a,75y,58.71h,85.72t/data=!3m6!1e1!3m4!1sgCeq8-r6ectEI1vqERS5fw!2e0!7i13312!8i6656
rh60-half-moon;;;;51.1556841555;-0.2260002548;open;;Half Moon;73 The Street;Charlwood;Horley;Surrey;RH6 0DS;;https://whatpub.com/img/REI/56/half-moon-charlwood/298/224/1;https://whatpub.com/pubs/REI/56/half-moon-charlwood;;https://www.google.co.uk/maps/@51.1558236,-0.2261244,3a,52.8y,158.27h,94.26t/data=!3m6!1e1!3m4!1stpQ662rI5AGYeRkCE4i0gg!2e0!7i13312!8i6656
rh60-rising-sun;;;;51.1555377936;-0.2241012481;gone;2014;Rising Sun;64 The Street;Charlwood;Horley;Surrey;RH6 0DS;;https://whatpub.com/img/REI/57/rising-sun-charlwood/298/224/1;https://whatpub.com/pubs/REI/57/rising-sun-charlwood;;https://www.google.co.uk/maps/@51.1554166,-0.2242422,3a,49.9y,45.71h,93.12t/data=!3m7!1e1!3m5!1sMCg82R1oD57ooLgftQLsQg!2e0!6s%2F%2Fgeo1.ggpht.com%2Fcbk%3Fpanoid%3DMCg82R1oD57ooLgftQLsQg%26output%3Dthumbnail%26cb_client%3Dmaps_sv.tactile.gps%26thumb%3D2%26w%3D203%26h%3D100%26yaw%3D174.65273%26pitch%3D0%26thumbfov%3D100!7i13312!8i6656
rh60-russ-hill-hotel;;hotel;;51.1464827467;-0.2458727413;open;;Russ Hill Hotel;Russ Hill;Charlwood;Horley;Surrey;RH6 0EL;;https://whatpub.com/img/REI/58/russ-hill-hotel-charlwood/298/224/1;https://whatpub.com/pubs/REI/58/russ-hill-hotel-charlwood;;https://www.google.co.uk/maps/@51.1476154,-0.2437331,3a,75y,226.4h,107.9t/data=!3m7!1e1!3m5!1sBWrOLEqwEF5uc9WKM6FcuQ!2e0!6s%2F%2Fgeo1.ggpht.com%2Fcbk%3Fpanoid%3DBWrOLEqwEF5uc9WKM6FcuQ%26output%3Dthumbnail%26cb_client%3Dmaps_sv.tactile.gps%26thumb%3D2%26w%3D203%26h%3D100%26yaw%3D201.3549%26pitch%3D0%26thumbfov%3D100!7i13312!8i6656
rh60-stanehill-court-hotel;;hotel;;51.1666161193;-0.2410984093;open;;Stanhill Court Hotel;Stanhill;Charlwood;Horley;Surrey;RH6 0EP;;https://whatpub.com/img/REI/59/stanhill-court-hotel-charlwood/298/224/1;https://whatpub.com/pubs/REI/59/stanhill-court-hotel-charlwood;;https://www.google.co.uk/maps/@51.1658363,-0.236524,3a,70.4y,281.4h,97.99t/data=!3m6!1e1!3m4!1sQaRYtT26FjkH_MP62GjeYg!2e0!7i13312!8i6656
rh60-fox-revived;;;;51.1773630468;-0.2273936583;open;;Fox Revived;Norwood Hill;Norwood Hill;Horley;Surrey;RH6 0ET;;https://whatpub.com/img/REI/262/fox-revived-norwood-hill/298/224/1;https://whatpub.com/pubs/REI/262/fox-revived-norwood-hill;;https://www.google.co.uk/maps/@51.1773537,-0.227041,3a,75y,283.4h,89.24t/data=!3m6!1e1!3m4!1sCxUGFt73W8qG9Cv8V8h0eA!2e0!7i13312!8i6656
rh60-black-horse;;;;51.172888;-0.19212;open;;Black Horse;Reigate Road ;Hookwood ;Horley;Surrey;RH6 0HU ;;https://whatpub.com/img/REI/196/black-horse-hookwood/298/224/1;https://whatpub.com/pubs/REI/196/black-horse-hookwood;;https://www.google.co.uk/maps/@51.172709,-0.192269,3a,44.9y,26.66h,92.68t/data=!3m6!1e1!3m4!1s2cTT4plTfenvR7sETI6iIA!2e0!7i13312!8i6656
;;;;;;;;;;;;;;;;;;
rh67-foresters;;;;51.17201;-0.16402;open;;Foresters;88 Victoria Road ;;Horley;Surrey;RH6 7AB ;;https://whatpub.com/img/REI/204/foresters-horley/298/224/1000001;https://whatpub.com/pubs/REI/204/foresters-horley;;https://www.google.co.uk/maps/@51.1718942,-0.1641143,3a,75y,23.4h,90.87t/data=!3m6!1e1!3m4!1sSg-6kPap8F0VrkFkH4V9QQ!2e0!7i13312!8i6656
rh67-tavern;;;;51.172598;-0.161947;open;;Tavern;42 High Street ;;Horley;Surrey;RH6 7BB ;;https://whatpub.com/img/REI/205/tavern-horley/298/224/1000001;https://whatpub.com/pubs/REI/205/tavern-horley;;https://www.google.co.uk/maps/@51.1726282,-0.1620563,3a,75y,113.67h,91.84t/data=!3m6!1e1!3m4!1sJQar_xBtD8gfPsHEs0wQww!2e0!7i13312!8i6656
rh67-fifty-four;;bar;;51.172978;-0.161312;open;;Fifty Four;54 High Street ;;Horley;Surrey;RH6 7BB ;;https://whatpub.com/img/REI/509/fifty-four-horley/298/224/1;https://whatpub.com/pubs/REI/509/fifty-four-horley;;https://www.google.co.uk/maps/@51.1729305,-0.1615435,3a,58.3y,105.77h,85.36t/data=!3m6!1e1!3m4!1szJoX2xwWLSrqdZ09eg7PNg!2e0!7i13312!8i6656
rh67-air-balloon;;;;51.174161;-0.169896;open;;Air Balloon;60 Brighton Road ;;Horley;Surrey;RH6 7HE ;;https://whatpub.com/img/REI/198/air-balloon-horley/298/224/1000001;https://whatpub.com/pubs/REI/198/air-balloon-horley;;https://www.google.co.uk/maps/@51.1743238,-0.1702066,3a,49y,127.36h,89.19t/data=!3m6!1e1!3m4!1smdXDK0baZTxbRrW58P43PA!2e0!7i13312!8i6656
rh67-station;;;;51.169967;-0.160478;gone;1993;Station;Station Approach ;;Horley;Surrey;RH6 7HQ ;;http://www.closedpubs.co.uk/surrey/pics/horley_stationtavern.jpg;http://www.closedpubs.co.uk/surrey/horley_stationtavern.html|https://whatpub.com/pubs/REI/213/station-horley;;
rh67-white-swan;;;;;;gone;1978;White Swan ;Station Approach ;;Horley;Surrey;;;http://www.closedpubs.co.uk/surrey/pics/horley_whiteswan.jpg;http://www.closedpubs.co.uk/surrey/horley_whiteswan.html;;
rh67-tracks;;bar;;51.168794;-0.161264;dead;late 1990s;Chancer's;Station Arches, The Drive ;;Horley;Surrey;RH6 7NQ ;Tracks ;;https://whatpub.com/pubs/REI/201/chancers-horley;;https://www.google.co.uk/maps/@51.1687765,-0.1616196,3a,51.3y,71.86h,91.31t/data=!3m6!1e1!3m4!1sOwb5Gqdnj92h9o_hYKUj3w!2e0!7i13312!8i6656
rh67-jack-fairman;;;;51.170436;-0.161747;open;;Jack Fairman;30 Victoria Road ;;Horley;Surrey;RH6 7PZ ;;https://whatpub.com/img/REI/404/jack-fairman-horley/298/224/1;https://whatpub.com/pubs/REI/404/jack-fairman-horley;;https://www.google.co.uk/maps/@51.1703179,-0.1620476,3a,75y,65.98h,90.05t/data=!3m6!1e1!3m4!1sr4HhCuti5ZUmyj3Cr6jZmw!2e0!7i13312!8i6656
rh67-51-degrees-north;;bar;;51.170719;-0.162531;open;;51 Degrees North Grill & Bar;63 Victoria Road ;;Horley;Surrey;RH6 7QH ;;;https://whatpub.com/pubs/REI/510/51-degrees-north-grill-bar-horley;;https://www.google.co.uk/maps/@51.1707712,-0.1623268,3a,34.6y,238.1h,87.67t/data=!3m6!1e1!3m4!1sjrVA0fpYyjkeQ7qd9EAbrQ!2e0!7i13312!8i6656
;;;;;;;;;;;;;;;;;;
rh68-olde-six-bells;;;;51.170123;-0.176207;open;;Olde Six Bells;Church Road ;;Horley;Surrey;RH6 8AD ;;https://whatpub.com/img/REI/210/olde-six-bells-horley/298/224/1;https://whatpub.com/pubs/REI/210/olde-six-bells-horley;;https://www.google.co.uk/maps/@51.1701756,-0.1759674,3a,89.7y,225.12h,85.81t/data=!3m6!1e1!3m4!1sijqSE479aski77yFtoEXfQ!2e0!7i13312!8i6656
rh68-bull;;;;51.179691;-0.172682;open;;Bull;Horley Row ;;Horley;Surrey;RH6 8DE ;;https://whatpub.com/img/REI/199/bull-horley/298/224/1;https://whatpub.com/pubs/REI/199/bull-horley;;https://www.google.co.uk/maps/@51.1799848,-0.1726426,3a,32.5y,188.24h,94.66t/data=!3m6!1e1!3m4!1s2CJCuUtX3NQbSxvIACpFWA!2e0!7i13312!8i6656
rh68-farmhouse;;;;51.18123;-0.156166;open;;Farmhouse;Langshott;;Horley;Surrey;RH6 8PB ;;https://whatpub.com/img/REI/203/farmhouse-horley/298/224/1;https://whatpub.com/pubs/REI/203/farmhouse-horley;;https://www.google.co.uk/maps/@51.1809753,-0.1565641,3a,75y,43.84h,90.34t/data=!3m6!1e1!3m4!1so8La4Sr4o_N0oRvIFLpKpQ!2e0!7i13312!8i6656
rh68-chequers-hotel;;hotel;;51.181356;-0.164174;limbo;;Chequers Hotel;Brighton Road ;;Horley;Surrey;RH6 8PH ;;https://whatpub.com/img/REI/214/menzies-chequers-hotel-london-gatwick-horley/298/224/1|http://www.closedpubs.co.uk/surrey/pics/horley_chequers.jpg;http://www.closedpubs.co.uk/surrey/horley_chequers.html|https://whatpub.com/pubs/REI/214/menzies-chequers-hotel-london-gatwick-horley;;https://www.google.co.uk/maps/@51.1810388,-0.1640925,3a,54.6y,6.21h,89.81t/data=!3m6!1e1!3m4!1svwQIsCAFGdjt6ZGBWT78bg!2e0!7i13312!8i6656
rh68-cambridge-hotel;;hotel;;51.187382;-0.164221;open;;Cambridge Hotel;19 Bonehurst Road ;;Horley;Surrey;RH6 8PP ;;https://whatpub.com/img/REI/200/cambridge-hotel-horley/298/224/1;https://whatpub.com/pubs/REI/200/cambridge-hotel-horley;;https://www.google.co.uk/maps/@51.1870617,-0.163743,3a,33.6y,313.22h,93.12t/data=!3m6!1e1!3m4!1sRI7HDxhRhsQeYYT2OIcRFg!2e0!7i13312!8i6656
rh68-skylane-hotel;;hotel;;51.186108;-0.16327;open;;Days Hotel;34 Bonehurst Road ;;Horley;Surrey;RH6 8QG ;Skylane ;https://whatpub.com/img/REI/212/days-hotel-horley/298/224/1;https://whatpub.com/pubs/REI/212/days-hotel-horley;;https://www.google.co.uk/maps/@51.1864175,-0.1637492,3a,46.7y,87.82h,91.67t/data=!3m6!1e1!3m4!1slxmS8NHfQCEuFel3_pYMgA!2e0!7i13312!8i6656
;;;;;;;;;;;;;;;;;;
rh69-coppingham-arms;;bar;;51.1611;-0.151391;open;;Jai Ho;263 Balcombe Road ;;Horley;Surrey;RH6 9EF ;Coppingham Arms ;https://whatpub.com/img/REI/202/jai-ho-horley/298/224/1|http://www.closedpubs.co.uk/surrey/pics/horley_coppinghamarms.JPG;http://www.closedpubs.co.uk/surrey/horley_coppinghamarms.html|https://whatpub.com/pubs/REI/202/jai-ho-horley;;https://www.google.co.uk/maps/@51.1611659,-0.1516382,3a,49.4y,106.19h,85.18t/data=!3m6!1e1!3m4!1sMjqqJ6JykTGCVjSx3FEvFw!2e0!7i13312!8i6656
rh69-kings-head;;;;51.174532;-0.159152;open;;King's Head;63 Balcombe Road ;;Horley;Surrey;RH6 9HY ;;https://whatpub.com/img/REI/209/kings-head-horley/298/224/1;https://whatpub.com/pubs/REI/209/kings-head-horley;;https://www.google.co.uk/maps/@51.174472,-0.1592953,3a,52y,70.52h,88.88t/data=!3m6!1e1!3m4!1sjIS1QnzmCPfK99gHtgrUww!2e0!7i13312!8i6656
;;;;;;;;;;;;;;;;;;
;;;;;;;;;;;;;;;;;;
rh110-gate;;;;51.121889;-0.249578;gone;;Gate;Rusper Road ;Ifield ;Crawley ;Surrey;RH11 0LQ ;;https://whatpub.com/img/NSX/042/gate-crawley/298/224/20848;https://whatpub.com/pubs/NSX/042/gate-crawley;;https://www.google.co.uk/maps/@51.1216592,-0.2494819,3a,75y,355.18h,91.12t/data=!3m6!1e1!3m4!1s6-ACwo82jwkrXQNiENnn7g!2e0!7i13312!8i6656
rh110-royal-oak;;;;51.1273;-0.2132;open;;Royal Oak;Ifield Green ;Ifield ;Crawley ;Surrey;RH11 0ND ;;https://whatpub.com/img/NSX/070/royal-oak-crawley/298/224/1999061;https://whatpub.com/pubs/NSX/070/royal-oak-crawley;;https://www.google.co.uk/maps/@51.127149,-0.2133577,3a,75y,246.58h,86.26t/data=!3m6!1e1!3m4!1snqFvAx8eKK-2tvwKT1Zl9w!2e0!7i13312!8i6656
rh110-plough;;;;51.124198;-0.218142;open;;Plough;Ifield Street ;Ifield ;Crawley ;Surrey;RH11 0NN ;;https://whatpub.com/img/NSX/065/plough-crawley/298/224/20862;https://whatpub.com/pubs/NSX/065/plough-crawley;;https://www.google.co.uk/maps/@51.1240564,-0.218077,3a,89.9y,349.54h,88.41t/data=!3m6!1e1!3m4!1syqT3JVfnF2SbkBlebzm9XA!2e0!7i13312!8i6656
rh110-flight-tavern;;hotel;;51.142781;-0.202674;open;;Maple Manor Hotel;Charlwood Road ;Lowfield Heath ;Crawley ;Surrey;RH11 0QA ;Flight Tavern;https://whatpub.com/img/NSX/039/flight-tavern-crawley/298/224/91057;https://whatpub.com/pubs/NSX/039/flight-tavern-crawley;;https://www.google.co.uk/maps/@51.1432127,-0.2024892,3a,75y,185.55h,97.04t/data=!3m6!1e1!3m4!1sNMDbtHyRS-REeVYW0oHxnA!2e0!7i13312!8i6656
rh110-white-lion;;;;;;bone;1970;White Lion ;Old Brighton Road ;Lowfield Heath ;Crawley ;Surrey;;;;http://www.closedpubs.co.uk/surrey/lowfieldheath_whitelion.html;;
;;;;;;;;;;;;;;;;;;
;;;;;;;;;;;;;;;;;;
rh123-wheatsheaf-inn;;;;51.111428;-0.432532;gone;2013;Wheatsheaf Inn;Horsham Road ;Ellens Green ;Horsham;Surrey;RH12 3AS ;;https://whatpub.com/img/REI/116/wheatsheaf-inn-ellens-green/298/224/1;https://whatpub.com/pubs/REI/116/wheatsheaf-inn-ellens-green;;https://www.google.co.uk/maps/@51.1113826,-0.4323184,3a,75y,237.66h,91.41t/data=!3m6!1e1!3m4!1sV_rLOqp7oW8gTzHTCPMiEg!2e0!7i13312!8i6656
rh123-kings-head;;;;51.097499;-0.444099;open;;Kings Head;Church Street ;Rudgwick ;Horsham;Surrey;RH12 3EB ;;https://whatpub.com/img/NSX/167/kings-head-rudgwick/298/224/20964;https://whatpub.com/pubs/NSX/167/kings-head-rudgwick;;https://www.google.co.uk/maps/@51.0974988,-0.4443298,3a,75y,69.21h,88.41t/data=!3m7!1e1!3m5!1s7bNey9cdFKClpuBjOkiAMA!2e0!6s%2F%2Fgeo0.ggpht.com%2Fcbk%3Fpanoid%3D7bNey9cdFKClpuBjOkiAMA%26output%3Dthumbnail%26cb_client%3Dmaps_sv.tactile.gps%26thumb%3D2%26w%3D203%26h%3D100%26yaw%3D16.874342%26pitch%3D0%26thumbfov%3D100!7i13312!8i6656
rh123-chequers-inn;;;;51.095698;-0.398266;open;;Chequers Inn;Rowhook Road ;Rowhook ;Horsham;Surrey;RH12 3PY ;;https://whatpub.com/img/NSX/166/chequers-inn-rowhook/298/224/20963;https://whatpub.com/pubs/NSX/166/chequers-inn-rowhook;;https://www.google.co.uk/maps/@51.0956944,-0.3978959,3a,53y,276.03h,95.38t/data=!3m6!1e1!3m4!1sBY0JhzgeoxQQYyBsdjCbSQ!2e0!7i13312!8i6656
rh123-greets-inn;;;;51.089072;-0.353944;open;;Greets Inn;47 Friday Street ;Warnham ;Horsham;Surrey;RH12 3QY ;;https://whatpub.com/img/NSX/188/greets-inn-warnham/298/224/20978;https://whatpub.com/pubs/NSX/188/greets-inn-warnham;;https://www.google.co.uk/maps/@51.0891097,-0.3538508,3a,75y,207.5h,91.03t/data=!3m6!1e1!3m4!1sp-4GFtNoJu2HsMnzNZsN3A!2e0!7i13312!8i6656
rh123-sussex-oak;;;;51.091367;-0.346857;open;;Sussex Oak;2 Church Street ;Warnham ;Horsham;Surrey;RH12 3QW ;;https://whatpub.com/img/NSX/189/sussex-oak-warnham/298/224/20390;https://whatpub.com/pubs/NSX/189/sussex-oak-warnham;;https://www.google.co.uk/maps/@51.0913306,-0.3465383,3a,50.9y,279.2h,86.88t/data=!3m6!1e1!3m4!1sPKvAk3_bZvKcZOMt4bOPLw!2e0!7i13312!8i6656
rh123-dog-duck;;;;51.105853;-0.334278;open;;Dog & Duck;Dorking Road ;Kingsfold ;Horsham;Surrey;RH12 3SA ;;https://whatpub.com/img/NSX/148/dog-duck-kingsfold/298/224/20954;https://whatpub.com/pubs/NSX/148/dog-duck-kingsfold;;https://www.google.co.uk/maps/@51.1059754,-0.3340411,3a,75y,316.03h,92.25t/data=!3m6!1e1!3m4!1sQVcEfotKXNnFdls7qzzz_w!2e0!7i13312!8i6656
rh123-wheatsheaf;;;;51.115522;-0.332006;open;;Owl;Dorking Road ;Kingsfold ;Horsham;Surrey;RH12 3SA ;Wheatsheaf;https://whatpub.com/img/NSX/149/owl-kingsfold/298/224/20726;https://whatpub.com/pubs/NSX/149/owl-kingsfold;;https://www.google.co.uk/maps/@51.1154796,-0.3316113,3a,75y,279.15h,90.52t/data=!3m7!1e1!3m5!1s7ndOH4-t8g_IYkN0R9XPIw!2e0!6s%2F%2Fgeo0.ggpht.com%2Fcbk%3Fpanoid%3D7ndOH4-t8g_IYkN0R9XPIw%26output%3Dthumbnail%26cb_client%3Dmaps_sv.tactile.gps%26thumb%3D2%26w%3D203%26h%3D100%26yaw%3D23.63968%26pitch%3D0%26thumbfov%3D100!7i13312!8i6656
;;;;;;;;;;;;;;;;;;
rh124-plough-inn;;;;51.122829;-0.278695;open;;Plough & Attic Rooms;High Street ;Rusper;Horsham;Surrey;RH12 4PX ;Plough Inn;https://whatpub.com/img/NSX/168/plough-attic-rooms-rusper/298/224/20965;https://whatpub.com/pubs/NSX/168/plough-attic-rooms-rusper;;https://www.google.co.uk/maps/@51.1226853,-0.2788419,3a,49.5y,42.98h,88.8t/data=!3m7!1e1!3m5!1s_8-OCr1JLdQ_nHQ8jXj-jw!2e0!6s%2F%2Fgeo0.ggpht.com%2Fcbk%3Fpanoid%3D_8-OCr1JLdQ_nHQ8jXj-jw%26output%3Dthumbnail%26cb_client%3Dmaps_sv.tactile.gps%26thumb%3D2%26w%3D203%26h%3D100%26yaw%3D16.601698%26pitch%3D0%26thumbfov%3D100!7i13312!8i6656
rh124-star;;;;51.121736;-0.278596;open;;Star;Horsham Road ;Rusper;Horsham;Surrey;RH12 4RA ;;https://whatpub.com/img/NSX/170/star-rusper/298/224/20966;https://whatpub.com/pubs/NSX/170/star-rusper;;https://www.google.co.uk/maps/@51.1218858,-0.2785549,3a,73.6y,199.24h,93.93t/data=!3m7!1e1!3m5!1sCwz5FTWimEBLP4gGG-9ypQ!2e0!6s%2F%2Fgeo0.ggpht.com%2Fcbk%3Fpanoid%3DCwz5FTWimEBLP4gGG-9ypQ%26output%3Dthumbnail%26cb_client%3Dmaps_sv.tactile.gps%26thumb%3D2%26w%3D203%26h%3D100%26yaw%3D338.94336%26pitch%3D0%26thumbfov%3D100!7i13312!8i6656
rh124-lamb-inn;;;;51.117634;-0.258698;open;;Lamb Inn;Lambs Green Road, Lambs Green ;Rusper;Horsham;Surrey;RH12 4RG ;;https://whatpub.com/img/NSX/152/lamb-inn-lambs-green/298/224/20793;https://whatpub.com/pubs/NSX/152/lamb-inn-lambs-green;;https://www.google.co.uk/maps/@51.1177474,-0.2588118,3a,75y,150.74h,85.41t/data=!3m6!1e1!3m4!1svd9BXyhnhPnXIl8Rg8e9sA!2e0!7i13312!8i6656
;;;;;;;;;;;;;;;;;;
;;;;;;;;;;;;;;;;;;
sm71-wheatsheaf;;;;51.317874;-0.210967;gone;;Olive Tree;Brighton Road ;;Banstead ;Surrey;SM7 1AT ;Wheatsheaf ;https://whatpub.com/img/REI/12/olive-tree-banstead/298/224/1;https://whatpub.com/pubs/REI/12/olive-tree-banstead;;https://www.google.co.uk/maps/@51.3178693,-0.2114378,3a,75y,115.32h,93.44t/data=!3m6!1e1!3m4!1sk3KEMcacj_dnImGe_maO4Q!2e0!7i13312!8i6656
;;;;;;;;;;;;;;;;;;
sm72-victoria;;;;51.322098;-0.204919;dead;2004;Victoria;1 High Street ;;Banstead ;Surrey;SM7 2NE ;;https://whatpub.com/img/REI/11/victoria-banstead/298/224/1;https://whatpub.com/pubs/REI/11/victoria-banstead;;https://www.google.co.uk/maps/@51.3219113,-0.2048345,3a,62.1y,351.97h,90.95t/data=!3m7!1e1!3m5!1s_5AvCtj_cXvkquKwH9pJcA!2e0!6s%2F%2Fgeo3.ggpht.com%2Fcbk%3Fpanoid%3D_5AvCtj_cXvkquKwH9pJcA%26output%3Dthumbnail%26cb_client%3Dmaps_sv.tactile.gps%26thumb%3D2%26w%3D203%26h%3D100%26yaw%3D0.2719237%26pitch%3D0%26thumbfov%3D100!7i13312!8i6656
sm72-caffe-italia;;bar;;51.322593;-0.202029;open;;Caffe Italia;49 High Street ;;Banstead ;Surrey;SM7 2NL ;;https://whatpub.com/img/REI/421/caffe-italia-banstead/298/224/1;https://whatpub.com/pubs/REI/421/caffe-italia-banstead;;https://www.google.co.uk/maps/@51.3224936,-0.2020234,3a,49.5y,342.08h,86.82t/data=!3m6!1e1!3m4!1snXAC4GVBL6r9RCPKLVcqFw!2e0!7i13312!8i6656
sm72-woolpack;;;;51.324203;-0.195651;open;;Woolpack;186 High Street ;;Banstead ;Surrey;SM7 2NZ ;;https://whatpub.com/img/REI/13/woolpack-banstead/298/224/1;https://whatpub.com/pubs/REI/13/woolpack-banstead;;https://www.google.co.uk/maps/@51.3244427,-0.1956753,3a,49.8y,173.71h,94.13t/data=!3m6!1e1!3m4!1scYGlLrzct8QYxndqSXXAig!2e0!7i13312!8i6656
;;;;;;;;;;;;;;;;;;
sm73-mint;;;;51.317644;-0.190168;open;;Mint;Park Road ;;Banstead ;Surrey;SM7 3DS ;;https://whatpub.com/img/REI/10/mint-banstead/298/224/1;https://whatpub.com/pubs/REI/10/mint-banstead;;https://www.google.co.uk/maps/@51.3177288,-0.1900372,3a,75y,259.63h,86.48t/data=!3m6!1e1!3m4!1sYwZDla9C9-o2YFo6geC8Tw!2e0!7i13312!8i6656
sm73-woodman;;;;51.324101;-0.171686;open;;Woodman;Woodmansterne Street ;Woodmansterne ;Banstead ;Surrey;SM7 3NL ;;https://whatpub.com/img/REI/390/woodman-woodmansterne/298/224/1;https://whatpub.com/pubs/REI/390/woodman-woodmansterne;;https://www.google.co.uk/maps/@51.323876,-0.1716074,3a,49y,355.39h,87.66t/data=!3m6!1e1!3m4!1s6yiJ9paUT3QhPXJV2nBhMQ!2e0!7i13312!8i6656
